"Station Name","TORONTO BUTTONVILLE A"
"Province","ONTARIO"
"Latitude","43.86"
"Longitude","-79.37"
"Elevation","198.10"
"Climate Identifier","615HMAK"
"WMO Identifier","71639"
"TC Identifier","YKZ"
"All times are specified in Local Standard Time (LST). Add 1 hour to adjust for Daylight Saving Time where and when it is observed."

"Legend"
"E","Estimated"
"M","Missing"
"NA","Not Available"

"Date/Time","Year","Month","Day","Time","Temp (°C)","Temp Flag","Dew Point Temp (°C)","Dew Point Temp Flag","Rel Hum (%)","Rel Hum Flag","Wind Dir (10s deg)","Wind Dir Flag","Wind Spd (km/h)","Wind Spd Flag","Visibility (km)","Visibility Flag","Stn Press (kPa)","Stn Press Flag","Hmdx","Hmdx Flag","Wind Chill","Wind Chill Flag","Weather"
"2015-02-01 00:00","2015","02","01","00:00","-3.1","","-5.4","","84","","26","","11","","11.3","","99.65","","","","-7","","Snow Showers"
"2015-02-01 01:00","2015","02","01","01:00","-3.1","","-5.2","","85","","27","","7","","11.3","","99.65","","","","-6","","Snow Showers"
"2015-02-01 02:00","2015","02","01","02:00","-3.3","","-5.8","","83","","34","","11","","12.9","","99.69","","","","-8","","Snow Showers"
"2015-02-01 03:00","2015","02","01","03:00","-4.6","","-6.8","","85","","36","","13","","12.9","","99.74","","","","-10","","Snow Showers"
"2015-02-01 04:00","2015","02","01","04:00","-5.5","","-8.0","","83","","35","","17","","12.9","","99.79","","","","-12","","Snow Showers"
"2015-02-01 05:00","2015","02","01","05:00","-6.2","","-8.9","","81","","36","","11","","19.3","","99.87","","","","-11","","Snow Showers"
"2015-02-01 06:00","2015","02","01","06:00","-8.8","","-10.9","","85","","1","","15","","24.1","","99.96","","","","-15","","Cloudy"
"2015-02-01 07:00","2015","02","01","07:00","-12.0","","-14.7","","80","","1","","19","","24.1","","100.04","","","","-20","","Cloudy"
"2015-02-01 08:00","2015","02","01","08:00","-13.0","","-15.8","","79","","1","","17","","24.1","","100.05","","","","-21","","Cloudy"
"2015-02-01 09:00","2015","02","01","09:00","-13.9","","-17.2","","76","","36","","22","","24.1","","100.07","","","","-23","","Cloudy"
"2015-02-01 10:00","2015","02","01","10:00","-13.7","","-22.1","","49","","7","","15","","24.1","","100.13","","","","-21","","Cloudy"
"2015-02-01 11:00","2015","02","01","11:00","-13.3","","-20.7","","54","","3","","15","","24.1","","100.11","","","","-21","","Cloudy"
"2015-02-01 12:00","2015","02","01","12:00","-12.3","","-20.3","","51","","4","","13","","24.1","","100.02","","","","-19","","Cloudy"
"2015-02-01 13:00","2015","02","01","13:00","-11.7","","-20.5","","48","","3","","13","","24.1","","99.92","","","","-18","","Cloudy"
"2015-02-01 14:00","2015","02","01","14:00","-11.4","","-20.0","","49","","4","","9","","24.1","","99.85","","","","-17","","Cloudy"
"2015-02-01 15:00","2015","02","01","15:00","-11.1","","-19.5","","50","","6","","13","","24.1","","99.78","","","","-18","","Cloudy"
"2015-02-01 16:00","2015","02","01","16:00","-11.5","","-20.8","","46","","7","","13","","24.1","","99.70","","","","-18","","Cloudy"
"2015-02-01 17:00","2015","02","01","17:00","-12.1","","-21.1","","47","","8","","13","","24.1","","99.65","","","","-19","","Cloudy"
"2015-02-01 18:00","2015","02","01","18:00","-13.2","","-19.4","","60","","7","","15","","4.8","","99.55","","","","-21","","Snow"
"2015-02-01 19:00","2015","02","01","19:00","-13.1","","-20.2","","55","","7","","17","","9.7","","99.45","","","","-21","","Snow"
"2015-02-01 20:00","2015","02","01","20:00","-13.4","","-19.7","","59","","9","","20","","2.8","","99.33","","","","-22","","Snow"
"2015-02-01 21:00","2015","02","01","21:00","-13.8","","-17.8","","72","","7","","24","","2.8","","99.23","","","","-23","","Snow"
"2015-02-01 22:00","2015","02","01","22:00","-14.2","","-17.1","","79","","6","","20","","1.2","","99.10","","","","-23","","Snow"
"2015-02-01 23:00","2015","02","01","23:00","-14.6","","-17.3","","80","","5","","20","","1.2","","98.91","","","","-24","","Snow"
"2015-02-02 00:00","2015","02","02","00:00","-15.2","","-18.0","","79","","4","","20","","1.0","","98.76","","","","-24","","Snow"
"2015-02-02 01:00","2015","02","02","01:00","-15.5","","-18.2","","80","","4","","22","","0.6","","98.57","","","","-25","","Moderate Snow"
"2015-02-02 02:00","2015","02","02","02:00","-16.0","","-18.8","","79","","4","","20","","0.8","","98.41","","","","-25","","Moderate Snow"
"2015-02-02 03:00","2015","02","02","03:00","-16.0","","-19.0","","78","","3","","22","","1.0","","98.32","","","","-26","","Snow"
"2015-02-02 04:00","2015","02","02","04:00","-16.0","","-18.9","","78","","3","","22","","1.2","","98.22","","","","-26","","Snow"
"2015-02-02 05:00","2015","02","02","05:00","-15.7","","-18.5","","79","","3","","22","","1.2","","98.16","","","","-25","","Snow"
"2015-02-02 06:00","2015","02","02","06:00","-15.5","","-18.7","","76","","3","","28","","1.6","","98.09","","","","-26","","Snow"
"2015-02-02 07:00","2015","02","02","07:00","-15.6","","-18.9","","76","","2","","28","","1.6","","98.15","","","","-26","","Snow"
"2015-02-02 08:00","2015","02","02","08:00","-16.1","","-19.0","","78","","1","","24","","0.2","","98.24","","","","-26","","Heavy Snow"
"2015-02-02 09:00","2015","02","02","09:00","-16.0","","-19.2","","76","","36","","26","","1.0","","98.33","","","","-27","","Snow"
"2015-02-02 10:00","2015","02","02","10:00","-16.0","","-20.1","","71","","36","","28","","6.4","","98.44","","","","-27","","Blowing Snow"
"2015-02-02 11:00","2015","02","02","11:00","-15.2","","-20.0","","67","","35","","33","","12.9","","98.58","","","","-27","","Cloudy"
"2015-02-02 12:00","2015","02","02","12:00","-14.1","","-19.2","","65","","35","","26","","24.1","","98.63","","","","-24","","Mostly Cloudy"
"2015-02-02 13:00","2015","02","02","13:00","-14.1","","-19.3","","65","","35","","33","","24.1","","98.66","","","","-25","","Cloudy"
"2015-02-02 14:00","2015","02","02","14:00","-12.8","","-18.2","","64","","34","","24","","24.1","","98.73","","","","-22","","Cloudy"
"2015-02-02 15:00","2015","02","02","15:00","-12.4","","-18.1","","62","","33","","26","","24.1","","98.85","","","","-22","","Mainly Clear"
"2015-02-02 16:00","2015","02","02","16:00","-12.5","","-18.2","","62","","33","","20","","24.1","","98.96","","","","-21","","Clear"
"2015-02-02 17:00","2015","02","02","17:00","-13.3","","-18.0","","68","","32","","17","","24.1","","99.06","","","","-21","","Clear"
"2015-02-02 18:00","2015","02","02","18:00","-14.0","","-18.0","","72","","31","","6","","24.1","","99.15","","","","-18","","Clear"
"2015-02-02 19:00","2015","02","02","19:00","-14.3","","-18.2","","72","","33","","6","","24.1","","99.21","","","","-18","","Clear"
"2015-02-02 20:00","2015","02","02","20:00","-14.6","","-18.6","","72","","29","","7","","24.1","","99.33","","","","-19","","Clear"
"2015-02-02 21:00","2015","02","02","21:00","-14.8","","-19.2","","69","","29","","9","","24.1","","99.44","","","","-21","","Clear"
"2015-02-02 22:00","2015","02","02","22:00","-15.2","","-20.4","","64","","29","","11","","24.1","","99.49","","","","-22","","Mainly Clear"
"2015-02-02 23:00","2015","02","02","23:00","-15.3","","-20.5","","64","","27","","6","","24.1","","99.50","","","","-20","","Mostly Cloudy"
"2015-02-03 00:00","2015","02","03","00:00","-14.6","","-19.2","","68","","25","","6","","24.1","","99.51","","","","-19","","Cloudy"
"2015-02-03 01:00","2015","02","03","01:00","-14.6","","-18.9","","70","","24","","7","","24.1","","99.47","","","","-19","","Cloudy"
"2015-02-03 02:00","2015","02","03","02:00","-14.6","","-18.3","","73","","23","","6","","24.1","","99.46","","","","-19","","Cloudy"
"2015-02-03 03:00","2015","02","03","03:00","-14.8","","-18.1","","76","","25","","7","","24.1","","99.46","","","","-20","","Mostly Cloudy"
"2015-02-03 04:00","2015","02","03","04:00","-14.5","","-17.9","","75","","24","","11","","24.1","","99.45","","","","-21","","Mostly Cloudy"
"2015-02-03 05:00","2015","02","03","05:00","-13.8","","-18.7","","66","","24","","13","","24.1","","99.45","","","","-21","","Cloudy"
"2015-02-03 06:00","2015","02","03","06:00","-13.5","","-18.6","","65","","24","","9","","24.1","","99.43","","","","-19","","Cloudy"
"2015-02-03 07:00","2015","02","03","07:00","-13.1","","-17.8","","68","","23","","6","","24.1","","99.46","","","","-17","","Cloudy"
"2015-02-03 08:00","2015","02","03","08:00","-12.5","","-16.8","","70","","22","","6","","24.1","","99.48","","","","-16","","Mostly Cloudy"
"2015-02-03 09:00","2015","02","03","09:00","-11.9","","-15.9","","72","","21","","9","","24.1","","99.52","","","","-17","","Mostly Cloudy"
"2015-02-03 10:00","2015","02","03","10:00","-11.4","","-15.0","","75","","23","","11","","24.1","","99.53","","","","-17","","Mostly Cloudy"
"2015-02-03 11:00","2015","02","03","11:00","-9.2","","-13.9","","69","","25","","15","","24.1","","99.58","","","","-16","","Mostly Cloudy"
"2015-02-03 12:00","2015","02","03","12:00","-8.1","","-12.4","","71","","24","","19","","24.1","","99.53","","","","-15","","Mostly Cloudy"
"2015-02-03 13:00","2015","02","03","13:00","-5.8","","-11.6","","64","","25","","17","","24.1","","99.50","","","","-12","","Mainly Clear"
"2015-02-03 14:00","2015","02","03","14:00","-5.6","","-11.6","","63","","26","","22","","24.1","","99.48","","","","-13","","Mostly Cloudy"
"2015-02-03 15:00","2015","02","03","15:00","-5.5","","-12.6","","57","","25","","22","","24.1","","99.51","","","","-13","","Mostly Cloudy"
"2015-02-03 16:00","2015","02","03","16:00","-6.4","","-12.8","","60","","26","","17","","24.1","","99.52","","","","-13","","Mostly Cloudy"
"2015-02-03 17:00","2015","02","03","17:00","-6.9","","-12.7","","63","","26","","11","","24.1","","99.53","","","","-12","","Mainly Clear"
"2015-02-03 18:00","2015","02","03","18:00","-7.4","","-12.3","","68","","24","","13","","24.1","","99.58","","","","-13","","Mostly Cloudy"
"2015-02-03 19:00","2015","02","03","19:00","-7.5","","-11.7","","72","","23","","13","","24.1","","99.60","","","","-13","","Mostly Cloudy"
"2015-02-03 20:00","2015","02","03","20:00","-7.3","","-12.1","","68","","24","","19","","24.1","","99.64","","","","-14","","Mostly Cloudy"
"2015-02-03 21:00","2015","02","03","21:00","-7.8","","-12.1","","71","","25","","13","","24.1","","99.62","","","","-14","","Mostly Cloudy"
"2015-02-03 22:00","2015","02","03","22:00","-7.8","","-11.7","","74","","25","","9","","24.1","","99.60","","","","-12","","Cloudy"
"2015-02-03 23:00","2015","02","03","23:00","-7.6","","-11.6","","73","","24","","7","","16.1","","99.55","","","","-11","","Snow"
"2015-02-04 00:00","2015","02","04","00:00","-7.5","","-9.0","","89","","22","","7","","4.0","","99.52","","","","-11","","Snow"
"2015-02-04 01:00","2015","02","04","01:00","-6.9","","-8.0","","92","","23","","4","","1.6","","99.44","","","","-9","","Snow"
"2015-02-04 02:00","2015","02","04","02:00","-6.5","","-7.5","","93","","20","","4","","1.6","","99.37","","","","-8","","Snow"
"2015-02-04 03:00","2015","02","04","03:00","-6.1","","-7.0","","93","","21","","7","","6.4","","99.28","","","","-9","","Snow"
"2015-02-04 04:00","2015","02","04","04:00","-5.7","","-6.7","","93","","25","","7","","9.7","","99.21","","","","-9","","Snow"
"2015-02-04 05:00","2015","02","04","05:00","-5.9","","-6.8","","93","","","","0","","6.4","","99.10","","","","","","Snow"
"2015-02-04 06:00","2015","02","04","06:00","-6.4","","-7.3","","93","","36","","4","","6.4","","99.06","","","","-8","","Snow"
"2015-02-04 07:00","2015","02","04","07:00","-6.6","","-7.5","","93","","36","","4","","6.4","","99.05","","","","-9","","Snow"
"2015-02-04 08:00","2015","02","04","08:00","-6.4","","-7.4","","93","","1","","4","","6.4","","99.04","","","","-8","","Snow"
"2015-02-04 09:00","2015","02","04","09:00","-5.4","","-6.4","","93","","","","0","","4.8","","99.02","","","","","","Snow"
"2015-02-04 10:00","2015","02","04","10:00","-3.3","","-4.4","","92","","22","","7","","3.6","","98.99","","","","-6","","Snow"
"2015-02-04 11:00","2015","02","04","11:00","-2.8","","-3.9","","92","","25","","9","","3.2","","98.95","","","","-6","","Snow"
"2015-02-04 12:00","2015","02","04","12:00","-2.4","","-3.7","","91","","26","","15","","3.2","","98.92","","","","-7","","Snow"
"2015-02-04 13:00","2015","02","04","13:00","-2.0","","-3.9","","87","","25","","9","","4.8","","98.84","","","","-5","","Snow"
"2015-02-04 14:00","2015","02","04","14:00","-1.9","","-4.4","","83","","27","","13","","8.0","","98.80","","","","-6","","Snow"
"2015-02-04 15:00","2015","02","04","15:00","-2.0","","-5.1","","79","","27","","22","","6.4","","98.78","","","","-8","","Snow"
"2015-02-04 16:00","2015","02","04","16:00","-2.8","","-6.6","","75","","31","","15","","8.0","","98.81","","","","-8","","Snow"
"2015-02-04 17:00","2015","02","04","17:00","-5.0","","-8.3","","78","","34","","17","","4.0","","98.92","","","","-11","","Snow"
"2015-02-04 18:00","2015","02","04","18:00","-6.1","","-8.7","","82","","32","","15","","11.3","","99.06","","","","-12","","Snow"
"2015-02-04 19:00","2015","02","04","19:00","-6.2","","-9.7","","76","","34","","11","","11.3","","99.11","","","","-11","","Cloudy"
"2015-02-04 20:00","2015","02","04","20:00","-6.9","","-10.9","","73","","35","","17","","24.1","","99.20","","","","-13","","Cloudy"
"2015-02-04 21:00","2015","02","04","21:00","-7.3","","-9.9","","82","","35","","15","","19.3","","99.25","","","","-13","","Snow"
"2015-02-04 22:00","2015","02","04","22:00","-7.9","","-10.4","","82","","35","","15","","19.3","","99.31","","","","-14","","Snow"
"2015-02-04 23:00","2015","02","04","23:00","-9.2","","-11.1","","86","","34","","7","","19.3","","99.34","","","","-13","","Snow"
"2015-02-05 00:00","2015","02","05","00:00","-9.2","","-11.8","","81","","33","","15","","19.3","","99.41","","","","-16","","Snow"
"2015-02-05 01:00","2015","02","05","01:00","-9.9","","-12.9","","79","","34","","22","","8.0","","99.47","","","","-18","","Snow"
"2015-02-05 02:00","2015","02","05","02:00","-11.1","","-13.4","","83","","35","","9","","19.3","","99.52","","","","-16","","Snow"
"2015-02-05 03:00","2015","02","05","03:00","-12.5","","-14.0","","89","","30","","4","","19.3","","99.58","","","","-15","","Snow"
"2015-02-05 04:00","2015","02","05","04:00","-13.3","","-16.8","","75","","29","","7","","24.1","","99.63","","","","-18","","Mainly Clear"
"2015-02-05 05:00","2015","02","05","05:00","-14.5","","-17.5","","78","","30","","7","","19.3","","99.72","","","","-19","","Clear"
"2015-02-05 06:00","2015","02","05","06:00","-14.8","","-21.2","","58","","32","","11","","19.3","","99.84","","","","-21","","Clear"
"2015-02-05 07:00","2015","02","05","07:00","-15.8","","-19.9","","71","","32","","13","","19.3","","99.97","","","","-23","","Clear"
"2015-02-05 08:00","2015","02","05","08:00","-15.7","","-19.8","","71","","32","","11","","25.0","","100.09","","","","-22","","Clear"
"2015-02-05 09:00","2015","02","05","09:00","-15.3","","-19.9","","68","","34","","13","","25.0","","100.19","","","","-23","","Clear"
"2015-02-05 10:00","2015","02","05","10:00","-14.6","","-20.2","","62","","36","","15","","25.0","","100.26","","","","-22","","Mainly Clear"
"2015-02-05 11:00","2015","02","05","11:00","-13.2","","-21.2","","51","","35","","15","","25.0","","100.32","","","","-21","","Clear"
"2015-02-05 12:00","2015","02","05","12:00","-12.1","","-20.6","","49","","34","","11","","25.0","","100.31","","","","-18","","Clear"
"2015-02-05 13:00","2015","02","05","13:00","-11.6","","-22.0","","42","","34","","13","","25.0","","100.24","","","","-18","","Clear"
"2015-02-05 14:00","2015","02","05","14:00","-11.6","","-20.2","","49","","34","","15","","25.0","","100.19","","","","-19","","Clear"
"2015-02-05 15:00","2015","02","05","15:00","-10.9","","-19.4","","50","","35","","13","","24.1","","100.17","","","","-17","","Mainly Clear"
"2015-02-05 16:00","2015","02","05","16:00","-11.1","","-19.3","","51","","35","","9","","24.1","","100.13","","","","-16","","Mainly Clear"
"2015-02-05 17:00","2015","02","05","17:00","-11.6","","-19.0","","54","","36","","7","","24.1","","100.10","","","","-16","","Mainly Clear"
"2015-02-05 18:00","2015","02","05","18:00","-11.8","","-19.3","","54","","27","","7","","24.1","","100.09","","","","-16","","Clear"
"2015-02-05 19:00","2015","02","05","19:00","-12.2","","-18.8","","58","","26","","7","","24.1","","100.07","","","","-17","","Clear"
"2015-02-05 20:00","2015","02","05","20:00","-12.4","","-18.7","","59","","24","","7","","24.1","","100.03","","","","-17","","Clear"
"2015-02-05 21:00","2015","02","05","21:00","-12.7","","-18.7","","61","","24","","11","","24.1","","99.95","","","","-19","","Mainly Clear"
"2015-02-05 22:00","2015","02","05","22:00","-13.2","","-18.8","","63","","23","","13","","24.1","","99.86","","","","-20","","Mostly Cloudy"
"2015-02-05 23:00","2015","02","05","23:00","-13.0","","-19.2","","60","","22","","11","","24.1","","99.77","","","","-19","","Cloudy"
"2015-02-06 00:00","2015","02","06","00:00","-12.7","","-19.1","","59","","22","","17","","24.1","","99.66","","","","-21","","Cloudy"
"2015-02-06 01:00","2015","02","06","01:00","-12.1","","-17.8","","62","","23","","15","","24.1","","99.55","","","","-19","","Cloudy"
"2015-02-06 02:00","2015","02","06","02:00","-11.9","","-17.1","","65","","23","","20","","24.1","","99.47","","","","-20","","Cloudy"
"2015-02-06 03:00","2015","02","06","03:00","-12.4","","-16.7","","70","","23","","17","","19.3","","99.40","","","","-20","","Snow Showers"
"2015-02-06 04:00","2015","02","06","04:00","-12.6","","-15.1","","82","","22","","13","","1.6","","99.30","","","","-19","","Snow Showers"
"2015-02-06 05:00","2015","02","06","05:00","-12.1","","-14.0","","86","","24","","15","","11.3","","99.24","","","","-19","","Snow Showers"
"2015-02-06 06:00","2015","02","06","06:00","-10.7","","-13.0","","83","","26","","17","","9.7","","99.24","","","","-18","","Snow Showers"
"2015-02-06 07:00","2015","02","06","07:00","-10.6","","-13.2","","81","","25","","17","","11.3","","99.19","","","","-18","","Snow Showers"
"2015-02-06 08:00","2015","02","06","08:00","-10.5","","-13.7","","77","","25","","17","","22.5","","99.22","","","","-18","","Mainly Clear"
"2015-02-06 09:00","2015","02","06","09:00","-9.6","","-13.6","","73","","25","","22","","19.3","","99.27","","","","-18","","Mainly Clear"
"2015-02-06 10:00","2015","02","06","10:00","-8.5","","-13.0","","70","","25","","20","","19.3","","99.29","","","","-16","","Mainly Clear"
"2015-02-06 11:00","2015","02","06","11:00","-6.8","","-11.9","","67","","26","","17","","19.3","","99.28","","","","-13","","Mostly Cloudy"
"2015-02-06 12:00","2015","02","06","12:00","-6.1","","-11.5","","66","","25","","24","","17.7","","99.26","","","","-14","","Mainly Clear"
"2015-02-06 13:00","2015","02","06","13:00","-4.7","","-10.9","","62","","25","","26","","19.3","","99.23","","","","-12","","Mainly Clear"
"2015-02-06 14:00","2015","02","06","14:00","-4.2","","-10.7","","60","","25","","20","","19.3","","99.18","","","","-11","","Mostly Cloudy"
"2015-02-06 15:00","2015","02","06","15:00","-3.8","","-10.5","","60","","26","","22","","19.3","","99.26","","","","-10","","Mainly Clear"
"2015-02-06 16:00","2015","02","06","16:00","-4.2","","-10.2","","63","","24","","22","","19.3","","99.22","","","","-11","","Mainly Clear"
"2015-02-06 17:00","2015","02","06","17:00","-5.1","","-10.5","","66","","26","","26","","19.3","","99.31","","","","-13","","Mostly Cloudy"
"2015-02-06 18:00","2015","02","06","18:00","-5.6","","-9.6","","73","","25","","17","","19.3","","99.35","","","","-12","","Mostly Cloudy"
"2015-02-06 19:00","2015","02","06","19:00","-5.7","","-9.4","","75","","25","","15","","19.3","","99.39","","","","-11","","Mostly Cloudy"
"2015-02-06 20:00","2015","02","06","20:00","-5.8","","-9.3","","76","","24","","17","","16.1","","99.37","","","","-12","","Cloudy"
"2015-02-06 21:00","2015","02","06","21:00","-5.5","","-9.4","","74","","25","","19","","16.1","","99.38","","","","-12","","Cloudy"
"2015-02-06 22:00","2015","02","06","22:00","-5.4","","-9.2","","75","","25","","19","","16.1","","99.35","","","","-12","","Cloudy"
"2015-02-06 23:00","2015","02","06","23:00","-5.1","","-9.1","","73","","26","","17","","16.1","","99.29","","","","-11","","Cloudy"
"2015-02-07 00:00","2015","02","07","00:00","-4.9","","-8.8","","74","","25","","11","","16.1","","99.30","","","","-9","","Cloudy"
"2015-02-07 01:00","2015","02","07","01:00","-4.8","","-8.5","","75","","24","","13","","12.9","","99.28","","","","-10","","Cloudy"
"2015-02-07 02:00","2015","02","07","02:00","-4.5","","-8.0","","76","","25","","13","","11.3","","99.29","","","","-10","","Cloudy"
"2015-02-07 03:00","2015","02","07","03:00","-4.4","","-6.8","","83","","26","","6","","9.7","","99.30","","","","-7","","Snow"
"2015-02-07 04:00","2015","02","07","04:00","-4.4","","-7.1","","81","","20","","6","","9.7","","99.20","","","","-7","","Snow"
"2015-02-07 05:00","2015","02","07","05:00","-4.5","","-7.2","","81","","23","","6","","6.4","","99.23","","","","-7","","Snow"
"2015-02-07 06:00","2015","02","07","06:00","-5.1","","-6.5","","90","","18","","6","","3.6","","99.19","","","","-8","","Snow"
"2015-02-07 07:00","2015","02","07","07:00","-5.1","","-6.5","","90","","17","","6","","1.2","","99.20","","","","-8","","Snow"
"2015-02-07 08:00","2015","02","07","08:00","-5.4","","-6.3","","93","","19","","6","","1.2","","99.20","","","","-8","","Snow"
"2015-02-07 09:00","2015","02","07","09:00","-5.1","","-6.1","","93","","17","","6","","2.4","","99.14","","","","-8","","Snow,Fog"
"2015-02-07 10:00","2015","02","07","10:00","-5.1","","-6.2","","92","","10","","7","","3.2","","99.11","","","","-8","","Snow,Fog"
"2015-02-07 11:00","2015","02","07","11:00","-5.1","","-6.5","","90","","8","","6","","1.2","","99.14","","","","-8","","Snow"
"2015-02-07 12:00","2015","02","07","12:00","-4.4","","-5.9","","89","","7","","4","","2.0","","99.06","","","","-6","","Snow"
"2015-02-07 13:00","2015","02","07","13:00","-4.1","","-6.1","","86","","11","","9","","6.4","","98.94","","","","-8","","Snow"
"2015-02-07 14:00","2015","02","07","14:00","-4.1","","-6.0","","87","","11","","6","","9.7","","98.90","","","","-7","","Snow"
"2015-02-07 15:00","2015","02","07","15:00","-3.9","","-5.5","","89","","9","","7","","4.0","","98.89","","","","-7","","Snow"
"2015-02-07 16:00","2015","02","07","16:00","-3.9","","-5.5","","89","","11","","11","","4.0","","98.89","","","","-8","","Snow"
"2015-02-07 17:00","2015","02","07","17:00","-4.1","","-5.2","","92","","10","","9","","1.6","","98.92","","","","-8","","Snow"
"2015-02-07 18:00","2015","02","07","18:00","-4.5","","-5.5","","93","","10","","13","","1.6","","98.92","","","","-10","","Snow"
"2015-02-07 19:00","2015","02","07","19:00","-4.8","","-5.7","","93","","9","","9","","1.6","","98.97","","","","-9","","Snow"
"2015-02-07 20:00","2015","02","07","20:00","-5.8","","-6.8","","93","","9","","13","","3.2","","98.97","","","","-11","","Snow"
"2015-02-07 21:00","2015","02","07","21:00","-7.1","","-8.2","","92","","9","","17","","2.0","","98.96","","","","-14","","Snow,Ice Pellets"
"2015-02-07 22:00","2015","02","07","22:00","-7.9","","-9.3","","90","","10","","11","","4.0","","99.01","","","","-13","","Snow,Ice Pellets"
"2015-02-07 23:00","2015","02","07","23:00","-8.2","","-9.7","","89","","9","","11","","11.3","","98.99","","","","-13","","Snow"
"2015-02-08 00:00","2015","02","08","00:00","-9.0","","-10.8","","87","","9","","9","","12.9","","98.96","","","","-14","","Snow"
"2015-02-08 01:00","2015","02","08","01:00","-9.5","","-11.4","","86","","7","","11","","12.9","","98.92","","","","-15","","Snow"
"2015-02-08 02:00","2015","02","08","02:00","-10.0","","-12.1","","85","","10","","15","","14.5","","98.89","","","","-17","","Cloudy"
"2015-02-08 03:00","2015","02","08","03:00","-10.3","","-12.0","","87","","11","","19","","11.3","","98.76","","","","-18","","Snow"
"2015-02-08 04:00","2015","02","08","04:00","-10.8","","-12.3","","89","","8","","22","","11.3","","98.74","","","","-19","","Snow"
"2015-02-08 05:00","2015","02","08","05:00","-11.1","","-12.3","","91","","6","","13","","9.7","","98.74","","","","-18","","Snow"
"2015-02-08 06:00","2015","02","08","06:00","-11.8","","-13.3","","89","","5","","15","","11.3","","98.69","","","","-19","","Snow"
"2015-02-08 07:00","2015","02","08","07:00","-11.8","","-13.2","","89","","4","","6","","11.3","","98.72","","","","-16","","Snow"
"2015-02-08 08:00","2015","02","08","08:00","-11.6","","-12.8","","91","","4","","9","","11.3","","98.70","","","","-17","","Snow"
"2015-02-08 09:00","2015","02","08","09:00","-10.9","","-11.9","","92","","5","","11","","3.6","","98.67","","","","-17","","Snow"
"2015-02-08 10:00","2015","02","08","10:00","-10.7","","-11.7","","92","","3","","13","","2.8","","98.73","","","","-17","","Snow"
"2015-02-08 11:00","2015","02","08","11:00","-11.1","","-12.3","","91","","4","","15","","3.2","","98.71","","","","-18","","Snow"
"2015-02-08 12:00","2015","02","08","12:00","-10.8","","-12.9","","84","","4","","9","","3.2","","98.71","","","","-16","","Snow"
"2015-02-08 13:00","2015","02","08","13:00","-10.6","","-11.8","","91","","4","","11","","2.8","","98.69","","","","-16","","Snow"
"2015-02-08 14:00","2015","02","08","14:00","-10.7","","-12.1","","89","","3","","15","","2.8","","98.72","","","","-18","","Snow"
"2015-02-08 15:00","2015","02","08","15:00","-11.3","","-12.8","","89","","5","","11","","2.8","","98.78","","","","-17","","Snow"
"2015-02-08 16:00","2015","02","08","16:00","-11.3","","-12.6","","90","","5","","11","","3.6","","98.84","","","","-17","","Snow"
"2015-02-08 17:00","2015","02","08","17:00","-11.8","","-13.1","","90","","3","","13","","2.8","","98.93","","","","-18","","Snow"
"2015-02-08 18:00","2015","02","08","18:00","-12.1","","-13.3","","91","","4","","11","","2.8","","99.05","","","","-18","","Snow"
"2015-02-08 19:00","2015","02","08","19:00","-12.5","","-13.7","","91","","4","","15","","4.8","","99.12","","","","-20","","Snow"
"2015-02-08 20:00","2015","02","08","20:00","-12.7","","-14.0","","90","","3","","15","","8.0","","99.18","","","","-20","","Snow"
"2015-02-08 21:00","2015","02","08","21:00","-13.1","","-14.6","","88","","5","","20","","8.0","","99.24","","","","-22","","Snow"
"2015-02-08 22:00","2015","02","08","22:00","-13.5","","-15.3","","86","","6","","11","","11.3","","99.26","","","","-20","","Snow"
"2015-02-08 23:00","2015","02","08","23:00","-13.7","","-15.6","","86","","5","","15","","12.9","","99.28","","","","-21","","Snow"
"2015-02-09 00:00","2015","02","09","00:00","-13.9","","-15.8","","86","","5","","17","","16.1","","99.30","","","","-22","","Snow"
"2015-02-09 01:00","2015","02","09","01:00","-13.9","","-15.7","","86","","4","","11","","17.7","","99.25","","","","-20","","Snow"
"2015-02-09 02:00","2015","02","09","02:00","-13.8","","-15.8","","85","","3","","13","","16.1","","99.28","","","","-21","","Snow"
"2015-02-09 03:00","2015","02","09","03:00","-13.6","","-15.7","","84","","3","","13","","14.5","","99.31","","","","-21","","Snow"
"2015-02-09 04:00","2015","02","09","04:00","-13.5","","-15.7","","83","","3","","11","","16.1","","99.30","","","","-20","","Snow"
"2015-02-09 05:00","2015","02","09","05:00","-13.5","","-15.7","","83","","2","","11","","16.1","","99.32","","","","-20","","Snow"
"2015-02-09 06:00","2015","02","09","06:00","-13.4","","-15.6","","83","","2","","15","","16.1","","99.35","","","","-21","","Snow"
"2015-02-09 07:00","2015","02","09","07:00","-13.2","","-15.4","","83","","2","","15","","16.1","","99.40","","","","-21","","Snow"
"2015-02-09 08:00","2015","02","09","08:00","-13.2","","-15.5","","83","","2","","17","","19.3","","99.46","","","","-21","","Snow"
"2015-02-09 09:00","2015","02","09","09:00","-13.1","","-15.4","","83","","3","","15","","19.3","","99.48","","","","-21","","Snow"
"2015-02-09 10:00","2015","02","09","10:00","-12.9","","-15.2","","83","","2","","15","","16.1","","99.50","","","","-20","","Snow"
"2015-02-09 11:00","2015","02","09","11:00","-12.5","","-15.2","","80","","3","","11","","16.1","","99.56","","","","-19","","Snow"
"2015-02-09 12:00","2015","02","09","12:00","-12.2","","-14.9","","80","","4","","9","","16.1","","99.58","","","","-17","","Snow"
"2015-02-09 13:00","2015","02","09","13:00","-11.6","","-14.4","","80","","2","","9","","16.1","","99.56","","","","-17","","Snow"
"2015-02-09 14:00","2015","02","09","14:00","-11.1","","-14.3","","77","","3","","11","","19.3","","99.50","","","","-17","","Snow"
"2015-02-09 15:00","2015","02","09","15:00","-11.3","","-14.3","","78","","2","","13","","19.3","","99.53","","","","-18","","Snow"
"2015-02-09 16:00","2015","02","09","16:00","-10.8","","-13.9","","78","","1","","11","","16.1","","99.56","","","","-17","","Snow"
"2015-02-09 17:00","2015","02","09","17:00","-11.1","","-14.0","","79","","1","","9","","16.1","","99.60","","","","-16","","Snow"
"2015-02-09 18:00","2015","02","09","18:00","-11.1","","-13.9","","80","","35","","11","","16.1","","99.65","","","","-17","","Snow"
"2015-02-09 19:00","2015","02","09","19:00","-11.1","","-13.8","","80","","34","","11","","19.3","","99.71","","","","-17","","Snow"
"2015-02-09 20:00","2015","02","09","20:00","-10.9","","-13.9","","79","","36","","11","","24.1","","99.73","","","","-17","","Cloudy"
"2015-02-09 21:00","2015","02","09","21:00","-10.9","","-13.6","","80","","2","","9","","24.1","","99.78","","","","-16","","Cloudy"
"2015-02-09 22:00","2015","02","09","22:00","-11.0","","-13.5","","82","","3","","7","","24.1","","99.80","","","","-15","","Cloudy"
"2015-02-09 23:00","2015","02","09","23:00","-10.8","","-13.3","","82","","36","","7","","24.1","","99.83","","","","-15","","Cloudy"
"2015-02-10 00:00","2015","02","10","00:00","-10.6","","-13.0","","82","","35","","7","","24.1","","99.83","","","","-15","","Cloudy"
"2015-02-10 01:00","2015","02","10","01:00","-10.7","","-13.3","","81","","35","","7","","24.1","","99.82","","","","-15","","Cloudy"
"2015-02-10 02:00","2015","02","10","02:00","-10.5","","-13.0","","82","","36","","6","","24.1","","99.85","","","","-14","","Cloudy"
"2015-02-10 03:00","2015","02","10","03:00","-10.4","","-13.0","","81","","3","","6","","24.1","","99.85","","","","-14","","Cloudy"
"2015-02-10 04:00","2015","02","10","04:00","-10.3","","-13.3","","79","","1","","4","","24.1","","99.83","","","","-13","","Cloudy"
"2015-02-10 05:00","2015","02","10","05:00","-10.2","","-12.9","","81","","35","","6","","24.1","","99.88","","","","-14","","Cloudy"
"2015-02-10 06:00","2015","02","10","06:00","-10.5","","-13.2","","81","","35","","7","","24.1","","99.93","","","","-15","","Mostly Cloudy"
"2015-02-10 07:00","2015","02","10","07:00","-10.4","","-13.0","","81","","34","","13","","24.1","","99.96","","","","-17","","Snow"
"2015-02-10 08:00","2015","02","10","08:00","-10.2","","-12.6","","83","","35","","7","","19.3","","100.08","","","","-14","","Snow"
"2015-02-10 09:00","2015","02","10","09:00","-9.6","","-12.5","","79","","34","","6","","24.1","","100.12","","","","-13","","Snow"
"2015-02-10 10:00","2015","02","10","10:00","-8.3","","-11.6","","77","","1","","7","","24.1","","100.10","","","","-12","","Snow"
"2015-02-10 11:00","2015","02","10","11:00","-8.1","","-11.7","","75","","1","","6","","24.1","","100.13","","","","-11","","Snow"
"2015-02-10 12:00","2015","02","10","12:00","-7.0","","-11.5","","70","","36","","11","","24.1","","100.12","","","","-12","","Mostly Cloudy"
"2015-02-10 13:00","2015","02","10","13:00","-6.1","","-10.9","","69","","4","","7","","24.1","","100.06","","","","-9","","Mainly Clear"
"2015-02-10 14:00","2015","02","10","14:00","-5.6","","-10.6","","68","","4","","4","","24.1","","100.00","","","","-7","","Mainly Clear"
"2015-02-10 15:00","2015","02","10","15:00","-5.1","","-10.7","","65","","1","","9","","24.1","","100.00","","","","-9","","Mainly Clear"
"2015-02-10 16:00","2015","02","10","16:00","-4.8","","-10.5","","64","","","","0","","24.1","","100.00","","","","","","Mainly Clear"
"2015-02-10 17:00","2015","02","10","17:00","-5.7","","-11.0","","66","","13","","4","","24.1","","100.00","","","","-8","","Mainly Clear"
"2015-02-10 18:00","2015","02","10","18:00","-6.8","","-10.8","","73","","9","","4","","24.1","","100.04","","","","-9","","Mostly Cloudy"
"2015-02-10 19:00","2015","02","10","19:00","-7.3","","-10.1","","80","","14","","4","","24.1","","100.05","","","","-9","","Mainly Clear"
"2015-02-10 20:00","2015","02","10","20:00","-9.2","","-11.2","","85","","","","0","","24.1","","100.05","","","","","","Mainly Clear"
"2015-02-10 21:00","2015","02","10","21:00","-9.9","","-11.5","","88","","","","0","","24.1","","100.05","","","","","","Mainly Clear"
"2015-02-10 22:00","2015","02","10","22:00","-11.0","","-12.4","","89","","","","0","","24.1","","100.00","","","","","","Mainly Clear"
"2015-02-10 23:00","2015","02","10","23:00","-11.5","","-12.7","","91","","","","0","","24.1","","99.94","","","","","","Mainly Clear"
"2015-02-11 00:00","2015","02","11","00:00","-11.6","","-12.7","","92","","35","","11","","24.1","","99.87","","","","-18","","Mainly Clear"
"2015-02-11 01:00","2015","02","11","01:00","-12.3","","-13.3","","92","","","","0","","24.1","","99.83","","","","","","Mostly Cloudy"
"2015-02-11 02:00","2015","02","11","02:00","-10.3","","-11.9","","88","","","","0","","24.1","","99.78","","","","","","Cloudy"
"2015-02-11 03:00","2015","02","11","03:00","-9.4","","-10.6","","91","","","","0","","24.1","","99.73","","","","","","Mostly Cloudy"
"2015-02-11 04:00","2015","02","11","04:00","-8.8","","-10.3","","89","","10","","7","","20.9","","99.60","","","","-13","","Cloudy"
"2015-02-11 05:00","2015","02","11","05:00","-7.5","","-9.0","","89","","13","","11","","19.3","","99.55","","","","-13","","Cloudy"
"2015-02-11 06:00","2015","02","11","06:00","-7.3","","-8.7","","90","","14","","6","","19.3","","99.55","","","","-10","","Cloudy"
"2015-02-11 07:00","2015","02","11","07:00","-5.8","","-8.0","","84","","17","","11","","19.3","","99.49","","","","-11","","Cloudy"
"2015-02-11 08:00","2015","02","11","08:00","-5.5","","-8.1","","82","","17","","11","","24.1","","99.43","","","","-10","","Mostly Cloudy"
"2015-02-11 09:00","2015","02","11","09:00","-5.1","","-8.0","","80","","16","","22","","24.1","","99.33","","","","-12","","Mostly Cloudy"
"2015-02-11 10:00","2015","02","11","10:00","-4.9","","-8.4","","76","","17","","19","","24.1","","99.24","","","","-11","","Cloudy"
"2015-02-11 11:00","2015","02","11","11:00","-4.3","","-9.2","","69","","17","","19","","22.5","","99.14","","","","-10","","Cloudy"
"2015-02-11 12:00","2015","02","11","12:00","-4.7","","-8.7","","74","","15","","15","","16.1","","98.99","","","","-10","","Cloudy"
"2015-02-11 13:00","2015","02","11","13:00","-4.6","","-7.3","","81","","17","","13","","14.5","","98.85","","","","-10","","Cloudy"
"2015-02-11 14:00","2015","02","11","14:00","-4.2","","-6.5","","84","","20","","11","","12.9","","98.74","","","","-9","","Snow Pellets"
"2015-02-11 15:00","2015","02","11","15:00","-4.5","","-5.7","","91","","18","","11","","1.2","","98.63","","","","-9","","Snow Showers"
"2015-02-11 16:00","2015","02","11","16:00","-4.1","","-5.2","","92","","18","","7","","2.8","","98.59","","","","-7","","Snow Showers"
"2015-02-11 17:00","2015","02","11","17:00","-3.5","","-4.6","","92","","19","","6","","4.8","","98.57","","","","-6","","Snow Showers,Fog"
"2015-02-11 18:00","2015","02","11","18:00","-2.8","","-4.0","","91","","24","","11","","3.6","","98.55","","","","-7","","Snow Showers,Fog"
"2015-02-11 19:00","2015","02","11","19:00","-2.5","","-4.0","","89","","24","","9","","4.8","","98.54","","","","-6","","Snow Showers"
"2015-02-11 20:00","2015","02","11","20:00","-2.5","","-4.3","","87","","26","","11","","8.0","","98.51","","","","-7","","Snow"
"2015-02-11 21:00","2015","02","11","21:00","-2.6","","-4.4","","87","","26","","9","","16.1","","98.47","","","","-6","","Snow"
"2015-02-11 22:00","2015","02","11","22:00","-2.7","","-4.3","","89","","24","","7","","8.0","","98.44","","","","-6","","Snow"
"2015-02-11 23:00","2015","02","11","23:00","-2.8","","-4.6","","87","","26","","7","","12.9","","98.41","","","","-6","","Snow"
"2015-02-12 00:00","2015","02","12","00:00","-2.8","","-4.9","","85","","28","","13","","12.9","","98.38","","","","-7","","Snow"
"2015-02-12 01:00","2015","02","12","01:00","-3.4","","-6.1","","82","","32","","24","","19.3","","98.44","","","","-10","","Snow"
"2015-02-12 02:00","2015","02","12","02:00","-4.4","","-7.4","","80","","32","","13","","19.3","","98.47","","","","-9","","Snow"
"2015-02-12 03:00","2015","02","12","03:00","-5.4","","-7.7","","84","","32","","19","","12.9","","98.49","","","","-12","","Snow"
"2015-02-12 04:00","2015","02","12","04:00","-6.1","","-12.2","","62","","29","","22","","19.3","","98.52","","","","-13","","Mostly Cloudy"
"2015-02-12 05:00","2015","02","12","05:00","-7.4","","-12.5","","67","","28","","13","","24.1","","98.56","","","","-13","","Mainly Clear"
"2015-02-12 06:00","2015","02","12","06:00","-8.5","","-13.0","","70","","28","","11","","24.1","","98.58","","","","-14","","Clear"
"2015-02-12 07:00","2015","02","12","07:00","-9.0","","-12.7","","74","","27","","11","","24.1","","98.64","","","","-14","","Mainly Clear"
"2015-02-12 08:00","2015","02","12","08:00","-9.6","","-13.3","","74","","31","","19","","24.1","","98.67","","","","-17","","Clear"
"2015-02-12 09:00","2015","02","12","09:00","-12.0","","-15.5","","75","","32","","37","","22.5","","98.79","","","","-23","","Snow Showers"
"2015-02-12 10:00","2015","02","12","10:00","-14.0","","-17.7","","74","","32","","37","","19.3","","98.93","","","","-26","","Snow Showers"
"2015-02-12 11:00","2015","02","12","11:00","-15.6","","-22.8","","54","","34","","32","","22.5","","99.04","","","","-27","","Mainly Clear"
"2015-02-12 12:00","2015","02","12","12:00","-16.0","","-23.2","","54","","32","","37","","22.5","","99.10","","","","-28","","Mainly Clear"
"2015-02-12 13:00","2015","02","12","13:00","-16.5","","-23.3","","56","","32","","35","","24.1","","99.18","","","","-29","","Mainly Clear"
"2015-02-12 14:00","2015","02","12","14:00","-16.2","","-23.7","","52","","33","","37","","24.1","","99.21","","","","-29","","Mainly Clear"
"2015-02-12 15:00","2015","02","12","15:00","-16.7","","-24.2","","52","","32","","37","","24.1","","99.32","","","","-29","","Mainly Clear"
"2015-02-12 16:00","2015","02","12","16:00","-16.5","","-23.1","","57","","33","","30","","24.1","","99.41","","","","-28","","Mainly Clear"
"2015-02-12 17:00","2015","02","12","17:00","-16.4","","-22.8","","58","","32","","26","","24.1","","99.51","","","","-27","","Mainly Clear"
"2015-02-12 18:00","2015","02","12","18:00","-16.8","","-23.2","","58","","32","","26","","24.1","","99.64","","","","-28","","Mainly Clear"
"2015-02-12 19:00","2015","02","12","19:00","-17.1","","-23.5","","58","","33","","20","","24.1","","99.74","","","","-27","","Clear"
"2015-02-12 20:00","2015","02","12","20:00","-17.0","","-23.6","","57","","34","","17","","24.1","","99.78","","","","-26","","Clear"
"2015-02-12 21:00","2015","02","12","21:00","-17.4","","-24.5","","54","","34","","15","","24.1","","99.84","","","","-26","","Clear"
"2015-02-12 22:00","2015","02","12","22:00","-17.8","","-25.5","","51","","34","","17","","24.1","","99.89","","","","-27","","Clear"
"2015-02-12 23:00","2015","02","12","23:00","-18.6","","-26.1","","52","","34","","15","","24.1","","99.92","","","","-27","","Clear"
"2015-02-13 00:00","2015","02","13","00:00","-19.3","","-26.5","","53","","33","","13","","24.1","","99.95","","","","-28","","Clear"
"2015-02-13 01:00","2015","02","13","01:00","-20.2","","-26.8","","56","","32","","11","","24.1","","99.98","","","","-28","","Clear"
"2015-02-13 02:00","2015","02","13","02:00","-21.1","","-27.3","","57","","31","","7","","24.1","","99.99","","","","-27","","Clear"
"2015-02-13 03:00","2015","02","13","03:00","-21.6","","-27.7","","58","","33","","9","","24.1","","99.98","","","","-29","","Clear"
"2015-02-13 04:00","2015","02","13","04:00","-21.9","","-28.1","","57","","34","","7","","24.1","","99.99","","","","-28","","Clear"
"2015-02-13 05:00","2015","02","13","05:00","-22.6","","-28.7","","58","","34","","9","","24.1","","100.00","","","","-30","","Clear"
"2015-02-13 06:00","2015","02","13","06:00","-23.2","","-28.6","","61","","32","","11","","24.1","","100.05","","","","-31","","Clear"
"2015-02-13 07:00","2015","02","13","07:00","-23.7","","-28.9","","62","","30","","6","","24.1","","100.09","","","","-29","","Clear"
"2015-02-13 08:00","2015","02","13","08:00","-23.2","","-28.2","","64","","29","","6","","24.1","","100.12","","","","-29","","Clear"
"2015-02-13 09:00","2015","02","13","09:00","-21.7","","-28.1","","56","","31","","6","","24.1","","100.15","","","","-27","","Mainly Clear"
"2015-02-13 10:00","2015","02","13","10:00","-20.2","","-26.9","","55","","","","0","","24.1","","100.13","","","","","","Mainly Clear"
"2015-02-13 11:00","2015","02","13","11:00","-18.4","","-25.6","","53","","27","","7","","24.1","","100.08","","","","-24","","Mainly Clear"
"2015-02-13 12:00","2015","02","13","12:00","-17.1","","-25.1","","50","","20","","4","","24.1","","99.97","","","","-20","","Mostly Cloudy"
"2015-02-13 13:00","2015","02","13","13:00","-15.3","","-22.4","","55","","24","","9","","19.3","","99.90","","","","-21","","Mostly Cloudy"
"2015-02-13 14:00","2015","02","13","14:00","-13.4","","-20.9","","53","","24","","7","","19.3","","99.74","","","","-18","","Mainly Clear"
"2015-02-13 15:00","2015","02","13","15:00","-12.2","","-19.9","","53","","20","","17","","19.3","","99.60","","","","-20","","Cloudy"
"2015-02-13 16:00","2015","02","13","16:00","-11.6","","-16.9","","65","","22","","11","","19.3","","99.49","","","","-18","","Mostly Cloudy"
"2015-02-13 17:00","2015","02","13","17:00","-11.4","","-18.4","","56","","22","","11","","19.3","","99.43","","","","-17","","Cloudy"
"2015-02-13 18:00","2015","02","13","18:00","-11.5","","-17.4","","62","","20","","17","","9.7","","99.37","","","","-19","","Snow"
"2015-02-13 19:00","2015","02","13","19:00","-11.8","","-17.7","","62","","21","","17","","24.1","","99.28","","","","-19","","Cloudy"
"2015-02-13 20:00","2015","02","13","20:00","-12.0","","-17.3","","65","","21","","13","","19.3","","99.18","","","","-19","","Snow"
"2015-02-13 21:00","2015","02","13","21:00","-11.8","","-16.2","","70","","21","","20","","14.5","","99.08","","","","-20","","Snow"
"2015-02-13 22:00","2015","02","13","22:00","-11.4","","-14.5","","78","","20","","17","","8.0","","98.93","","","","-19","","Snow"
"2015-02-13 23:00","2015","02","13","23:00","-11.1","","-13.3","","84","","22","","17","","4.0","","98.78","","","","-19","","Snow Showers"
"2015-02-14 00:00","2015","02","14","00:00","-10.7","","-12.6","","86","","22","","20","","4.8","","98.60","","","","-19","","Snow Showers"
"2015-02-14 01:00","2015","02","14","01:00","-10.3","","-12.4","","85","","22","","15","","12.9","","98.44","","","","-17","","Snow"
"2015-02-14 02:00","2015","02","14","02:00","-9.9","","-11.8","","86","","23","","13","","8.0","","98.29","","","","-16","","Snow"
"2015-02-14 03:00","2015","02","14","03:00","-9.1","","-11.0","","86","","23","","11","","6.4","","98.12","","","","-15","","Snow"
"2015-02-14 04:00","2015","02","14","04:00","-8.6","","-10.3","","87","","23","","13","","4.8","","98.01","","","","-15","","Snow"
"2015-02-14 05:00","2015","02","14","05:00","-8.0","","-9.7","","88","","23","","11","","6.4","","97.92","","","","-13","","Snow"
"2015-02-14 06:00","2015","02","14","06:00","-7.7","","-9.3","","88","","20","","13","","6.4","","97.85","","","","-13","","Snow"
"2015-02-14 07:00","2015","02","14","07:00","-7.5","","-8.8","","90","","23","","11","","4.0","","97.80","","","","-13","","Snow"
"2015-02-14 08:00","2015","02","14","08:00","-8.1","","-9.8","","88","","26","","9","","4.8","","97.80","","","","-13","","Snow"
"2015-02-14 09:00","2015","02","14","09:00","-7.9","","-10.2","","84","","27","","7","","4.8","","97.74","","","","-12","","Snow"
"2015-02-14 10:00","2015","02","14","10:00","-9.1","","-11.1","","85","","35","","22","","2.0","","97.73","","","","-17","","Snow"
"2015-02-14 11:00","2015","02","14","11:00","-9.4","","-14.0","","69","","34","","30","","16.1","","97.70","","","","-19","","Mostly Cloudy"
"2015-02-14 12:00","2015","02","14","12:00","-9.8","","-15.3","","64","","34","","26","","24.1","","97.72","","","","-19","","Mostly Cloudy"
"2015-02-14 13:00","2015","02","14","13:00","-9.6","","-16.1","","59","","35","","28","","24.1","","97.75","","","","-19","","Mostly Cloudy"
"2015-02-14 14:00","2015","02","14","14:00","-9.6","","-16.5","","57","","35","","33","","24.1","","97.74","","","","-19","","Mostly Cloudy"
"2015-02-14 15:00","2015","02","14","15:00","-10.9","","-16.8","","62","","35","","30","","24.1","","97.87","","","","-21","","Mostly Cloudy"
"2015-02-14 16:00","2015","02","14","16:00","-12.3","","-21.7","","45","","34","","20","","24.1","","98.04","","","","-21","","Mostly Cloudy"
"2015-02-14 17:00","2015","02","14","17:00","-13.6","","-22.1","","49","","33","","20","","24.1","","98.15","","","","-22","","Mainly Clear"
"2015-02-14 18:00","2015","02","14","18:00","-14.4","","-21.2","","56","","29","","19","","24.1","","98.26","","","","-23","","Mainly Clear"
"2015-02-14 19:00","2015","02","14","19:00","-14.7","","-19.3","","68","","32","","19","","11.3","","98.35","","","","-24","","Snow"
"2015-02-14 20:00","2015","02","14","20:00","-15.6","","-19.8","","70","","32","","28","","3.6","","98.53","","","","-26","","Snow"
"2015-02-14 21:00","2015","02","14","21:00","-17.5","","-22.2","","67","","33","","37","","3.2","","98.72","","","","-30","","Snow"
"2015-02-14 22:00","2015","02","14","22:00","-18.8","","-23.9","","64","","32","","33","","9.7","","98.95","","","","-32","","Snow"
"2015-02-14 23:00","2015","02","14","23:00","-19.8","","-25.2","","62","","33","","28","","9.7","","98.98","","","","-32","","Snow"
"2015-02-15 00:00","2015","02","15","00:00","-20.5","","-26.2","","60","","34","","30","","9.7","","99.07","","","","-33","","Snow"
"2015-02-15 01:00","2015","02","15","01:00","-21.4","","-27.0","","61","","34","","41","","6.4","","99.14","","","","-36","","Snow"
"2015-02-15 02:00","2015","02","15","02:00","-22.6","","-28.5","","59","","34","","35","","6.4","","99.32","","","","-37","","Snow"
"2015-02-15 03:00","2015","02","15","03:00","-23.6","","-29.9","","56","","34","","37","","6.4","","99.47","","","","-38","","Snow"
"2015-02-15 04:00","2015","02","15","04:00","-24.7","","-30.8","","57","","34","","32","","16.1","","99.60","","","","-39","","Mainly Clear"
"2015-02-15 05:00","2015","02","15","05:00","-25.4","","-32.0","","54","","35","","37","","16.1","","99.74","","","","-41","","Mainly Clear"
"2015-02-15 06:00","2015","02","15","06:00","-25.9","","-32.3","","55","","34","","32","","16.1","","99.88","","","","-41","","Clear"
"2015-02-15 07:00","2015","02","15","07:00","-26.5","","-32.6","","56","","34","","33","","19.3","","99.96","","","","-42","","Mainly Clear"
"2015-02-15 08:00","2015","02","15","08:00","-26.7","","-33.3","","54","","35","","30","","24.1","","100.11","","","","-41","","Clear"
"2015-02-15 09:00","2015","02","15","09:00","-26.1","","-33.2","","51","","34","","24","","24.1","","100.20","","","","-39","","Clear"
"2015-02-15 10:00","2015","02","15","10:00","-25.1","","-32.6","","50","","34","","32","","24.1","","100.27","","","","-40","","Clear"
"2015-02-15 11:00","2015","02","15","11:00","-24.1","","-31.6","","50","","35","","30","","24.1","","100.33","","","","-38","","Clear"
"2015-02-15 12:00","2015","02","15","12:00","-23.1","","-31.0","","48","","32","","30","","24.1","","100.37","","","","-37","","Clear"
"2015-02-15 13:00","2015","02","15","13:00","-22.0","","-29.7","","50","","34","","33","","24.1","","100.31","","","","-36","","Clear"
"2015-02-15 14:00","2015","02","15","14:00","-21.3","","-29.3","","49","","34","","33","","24.1","","100.29","","","","-35","","Clear"
"2015-02-15 15:00","2015","02","15","15:00","-21.0","","-28.6","","50","","33","","30","","24.1","","100.32","","","","-34","","Clear"
"2015-02-15 16:00","2015","02","15","16:00","-21.0","","-28.5","","51","","33","","28","","24.1","","100.32","","","","-34","","Clear"
"2015-02-15 17:00","2015","02","15","17:00","-21.1","","-27.7","","55","","32","","30","","24.1","","100.35","","","","-34","","Clear"
"2015-02-15 18:00","2015","02","15","18:00","-21.6","","-27.8","","57","","32","","22","","24.1","","100.41","","","","-33","","Clear"
"2015-02-15 19:00","2015","02","15","19:00","-21.5","","-27.3","","59","","32","","15","","24.1","","100.47","","","","-31","","Clear"
"2015-02-15 20:00","2015","02","15","20:00","-21.7","","-26.9","","63","","32","","26","","24.1","","100.51","","","","-34","","Clear"
"2015-02-15 21:00","2015","02","15","21:00","-21.8","","-27.4","","60","","33","","24","","24.1","","100.50","","","","-34","","Clear"
"2015-02-15 22:00","2015","02","15","22:00","-21.8","","-27.9","","58","","34","","19","","24.1","","100.52","","","","-32","","Clear"
"2015-02-15 23:00","2015","02","15","23:00","-21.9","","-29.0","","53","","34","","15","","24.1","","100.47","","","","-31","","Clear"
"2015-02-16 00:00","2015","02","16","00:00","-21.9","","-30.8","","44","","34","","26","","24.1","","100.44","","","","-34","","Clear"
"2015-02-16 01:00","2015","02","16","01:00","-22.0","","-30.9","","44","","35","","26","","24.1","","100.44","","","","-34","","Clear"
"2015-02-16 02:00","2015","02","16","02:00","-22.0","","-30.7","","45","","35","","17","","24.1","","100.43","","","","-32","","Clear"
"2015-02-16 03:00","2015","02","16","03:00","-22.3","","-30.8","","46","","34","","7","","24.1","","100.43","","","","-28","","Clear"
"2015-02-16 04:00","2015","02","16","04:00","-22.9","","-30.7","","49","","34","","9","","24.1","","100.45","","","","-30","","Clear"
"2015-02-16 05:00","2015","02","16","05:00","-23.4","","-31.1","","49","","35","","13","","24.1","","100.41","","","","-33","","Clear"
"2015-02-16 06:00","2015","02","16","06:00","-24.3","","-31.5","","51","","","","0","","24.1","","100.37","","","","","","Clear"
"2015-02-16 07:00","2015","02","16","07:00","-24.4","","-31.3","","53","","36","","4","","24.1","","100.41","","","","-28","","Clear"
"2015-02-16 08:00","2015","02","16","08:00","-23.7","","-31.0","","51","","33","","4","","24.1","","100.38","","","","-28","","Mainly Clear"
"2015-02-16 09:00","2015","02","16","09:00","-20.6","","-30.2","","42","","30","","4","","24.1","","100.38","","","","-24","","Mainly Clear"
"2015-02-16 10:00","2015","02","16","10:00","-19.4","","-29.3","","41","","35","","9","","24.1","","100.33","","","","-26","","Mainly Clear"
"2015-02-16 11:00","2015","02","16","11:00","-18.4","","-29.7","","36","","35","","7","","24.1","","100.23","","","","-24","","Mainly Clear"
"2015-02-16 12:00","2015","02","16","12:00","-16.6","","-28.3","","36","","36","","4","","24.1","","100.14","","","","-20","","Mainly Clear"
"2015-02-16 13:00","2015","02","16","13:00","-14.9","","-29.1","","29","","14","","4","","24.1","","100.04","","","","-18","","Mainly Clear"
"2015-02-16 14:00","2015","02","16","14:00","-13.8","","-28.6","","28","","9","","6","","24.1","","99.91","","","","-18","","Mainly Clear"
"2015-02-16 15:00","2015","02","16","15:00","-13.6","","-27.9","","29","","","","0","","24.1","","99.82","","","","","","Mainly Clear"
"2015-02-16 16:00","2015","02","16","16:00","-13.7","","-28.3","","28","","25","","6","","24.1","","99.74","","","","-18","","Mainly Clear"
"2015-02-16 17:00","2015","02","16","17:00","-14.1","","-27.8","","30","","","","0","","24.1","","99.62","","","","","","Mostly Cloudy"
"2015-02-16 18:00","2015","02","16","18:00","-14.4","","-28.0","","31","","19","","4","","24.1","","99.58","","","","-17","","Mostly Cloudy"
"2015-02-16 19:00","2015","02","16","19:00","-15.0","","-27.5","","34","","","","0","","24.1","","99.57","","","","","","Mostly Cloudy"
"2015-02-16 20:00","2015","02","16","20:00","-15.8","","-25.6","","43","","18","","4","","24.1","","99.52","","","","-19","","Mostly Cloudy"
"2015-02-16 21:00","2015","02","16","21:00","-15.3","","-22.9","","52","","27","","4","","24.1","","99.48","","","","-18","","Cloudy"
"2015-02-16 22:00","2015","02","16","22:00","-16.2","","-22.6","","58","","36","","4","","24.1","","99.39","","","","-19","","Cloudy"
"2015-02-16 23:00","2015","02","16","23:00","-16.2","","-24.5","","49","","3","","4","","24.1","","99.35","","","","-19","","Cloudy"
"2015-02-17 00:00","2015","02","17","00:00","-16.2","","-23.2","","55","","","","0","","24.1","","99.27","","","","","","Cloudy"
"2015-02-17 01:00","2015","02","17","01:00","-16.4","","-23.4","","55","","","","0","","19.3","","99.19","","","","","","Cloudy"
"2015-02-17 02:00","2015","02","17","02:00","-16.6","","-24.4","","51","","","","0","","19.3","","99.11","","","","","","Mostly Cloudy"
"2015-02-17 03:00","2015","02","17","03:00","-18.4","","-24.1","","61","","34","","4","","19.3","","99.05","","","","-22","","Mainly Clear"
"2015-02-17 04:00","2015","02","17","04:00","-17.7","","-23.0","","63","","36","","4","","19.3","","98.95","","","","-21","","Mostly Cloudy"
"2015-02-17 05:00","2015","02","17","05:00","-16.7","","-22.4","","61","","34","","4","","19.3","","98.90","","","","-20","","Cloudy"
"2015-02-17 06:00","2015","02","17","06:00","-16.5","","-21.8","","64","","36","","6","","19.3","","98.88","","","","-21","","Cloudy"
"2015-02-17 07:00","2015","02","17","07:00","-15.4","","-21.0","","62","","3","","6","","19.3","","98.87","","","","-20","","Cloudy"
"2015-02-17 08:00","2015","02","17","08:00","-14.8","","-20.2","","63","","2","","4","","16.1","","98.88","","","","-18","","Mostly Cloudy"
"2015-02-17 09:00","2015","02","17","09:00","-13.8","","-19.7","","61","","3","","6","","19.3","","98.87","","","","-18","","Mostly Cloudy"
"2015-02-17 10:00","2015","02","17","10:00","-12.5","","-18.2","","62","","","","0","","16.1","","98.87","","","","","","Mostly Cloudy"
"2015-02-17 11:00","2015","02","17","11:00","-9.8","","-16.8","","57","","","","0","","19.3","","98.83","","","","","","Mostly Cloudy"
"2015-02-17 12:00","2015","02","17","12:00","-10.2","","-18.2","","52","","26","","11","","19.3","","98.75","","","","-16","","Mostly Cloudy"
"2015-02-17 13:00","2015","02","17","13:00","-9.8","","-21.0","","40","","23","","9","","24.1","","98.67","","","","-15","","Mostly Cloudy"
"2015-02-17 14:00","2015","02","17","14:00","-9.0","","-23.6","","30","","20","","13","","24.1","","98.65","","","","-15","","Mostly Cloudy"
"2015-02-17 15:00","2015","02","17","15:00","-8.8","","-25.0","","26","","22","","13","","24.1","","98.62","","","","-15","","Mostly Cloudy"
"2015-02-17 16:00","2015","02","17","16:00","-8.7","","-26.3","","23","","23","","11","","24.1","","98.61","","","","-14","","Mostly Cloudy"
"2015-02-17 17:00","2015","02","17","17:00","-9.2","","-25.5","","25","","23","","13","","24.1","","98.59","","","","-15","","Mainly Clear"
"2015-02-17 18:00","2015","02","17","18:00","-10.0","","-24.7","","29","","22","","13","","24.1","","98.62","","","","-16","","Mainly Clear"
"2015-02-17 19:00","2015","02","17","19:00","-10.6","","-22.1","","38","","22","","7","","24.1","","98.70","","","","-15","","Mostly Cloudy"
"2015-02-17 20:00","2015","02","17","20:00","-10.8","","-18.4","","54","","23","","15","","24.1","","98.68","","","","-18","","Mostly Cloudy"
"2015-02-17 21:00","2015","02","17","21:00","-11.8","","-16.7","","67","","24","","9","","24.1","","98.69","","","","-17","","Mainly Clear"
"2015-02-17 22:00","2015","02","17","22:00","-12.7","","-16.6","","73","","23","","7","","24.1","","98.67","","","","-17","","Mainly Clear"
"2015-02-17 23:00","2015","02","17","23:00","-12.1","","-15.6","","75","","24","","9","","24.1","","98.66","","","","-17","","Mainly Clear"
"2015-02-18 00:00","2015","02","18","00:00","-14.6","","-18.0","","75","","23","","4","","24.1","","98.60","","","","-17","","Clear"
"2015-02-18 01:00","2015","02","18","01:00","-16.2","","-19.2","","78","","","","0","","19.3","","98.57","","","","","","Mostly Cloudy"
"2015-02-18 02:00","2015","02","18","02:00","-17.5","","-20.8","","75","","","","0","","19.3","","98.52","","","","","","Mainly Clear"
"2015-02-18 03:00","2015","02","18","03:00","-16.0","","-19.0","","78","","35","","4","","9.7","","98.44","","","","-19","","Snow"
"2015-02-18 04:00","2015","02","18","04:00","-16.4","","-19.4","","78","","35","","4","","16.1","","98.38","","","","-19","","Mainly Clear"
"2015-02-18 05:00","2015","02","18","05:00","-16.2","","-18.9","","80","","","","0","","8.0","","98.34","","","","","","Snow"
"2015-02-18 06:00","2015","02","18","06:00","-16.3","","-19.3","","78","","34","","4","","9.7","","98.31","","","","-19","","Snow"
"2015-02-18 07:00","2015","02","18","07:00","-14.5","","-16.7","","83","","","","0","","2.0","","98.29","","","","","","Snow"
"2015-02-18 08:00","2015","02","18","08:00","-12.0","","-15.2","","77","","26","","7","","11.3","","98.31","","","","-16","","Cloudy"
"2015-02-18 09:00","2015","02","18","09:00","-10.8","","-13.5","","80","","28","","9","","16.1","","98.33","","","","-16","","Mostly Cloudy"
"2015-02-18 10:00","2015","02","18","10:00","-10.0","","-14.1","","72","","28","","13","","19.3","","98.30","","","","-16","","Mostly Cloudy"
"2015-02-18 11:00","2015","02","18","11:00","-8.5","","-16.7","","52","","28","","13","","24.1","","98.28","","","","-14","","Mostly Cloudy"
"2015-02-18 12:00","2015","02","18","12:00","-8.3","","-16.3","","52","","28","","6","","24.1","","98.27","","","","-12","","Cloudy"
"2015-02-18 13:00","2015","02","18","13:00","-8.1","","-16.3","","52","","25","","6","","24.1","","98.17","","","","-11","","Cloudy"
"2015-02-18 14:00","2015","02","18","14:00","-8.5","","-16.2","","54","","16","","6","","24.1","","98.11","","","","-12","","Cloudy"
"2015-02-18 15:00","2015","02","18","15:00","-8.1","","-14.7","","59","","34","","11","","16.1","","98.14","","","","-13","","Cloudy"
"2015-02-18 16:00","2015","02","18","16:00","-8.9","","-11.9","","79","","30","","6","","2.4","","98.23","","","","-12","","Snow"
"2015-02-18 17:00","2015","02","18","17:00","-9.3","","-12.0","","81","","34","","9","","3.6","","98.30","","","","-14","","Snow"
"2015-02-18 18:00","2015","02","18","18:00","-9.8","","-13.7","","73","","34","","13","","12.9","","98.40","","","","-16","","Cloudy"
"2015-02-18 19:00","2015","02","18","19:00","-10.9","","-13.3","","82","","34","","19","","11.3","","98.47","","","","-19","","Snow"
"2015-02-18 20:00","2015","02","18","20:00","-11.8","","-15.2","","76","","34","","24","","19.3","","98.52","","","","-21","","Snow"
"2015-02-18 21:00","2015","02","18","21:00","-12.6","","-17.7","","66","","34","","19","","24.1","","98.56","","","","-21","","Cloudy"
"2015-02-18 22:00","2015","02","18","22:00","-13.4","","-18.0","","68","","33","","20","","24.1","","98.60","","","","-22","","Mostly Cloudy"
"2015-02-18 23:00","2015","02","18","23:00","-13.6","","-17.8","","71","","33","","17","","19.3","","98.63","","","","-22","","Cloudy"
"2015-02-19 00:00","2015","02","19","00:00","-14.4","","-18.9","","69","","31","","15","","24.1","","98.64","","","","-22","","Mostly Cloudy"
"2015-02-19 01:00","2015","02","19","01:00","-14.8","","-22.1","","54","","31","","9","","24.1","","98.67","","","","-21","","Mainly Clear"
"2015-02-19 02:00","2015","02","19","02:00","-15.5","","-21.5","","60","","30","","11","","24.1","","98.70","","","","-22","","Mainly Clear"
"2015-02-19 03:00","2015","02","19","03:00","-16.2","","-20.8","","68","","31","","13","","24.1","","98.72","","","","-24","","Clear"
"2015-02-19 04:00","2015","02","19","04:00","-17.2","","-21.5","","69","","32","","22","","24.1","","98.80","","","","-27","","Clear"
"2015-02-19 05:00","2015","02","19","05:00","-17.9","","-22.2","","69","","33","","24","","24.1","","98.86","","","","-29","","Clear"
"2015-02-19 06:00","2015","02","19","06:00","-18.8","","-23.3","","68","","33","","20","","24.1","","98.93","","","","-29","","Clear"
"2015-02-19 07:00","2015","02","19","07:00","-19.4","","-23.5","","70","","32","","20","","19.3","","99.02","","","","-30","","Clear"
"2015-02-19 08:00","2015","02","19","08:00","-19.6","","-24.3","","66","","32","","20","","25.0","","99.10","","","","-30","","Mainly Clear"
"2015-02-19 09:00","2015","02","19","09:00","-19.3","","-25.0","","61","","33","","19","","25.0","","99.15","","","","-29","","Clear"
"2015-02-19 10:00","2015","02","19","10:00","-18.8","","-25.5","","55","","32","","30","","25.0","","99.18","","","","-31","","Clear"
"2015-02-19 11:00","2015","02","19","11:00","-18.3","","-24.9","","56","","32","","22","","25.0","","99.21","","","","-29","","Clear"
"2015-02-19 12:00","2015","02","19","12:00","-17.6","","-25.7","","49","","33","","26","","25.0","","99.26","","","","-29","","Clear"
"2015-02-19 13:00","2015","02","19","13:00","-17.7","","-25.9","","49","","32","","26","","25.0","","99.26","","","","-29","","Clear"
"2015-02-19 14:00","2015","02","19","14:00","-18.2","","-27.0","","46","","32","","39","","25.0","","99.28","","","","-32","","Clear"
"2015-02-19 15:00","2015","02","19","15:00","-18.5","","-28.7","","40","","32","","30","","25.0","","99.32","","","","-31","","Mainly Clear"
"2015-02-19 16:00","2015","02","19","16:00","-18.6","","-28.4","","42","","31","","22","","24.1","","99.41","","","","-29","","Mainly Clear"
"2015-02-19 17:00","2015","02","19","17:00","-19.3","","-28.4","","44","","33","","24","","24.1","","99.46","","","","-31","","Mainly Clear"
"2015-02-19 18:00","2015","02","19","18:00","-19.9","","-27.9","","49","","31","","15","","24.1","","99.53","","","","-29","","Clear"
"2015-02-19 19:00","2015","02","19","19:00","-20.9","","-27.0","","58","","32","","20","","24.1","","99.61","","","","-32","","Clear"
"2015-02-19 20:00","2015","02","19","20:00","-21.2","","-27.1","","59","","32","","20","","24.1","","99.62","","","","-32","","Clear"
"2015-02-19 21:00","2015","02","19","21:00","-21.5","","-27.5","","58","","31","","20","","24.1","","99.64","","","","-32","","Clear"
"2015-02-19 22:00","2015","02","19","22:00","-21.5","","-28.0","","56","","29","","17","","24.1","","99.65","","","","-32","","Clear"
"2015-02-19 23:00","2015","02","19","23:00","-21.8","","-28.5","","55","","30","","19","","24.1","","99.64","","","","-32","","Clear"
"2015-02-20 00:00","2015","02","20","00:00","-22.1","","-28.5","","56","","30","","15","","24.1","","99.69","","","","-32","","Clear"
"2015-02-20 01:00","2015","02","20","01:00","-22.2","","-27.8","","60","","32","","19","","24.1","","99.69","","","","-33","","Clear"
"2015-02-20 02:00","2015","02","20","02:00","-22.4","","-27.8","","61","","32","","17","","24.1","","99.75","","","","-33","","Clear"
"2015-02-20 03:00","2015","02","20","03:00","-22.6","","-28.7","","58","","32","","15","","24.1","","99.75","","","","-32","","Clear"
"2015-02-20 04:00","2015","02","20","04:00","-22.8","","-28.9","","57","","32","","15","","24.1","","99.81","","","","-33","","Clear"
"2015-02-20 05:00","2015","02","20","05:00","-22.9","","-28.4","","61","","32","","19","","24.1","","99.88","","","","-34","","Clear"
"2015-02-20 06:00","2015","02","20","06:00","-23.0","","-28.1","","63","","29","","6","","24.1","","99.97","","","","-28","","Clear"
"2015-02-20 07:00","2015","02","20","07:00","-22.9","","-28.1","","62","","32","","13","","24.1","","100.03","","","","-32","","Clear"
"2015-02-20 08:00","2015","02","20","08:00","-22.1","","-27.8","","60","","31","","9","","25.0","","100.10","","","","-29","","Mainly Clear"
"2015-02-20 09:00","2015","02","20","09:00","-20.8","","-27.2","","56","","30","","13","","25.0","","100.21","","","","-29","","Mainly Clear"
"2015-02-20 10:00","2015","02","20","10:00","-19.5","","-26.8","","52","","32","","11","","25.0","","100.23","","","","-27","","Mainly Clear"
"2015-02-20 11:00","2015","02","20","11:00","-17.5","","-26.4","","46","","29","","11","","25.0","","100.24","","","","-25","","Clear"
"2015-02-20 12:00","2015","02","20","12:00","-16.2","","-25.0","","47","","25","","9","","25.0","","100.24","","","","-22","","Clear"
"2015-02-20 13:00","2015","02","20","13:00","-15.9","","-24.6","","47","","23","","13","","24.1","","100.22","","","","-23","","Mainly Clear"
"2015-02-20 14:00","2015","02","20","14:00","-14.6","","-24.3","","43","","21","","15","","24.1","","100.17","","","","-22","","Mainly Clear"
"2015-02-20 15:00","2015","02","20","15:00","-14.2","","-24.8","","40","","24","","17","","24.1","","100.15","","","","-22","","Mainly Clear"
"2015-02-20 16:00","2015","02","20","16:00","-13.5","","-23.6","","42","","25","","11","","24.1","","100.12","","","","-20","","Mainly Clear"
"2015-02-20 17:00","2015","02","20","17:00","-14.3","","-24.6","","41","","22","","17","","24.1","","100.11","","","","-23","","Mainly Clear"
"2015-02-20 18:00","2015","02","20","18:00","-15.6","","-26.7","","38","","22","","15","","24.1","","100.12","","","","-24","","Mainly Clear"
"2015-02-20 19:00","2015","02","20","19:00","-16.2","","-27.5","","37","","22","","13","","24.1","","100.15","","","","-24","","Mainly Clear"
"2015-02-20 20:00","2015","02","20","20:00","-16.9","","-26.6","","43","","20","","15","","24.1","","100.11","","","","-25","","Mainly Clear"
"2015-02-20 21:00","2015","02","20","21:00","-16.8","","-25.7","","46","","21","","9","","24.1","","100.08","","","","-23","","Mostly Cloudy"
"2015-02-20 22:00","2015","02","20","22:00","-16.2","","-25.1","","46","","21","","7","","24.1","","100.05","","","","-21","","Cloudy"
"2015-02-20 23:00","2015","02","20","23:00","-15.5","","-24.5","","46","","21","","11","","24.1","","99.95","","","","-22","","Cloudy"
"2015-02-21 00:00","2015","02","21","00:00","-15.1","","-22.8","","52","","19","","6","","24.1","","99.90","","","","-19","","Cloudy"
"2015-02-21 01:00","2015","02","21","01:00","-14.3","","-20.3","","60","","16","","4","","24.1","","99.84","","","","-17","","Cloudy"
"2015-02-21 02:00","2015","02","21","02:00","-12.8","","-18.4","","63","","18","","9","","24.1","","99.75","","","","-18","","Cloudy"
"2015-02-21 03:00","2015","02","21","03:00","-12.0","","-18.5","","58","","18","","13","","24.1","","99.63","","","","-19","","Cloudy"
"2015-02-21 04:00","2015","02","21","04:00","-12.0","","-16.0","","72","","18","","9","","3.2","","99.57","","","","-17","","Snow"
"2015-02-21 05:00","2015","02","21","05:00","-11.8","","-20.0","","51","","18","","11","","3.2","","99.49","","","","-18","","Snow"
"2015-02-21 06:00","2015","02","21","06:00","-11.1","","-13.1","","85","","18","","7","","8.0","","99.51","","","","-15","","Snow"
"2015-02-21 07:00","2015","02","21","07:00","-10.6","","-13.0","","82","","16","","4","","6.4","","99.40","","","","-13","","Snow"
"2015-02-21 08:00","2015","02","21","08:00","-10.0","","-12.7","","81","","","","0","","9.7","","99.35","","","","","","Snow"
"2015-02-21 09:00","2015","02","21","09:00","-9.6","","-11.7","","85","","","","0","","2.4","","99.26","","","","","","Snow"
"2015-02-21 10:00","2015","02","21","10:00","-9.0","","-11.0","","85","","","","0","","1.6","","99.27","","","","","","Snow"
"2015-02-21 11:00","2015","02","21","11:00","-8.6","","-10.3","","87","","","","0","","1.6","","99.27","","","","","","Snow"
"2015-02-21 12:00","2015","02","21","12:00","-7.9","","-9.8","","86","","35","","4","","1.6","","99.22","","","","-10","","Snow"
"2015-02-21 13:00","2015","02","21","13:00","-7.6","","-9.3","","88","","","","0","","1.6","","99.08","","","","","","Snow"
"2015-02-21 14:00","2015","02","21","14:00","-8.0","","-9.6","","88","","","","0","","2.4","","99.01","","","","","","Snow"
"2015-02-21 15:00","2015","02","21","15:00","-7.8","","-10.0","","84","","","","0","","4.8","","99.04","","","","","","Snow"
"2015-02-21 16:00","2015","02","21","16:00","-7.4","","-9.4","","86","","","","0","","1.6","","98.97","","","","","","Snow"
"2015-02-21 17:00","2015","02","21","17:00","-7.5","","-9.1","","88","","27","","6","","1.6","","99.05","","","","-11","","Snow"
"2015-02-21 18:00","2015","02","21","18:00","-8.0","","-9.4","","90","","28","","4","","2.0","","99.11","","","","-10","","Snow"
"2015-02-21 19:00","2015","02","21","19:00","-8.9","","-10.6","","87","","29","","4","","19.3","","99.19","","","","-11","","Mainly Clear"
"2015-02-21 20:00","2015","02","21","20:00","-9.3","","-10.7","","90","","33","","6","","19.3","","99.27","","","","-13","","Mostly Cloudy"
"2015-02-21 21:00","2015","02","21","21:00","-11.4","","-12.8","","89","","","","0","","19.3","","99.33","","","","","","Mostly Cloudy"
"2015-02-21 22:00","2015","02","21","22:00","-14.3","","-15.5","","91","","","","0","","20.9","","99.42","","","","","","Mainly Clear"
"2015-02-21 23:00","2015","02","21","23:00","-15.2","","-16.1","","93","","","","0","","19.3","","99.43","","","","","","Mostly Cloudy"
"2015-02-22 00:00","2015","02","22","00:00","-16.6","","-17.7","","91","","","","0","","16.1","","99.49","","","","","","Mainly Clear"
"2015-02-22 01:00","2015","02","22","01:00","-18.0","","-18.7","","94","","","","0","","19.3","","99.52","","","","","","Mainly Clear"
"2015-02-22 02:00","2015","02","22","02:00","-18.2","","-22.7","","68","","","","0","","22.5","","99.57","","","","","","Mainly Clear"
"2015-02-22 03:00","2015","02","22","03:00","-19.5","","-22.8","","75","","","","0","","22.5","","99.61","","","","","","Mainly Clear"
"2015-02-22 04:00","2015","02","22","04:00","-18.3","","-21.2","","78","","","","0","","22.5","","99.64","","","","","","Mainly Clear"
"2015-02-22 05:00","2015","02","22","05:00","-18.4","","-21.1","","79","","35","","4","","22.5","","99.63","","","","-22","","Mostly Cloudy"
"2015-02-22 06:00","2015","02","22","06:00","-14.3","","-16.4","","84","","","","0","","20.9","","99.70","","","","","","Mostly Cloudy"
"2015-02-22 07:00","2015","02","22","07:00","-14.3","","-16.2","","85","","","","0","","19.3","","99.74","","","","","","Cloudy"
"2015-02-22 08:00","2015","02","22","08:00","-12.4","","-14.4","","85","","","","0","","19.3","","99.78","","","","","","Mostly Cloudy"
"2015-02-22 09:00","2015","02","22","09:00","-9.3","","-10.3","","92","","","","0","","16.1","","99.81","","","","","","Cloudy"
"2015-02-22 10:00","2015","02","22","10:00","-8.3","","-9.9","","88","","","","0","","12.9","","99.84","","","","","","Snow"
"2015-02-22 11:00","2015","02","22","11:00","-6.9","","-8.9","","86","","","","0","","4.0","","99.84","","","","","","Snow"
"2015-02-22 12:00","2015","02","22","12:00","-5.9","","-8.0","","85","","25","","6","","3.2","","99.85","","","","-9","","Snow"
"2015-02-22 13:00","2015","02","22","13:00","-5.3","","-7.5","","84","","26","","4","","2.8","","99.78","","","","-7","","Snow"
"2015-02-22 14:00","2015","02","22","14:00","-4.5","","-7.7","","78","","29","","7","","8.0","","99.73","","","","-8","","Snow"
"2015-02-22 15:00","2015","02","22","15:00","-5.1","","-6.9","","87","","32","","11","","2.0","","99.80","","","","-10","","Snow"
"2015-02-22 16:00","2015","02","22","16:00","-6.5","","-8.8","","84","","32","","17","","3.2","","99.86","","","","-13","","Snow"
"2015-02-22 17:00","2015","02","22","17:00","-7.2","","-9.9","","81","","33","","13","","12.9","","99.92","","","","-13","","Snow"
"2015-02-22 18:00","2015","02","22","18:00","-9.2","","-11.8","","81","","33","","22","","19.3","","100.03","","","","-17","","Snow"
"2015-02-22 19:00","2015","02","22","19:00","-11.4","","-15.9","","69","","32","","26","","24.1","","100.20","","","","-21","","Snow"
"2015-02-22 20:00","2015","02","22","20:00","-13.0","","-18.1","","66","","32","","13","","24.1","","100.25","","","","-20","","Clear"
"2015-02-22 21:00","2015","02","22","21:00","-13.7","","-20.4","","57","","30","","9","","24.1","","100.32","","","","-19","","Clear"
"2015-02-22 22:00","2015","02","22","22:00","-14.6","","-20.5","","61","","32","","13","","24.1","","100.39","","","","-22","","Clear"
"2015-02-22 23:00","2015","02","22","23:00","-15.4","","-20.3","","66","","31","","11","","24.1","","100.44","","","","-22","","Mainly Clear"
"2015-02-23 00:00","2015","02","23","00:00","-16.0","","-22.1","","59","","30","","20","","24.1","","100.49","","","","-25","","Clear"
"2015-02-23 01:00","2015","02","23","01:00","-17.0","","-23.9","","55","","31","","19","","24.1","","100.53","","","","-26","","Clear"
"2015-02-23 02:00","2015","02","23","02:00","-18.4","","-25.2","","55","","31","","22","","24.1","","100.60","","","","-29","","Ice Crystals"
"2015-02-23 03:00","2015","02","23","03:00","-19.5","","-25.8","","57","","30","","17","","24.1","","100.63","","","","-29","","Clear"
"2015-02-23 04:00","2015","02","23","04:00","-20.2","","-26.4","","58","","31","","19","","24.1","","100.68","","","","-30","","Clear"
"2015-02-23 05:00","2015","02","23","05:00","-20.8","","-27.2","","56","","29","","17","","24.1","","100.75","","","","-31","","Clear"
"2015-02-23 06:00","2015","02","23","06:00","-21.3","","-27.4","","58","","31","","13","","24.1","","100.79","","","","-30","","Clear"
"2015-02-23 07:00","2015","02","23","07:00","-21.8","","-27.3","","61","","32","","20","","24.1","","100.86","","","","-33","","Clear"
"2015-02-23 08:00","2015","02","23","08:00","-21.5","","-26.8","","62","","32","","15","","24.1","","100.95","","","","-31","","Clear"
"2015-02-23 09:00","2015","02","23","09:00","-20.5","","-27.8","","52","","32","","20","","24.1","","100.98","","","","-31","","Clear"
"2015-02-23 10:00","2015","02","23","10:00","-19.5","","-27.9","","47","","32","","15","","24.1","","100.98","","","","-28","","Clear"
"2015-02-23 11:00","2015","02","23","11:00","-17.3","","-25.8","","48","","29","","20","","24.1","","100.97","","","","-27","","Clear"
"2015-02-23 12:00","2015","02","23","12:00","-16.9","","-26.5","","43","","29","","20","","24.1","","100.93","","","","-27","","Mainly Clear"
"2015-02-23 13:00","2015","02","23","13:00","-16.0","","-25.5","","44","","30","","17","","24.1","","100.83","","","","-25","","Mainly Clear"
"2015-02-23 14:00","2015","02","23","14:00","-15.4","","-25.0","","44","","28","","15","","24.1","","100.77","","","","-23","","Mainly Clear"
"2015-02-23 15:00","2015","02","23","15:00","-14.8","","-24.4","","44","","29","","20","","24.1","","100.70","","","","-24","","Mostly Cloudy"
"2015-02-23 16:00","2015","02","23","16:00","-15.0","","-23.6","","48","","30","","15","","24.1","","100.65","","","","-23","","Mostly Cloudy"
"2015-02-23 17:00","2015","02","23","17:00","-15.8","","-24.7","","46","","26","","13","","24.1","","100.58","","","","-23","","Mainly Clear"
"2015-02-23 18:00","2015","02","23","18:00","-16.7","","-24.4","","51","","26","","19","","24.1","","100.55","","","","-26","","Mainly Clear"
"2015-02-23 19:00","2015","02","23","19:00","-17.4","","-24.6","","53","","26","","11","","24.1","","100.54","","","","-25","","Mainly Clear"
"2015-02-23 20:00","2015","02","23","20:00","-18.1","","-24.7","","56","","25","","13","","24.1","","100.51","","","","-26","","Clear"
"2015-02-23 21:00","2015","02","23","21:00","-18.8","","-24.9","","59","","26","","13","","24.1","","100.46","","","","-27","","Clear"
"2015-02-23 22:00","2015","02","23","22:00","-18.9","","-24.9","","59","","24","","9","","24.1","","100.40","","","","-25","","Clear"
"2015-02-23 23:00","2015","02","23","23:00","-19.0","","-25.7","","55","","24","","17","","24.1","","100.29","","","","-28","","Mainly Clear"
"2015-02-24 00:00","2015","02","24","00:00","-19.0","","-25.3","","57","","23","","15","","24.1","","100.15","","","","-28","","Mostly Cloudy"
"2015-02-24 01:00","2015","02","24","01:00","-19.3","","-25.1","","60","","24","","15","","24.1","","100.06","","","","-28","","Mainly Clear"
"2015-02-24 02:00","2015","02","24","02:00","-19.6","","-25.2","","61","","24","","11","","24.1","","99.92","","","","-27","","Mainly Clear"
"2015-02-24 03:00","2015","02","24","03:00","-19.8","","-24.7","","65","","19","","7","","24.1","","99.78","","","","-25","","Mostly Cloudy"
"2015-02-24 04:00","2015","02","24","04:00","-18.6","","-24.0","","62","","22","","11","","24.1","","99.69","","","","-26","","Mostly Cloudy"
"2015-02-24 05:00","2015","02","24","05:00","-18.0","","-23.4","","63","","19","","15","","24.1","","99.55","","","","-27","","Mostly Cloudy"
"2015-02-24 06:00","2015","02","24","06:00","-17.7","","-22.9","","64","","20","","15","","24.1","","99.41","","","","-26","","Mostly Cloudy"
"2015-02-24 07:00","2015","02","24","07:00","-16.7","","-21.8","","65","","21","","20","","24.1","","99.27","","","","-26","","Cloudy"
"2015-02-24 08:00","2015","02","24","08:00","-15.6","","-20.6","","65","","21","","20","","24.1","","99.12","","","","-25","","Cloudy"
"2015-02-24 09:00","2015","02","24","09:00","-14.7","","-19.6","","66","","21","","17","","19.3","","99.03","","","","-23","","Snow"
"2015-02-24 10:00","2015","02","24","10:00","-13.5","","-19.1","","63","","22","","22","","19.3","","98.87","","","","-23","","Snow"
"2015-02-24 11:00","2015","02","24","11:00","-12.8","","-18.7","","61","","20","","26","","19.3","","98.72","","","","-23","","Mostly Cloudy"
"2015-02-24 12:00","2015","02","24","12:00","-12.1","","-18.8","","57","","20","","22","","19.3","","98.59","","","","-21","","Mostly Cloudy"
"2015-02-24 13:00","2015","02","24","13:00","-11.6","","-16.8","","65","","20","","22","","19.3","","98.40","","","","-20","","Cloudy"
"2015-02-24 14:00","2015","02","24","14:00","-11.1","","-18.1","","56","","20","","20","","19.3","","98.23","","","","-19","","Cloudy"
"2015-02-24 15:00","2015","02","24","15:00","-10.2","","-17.8","","54","","20","","22","","19.3","","98.07","","","","-18","","Mostly Cloudy"
"2015-02-24 16:00","2015","02","24","16:00","-9.7","","-17.7","","52","","22","","17","","19.3","","98.01","","","","-17","","Mostly Cloudy"
"2015-02-24 17:00","2015","02","24","17:00","-9.9","","-15.3","","65","","22","","26","","8.0","","97.99","","","","-19","","Snow,Blowing Snow"
"2015-02-24 18:00","2015","02","24","18:00","-10.5","","-12.6","","85","","22","","17","","2.8","","98.01","","","","-18","","Snow,Blowing Snow"
"2015-02-24 19:00","2015","02","24","19:00","-10.4","","-12.9","","82","","23","","20","","16.1","","98.00","","","","-18","","Mostly Cloudy"
"2015-02-24 20:00","2015","02","24","20:00","-10.1","","-13.3","","77","","24","","17","","19.3","","97.98","","","","-17","","Cloudy"
"2015-02-24 21:00","2015","02","24","21:00","-9.8","","-13.0","","77","","22","","17","","19.3","","97.94","","","","-17","","Snow"
"2015-02-24 22:00","2015","02","24","22:00","-9.6","","-12.5","","79","","23","","15","","19.3","","97.92","","","","-16","","Cloudy"
"2015-02-24 23:00","2015","02","24","23:00","-9.7","","-12.4","","81","","22","","9","","19.3","","97.87","","","","-15","","Cloudy"
"2015-02-25 00:00","2015","02","25","00:00","-9.9","","-12.0","","85","","22","","9","","19.3","","97.83","","","","-15","","Cloudy"
"2015-02-25 01:00","2015","02","25","01:00","-9.4","","-11.7","","83","","22","","13","","19.3","","97.79","","","","-15","","Cloudy"
"2015-02-25 02:00","2015","02","25","02:00","-9.2","","-11.5","","83","","23","","13","","19.3","","97.78","","","","-15","","Cloudy"
"2015-02-25 03:00","2015","02","25","03:00","-9.4","","-11.2","","87","","25","","9","","19.3","","97.77","","","","-14","","Cloudy"
"2015-02-25 04:00","2015","02","25","04:00","-8.1","","-11.5","","76","","27","","13","","19.3","","97.86","","","","-14","","Mostly Cloudy"
"2015-02-25 05:00","2015","02","25","05:00","-9.5","","-13.8","","71","","28","","22","","24.1","","98.00","","","","-18","","Mainly Clear"
"2015-02-25 06:00","2015","02","25","06:00","-11.8","","-17.5","","63","","30","","17","","24.1","","98.20","","","","-19","","Clear"
"2015-02-25 07:00","2015","02","25","07:00","-12.9","","-17.8","","67","","29","","19","","24.1","","98.34","","","","-21","","Mainly Clear"
"2015-02-25 08:00","2015","02","25","08:00","-12.8","","-17.3","","69","","28","","20","","25.0","","98.51","","","","-21","","Mainly Clear"
"2015-02-25 09:00","2015","02","25","09:00","-11.8","","-17.5","","63","","29","","24","","25.0","","98.68","","","","-21","","Mainly Clear"
"2015-02-25 10:00","2015","02","25","10:00","-11.6","","-21.6","","43","","32","","32","","25.0","","98.70","","","","-22","","Clear"
"2015-02-25 11:00","2015","02","25","11:00","-11.3","","-19.8","","49","","32","","30","","25.0","","98.83","","","","-21","","Mainly Clear"
"2015-02-25 12:00","2015","02","25","12:00","-11.1","","-19.6","","49","","32","","26","","25.0","","98.85","","","","-20","","Clear"
"2015-02-25 13:00","2015","02","25","13:00","-10.4","","-19.5","","47","","31","","20","","25.0","","98.91","","","","-18","","Mainly Clear"
"2015-02-25 14:00","2015","02","25","14:00","-10.2","","-19.3","","47","","32","","19","","25.0","","98.97","","","","-18","","Mainly Clear"
"2015-02-25 15:00","2015","02","25","15:00","-9.9","","-19.7","","45","","29","","11","","25.0","","99.02","","","","-15","","Mainly Clear"
"2015-02-25 16:00","2015","02","25","16:00","-10.4","","-20.4","","44","","31","","15","","25.0","","99.07","","","","-17","","Mainly Clear"
"2015-02-25 17:00","2015","02","25","17:00","-11.4","","-19.7","","50","","33","","13","","24.1","","99.15","","","","-18","","Mainly Clear"
"2015-02-25 18:00","2015","02","25","18:00","-12.7","","-20.1","","54","","33","","13","","24.1","","99.22","","","","-20","","Mainly Clear"
"2015-02-25 19:00","2015","02","25","19:00","-14.2","","-21.1","","56","","35","","6","","24.1","","99.34","","","","-18","","Clear"
"2015-02-25 20:00","2015","02","25","20:00","-16.0","","-20.9","","66","","34","","7","","24.1","","99.46","","","","-21","","Clear"
"2015-02-25 21:00","2015","02","25","21:00","-15.6","","-21.4","","61","","35","","11","","24.1","","99.46","","","","-22","","Mainly Clear"
"2015-02-25 22:00","2015","02","25","22:00","-17.0","","-21.8","","66","","","","0","","24.1","","99.49","","","","","","Clear"
"2015-02-25 23:00","2015","02","25","23:00","-17.2","","-21.9","","67","","","","0","","24.1","","99.53","","","","","","Mostly Cloudy"
"2015-02-26 00:00","2015","02","26","00:00","-18.3","","-22.7","","68","","35","","4","","24.1","","99.55","","","","-22","","Clear"
"2015-02-26 01:00","2015","02","26","01:00","-20.0","","-23.7","","72","","34","","6","","24.1","","99.54","","","","-25","","Clear"
"2015-02-26 02:00","2015","02","26","02:00","-19.5","","-24.0","","67","","35","","7","","24.1","","99.54","","","","-25","","Mainly Clear"
"2015-02-26 03:00","2015","02","26","03:00","-20.7","","-24.9","","69","","34","","9","","24.1","","99.47","","","","-28","","Clear"
"2015-02-26 04:00","2015","02","26","04:00","-19.6","","-22.6","","77","","","","0","","19.3","","99.57","","","","","","Cloudy"
"2015-02-26 05:00","2015","02","26","05:00","-17.4","","-21.4","","71","","34","","11","","19.3","","99.54","","","","-25","","Cloudy"
"2015-02-26 06:00","2015","02","26","06:00","-17.2","","-20.9","","73","","36","","11","","24.1","","99.53","","","","-24","","Cloudy"
"2015-02-26 07:00","2015","02","26","07:00","-17.8","","-21.2","","75","","1","","7","","19.3","","99.56","","","","-23","","Cloudy"
"2015-02-26 08:00","2015","02","26","08:00","-17.5","","-21.2","","73","","3","","6","","19.3","","99.61","","","","-22","","Mostly Cloudy"
"2015-02-26 09:00","2015","02","26","09:00","-16.0","","-21.5","","63","","2","","13","","19.3","","99.65","","","","-24","","Mostly Cloudy"
"2015-02-26 10:00","2015","02","26","10:00","-14.0","","-22.7","","48","","3","","13","","19.3","","99.65","","","","-21","","Mostly Cloudy"
"2015-02-26 11:00","2015","02","26","11:00","-13.2","","-23.3","","42","","5","","13","","19.3","","99.66","","","","-20","","Cloudy"
"2015-02-26 12:00","2015","02","26","12:00","-12.1","","-22.1","","43","","2","","11","","17.7","","99.65","","","","-18","","Cloudy"
"2015-02-26 13:00","2015","02","26","13:00","-11.4","","-21.3","","44","","2","","13","","24.1","","99.59","","","","-18","","Cloudy"
"2015-02-26 14:00","2015","02","26","14:00","-10.8","","-21.8","","40","","2","","11","","24.1","","99.58","","","","-17","","Cloudy"
"2015-02-26 15:00","2015","02","26","15:00","-10.6","","-21.7","","40","","1","","17","","24.1","","99.60","","","","-18","","Cloudy"
"2015-02-26 16:00","2015","02","26","16:00","-11.4","","-22.5","","39","","34","","19","","24.1","","99.66","","","","-19","","Cloudy"
"2015-02-26 17:00","2015","02","26","17:00","-11.7","","-22.7","","40","","35","","20","","24.1","","99.70","","","","-20","","Mostly Cloudy"
"2015-02-26 18:00","2015","02","26","18:00","-12.8","","-21.1","","50","","33","","17","","24.1","","99.75","","","","-21","","Mainly Clear"
"2015-02-26 19:00","2015","02","26","19:00","-14.3","","-21.7","","53","","33","","17","","24.1","","99.84","","","","-23","","Mainly Clear"
"2015-02-26 20:00","2015","02","26","20:00","-15.6","","-22.9","","54","","34","","13","","24.1","","99.93","","","","-23","","Mainly Clear"
"2015-02-26 21:00","2015","02","26","21:00","-16.0","","-22.5","","57","","35","","19","","24.1","","99.99","","","","-25","","Mostly Cloudy"
"2015-02-26 22:00","2015","02","26","22:00","-16.4","","-22.5","","59","","34","","15","","24.1","","100.05","","","","-25","","Mostly Cloudy"
"2015-02-26 23:00","2015","02","26","23:00","-16.7","","-22.5","","61","","34","","11","","24.1","","100.07","","","","-24","","Mostly Cloudy"
"2015-02-27 00:00","2015","02","27","00:00","-17.5","","-22.6","","64","","34","","7","","24.1","","100.11","","","","-23","","Mainly Clear"
"2015-02-27 01:00","2015","02","27","01:00","-17.8","","-22.7","","65","","34","","7","","24.1","","100.17","","","","-23","","Mainly Clear"
"2015-02-27 02:00","2015","02","27","02:00","-19.2","","-23.3","","70","","30","","4","","24.1","","100.23","","","","-23","","Mainly Clear"
"2015-02-27 03:00","2015","02","27","03:00","-20.5","","-24.2","","72","","","","0","","24.1","","100.25","","","","","","Mainly Clear"
"2015-02-27 04:00","2015","02","27","04:00","-21.2","","-25.8","","66","","","","0","","24.1","","100.24","","","","","","Clear"
"2015-02-27 05:00","2015","02","27","05:00","-22.9","","-25.8","","77","","29","","6","","24.1","","100.33","","","","-28","","Clear"
"2015-02-27 06:00","2015","02","27","06:00","-24.4","","-28.5","","69","","27","","4","","24.1","","100.42","","","","-28","","Clear"
"2015-02-27 07:00","2015","02","27","07:00","-23.9","","-27.6","","71","","27","","4","","24.1","","100.50","","","","-28","","Mainly Clear"
"2015-02-27 08:00","2015","02","27","08:00","-17.7","","-21.3","","73","","25","","6","","24.1","","100.59","","","","-22","","Mostly Cloudy"
"2015-02-27 09:00","2015","02","27","09:00","-15.0","","-20.4","","63","","30","","7","","24.1","","100.68","","","","-20","","Mainly Clear"
"2015-02-27 10:00","2015","02","27","10:00","-13.1","","-20.3","","55","","32","","17","","24.1","","100.73","","","","-21","","Mainly Clear"
"2015-02-27 11:00","2015","02","27","11:00","-11.8","","-20.0","","51","","29","","13","","24.1","","100.75","","","","-18","","Mainly Clear"
"2015-02-27 12:00","2015","02","27","12:00","-10.9","","-20.1","","47","","26","","15","","24.1","","100.78","","","","-18","","Mainly Clear"
"2015-02-27 13:00","2015","02","27","13:00","-9.6","","-18.8","","47","","26","","17","","24.1","","100.76","","","","-17","","Mainly Clear"
"2015-02-27 14:00","2015","02","27","14:00","-8.9","","-18.3","","46","","31","","15","","24.1","","100.76","","","","-15","","Mainly Clear"
"2015-02-27 15:00","2015","02","27","15:00","-9.2","","-18.8","","46","","28","","11","","24.1","","100.79","","","","-15","","Mainly Clear"
"2015-02-27 16:00","2015","02","27","16:00","-9.2","","-18.3","","48","","27","","13","","24.1","","100.84","","","","-15","","Mainly Clear"
"2015-02-27 17:00","2015","02","27","17:00","-10.2","","-18.8","","49","","26","","19","","24.1","","100.90","","","","-18","","Mainly Clear"
"2015-02-27 18:00","2015","02","27","18:00","-11.6","","-19.6","","51","","27","","15","","24.1","","100.97","","","","-19","","Clear"
"2015-02-27 19:00","2015","02","27","19:00","-12.4","","-19.5","","55","","25","","11","","24.1","","101.03","","","","-18","","Clear"
"2015-02-27 20:00","2015","02","27","20:00","-13.1","","-19.6","","58","","26","","9","","24.1","","101.11","","","","-19","","Clear"
"2015-02-27 21:00","2015","02","27","21:00","-13.8","","-19.9","","60","","25","","9","","24.1","","101.17","","","","-19","","Clear"
"2015-02-27 22:00","2015","02","27","22:00","-14.6","","-19.9","","64","","25","","6","","24.1","","101.22","","","","-19","","Clear"
"2015-02-27 23:00","2015","02","27","23:00","-14.6","","-20.0","","63","","25","","7","","24.1","","101.24","","","","-19","","Clear"
"2015-02-28 00:00","2015","02","28","00:00","-14.6","","-20.2","","62","","25","","9","","24.1","","101.26","","","","-20","","Clear"
"2015-02-28 01:00","2015","02","28","01:00","-14.8","","-20.3","","63","","25","","6","","24.1","","101.31","","","","-19","","Clear"
"2015-02-28 02:00","2015","02","28","02:00","-15.6","","-20.5","","66","","25","","6","","24.1","","101.32","","","","-20","","Clear"
"2015-02-28 03:00","2015","02","28","03:00","-15.8","","-21.0","","64","","27","","6","","24.1","","101.31","","","","-20","","Clear"
"2015-02-28 04:00","2015","02","28","04:00","-18.8","","-23.3","","68","","23","","4","","24.1","","101.34","","","","-22","","Clear"
"2015-02-28 05:00","2015","02","28","05:00","-20.4","","-24.5","","70","","24","","4","","24.1","","101.42","","","","-24","","Clear"
"2015-02-28 06:00","2015","02","28","06:00","-17.4","","-21.4","","71","","27","","7","","24.1","","101.49","","","","-23","","Clear"
"2015-02-28 07:00","2015","02","28","07:00","-17.4","","-21.6","","70","","27","","6","","24.1","","101.53","","","","-22","","Clear"
"2015-02-28 08:00","2015","02","28","08:00","-15.7","","-20.7","","65","","25","","7","","24.1","","101.61","","","","-21","","Clear"
"2015-02-28 09:00","2015","02","28","09:00","-13.2","","-19.3","","60","","26","","4","","24.1","","101.67","","","","-16","","Clear"
"2015-02-28 10:00","2015","02","28","10:00","-10.3","","-16.9","","58","","25","","11","","24.1","","101.67","","","","-16","","Clear"
"2015-02-28 11:00","2015","02","28","11:00","-7.8","","-15.2","","55","","25","","13","","24.1","","101.65","","","","-14","","Clear"
"2015-02-28 12:00","2015","02","28","12:00","-6.8","","-15.4","","50","","23","","11","","24.1","","101.64","","","","-12","","Clear"
"2015-02-28 13:00","2015","02","28","13:00","-6.2","","-13.9","","54","","23","","19","","24.1","","101.60","","","","-13","","Clear"
"2015-02-28 14:00","2015","02","28","14:00","-5.3","","-13.9","","51","","24","","9","","24.1","","101.52","","","","-9","","Clear"
"2015-02-28 15:00","2015","02","28","15:00","-5.0","","-14.2","","48","","25","","9","","24.1","","101.49","","","","-9","","Clear"
"2015-02-28 16:00","2015","02","28","16:00","-4.7","","-13.9","","49","","27","","9","","24.1","","101.46","","","","-9","","Clear"
"2015-02-28 17:00","2015","02","28","17:00","-5.4","","-14.1","","50","","23","","9","","24.1","","101.42","","","","-9","","Clear"
"2015-02-28 18:00","2015","02","28","18:00","-6.5","","-14.3","","54","","23","","7","","24.1","","101.38","","","","-10","","Clear"
"2015-02-28 19:00","2015","02","28","19:00","-7.9","","-15.2","","56","","22","","7","","24.1","","101.38","","","","-12","","Clear"
"2015-02-28 20:00","2015","02","28","20:00","-8.4","","-15.7","","56","","23","","9","","24.1","","101.39","","","","-13","","Clear"
"2015-02-28 21:00","2015","02","28","21:00","-10.1","","-16.0","","62","","23","","6","","24.1","","101.37","","","","-14","","Clear"
"2015-02-28 22:00","2015","02","28","22:00","-14.0","","-19.8","","61","","","","0","","24.1","","101.30","","","","","","Clear"
"2015-02-28 23:00","2015","02","28","23:00","-14.7","","-19.6","","66","","","","0","","24.1","","101.24","","","","","","Clear"
