"Station Name","TORONTO CITY CENTRE"
"Province","ONTARIO"
"Latitude","43.63"
"Longitude","-79.40"
"Elevation","76.80"
"Climate Identifier","6158359"
"WMO Identifier","71265"
"TC Identifier","YTZ"
"All times are specified in Local Standard Time (LST). Add 1 hour to adjust for Daylight Saving Time where and when it is observed."

"Legend"
"E","Estimated"
"M","Missing"
"NA","Not Available"

"Date/Time","Year","Month","Day","Time","Temp (°C)","Temp Flag","Dew Point Temp (°C)","Dew Point Temp Flag","Rel Hum (%)","Rel Hum Flag","Wind Dir (10s deg)","Wind Dir Flag","Wind Spd (km/h)","Wind Spd Flag","Visibility (km)","Visibility Flag","Stn Press (kPa)","Stn Press Flag","Hmdx","Hmdx Flag","Wind Chill","Wind Chill Flag","Weather"
"2014-07-01 00:00","2014","07","01","00:00","22.1","","20.2","","89","","26","","5","","16.1","","99.87","","30","","","","NA"
"2014-07-01 01:00","2014","07","01","01:00","22.0","","20.1","","89","","","M","4","","16.1","","99.84","","30","","","","NA"
"2014-07-01 02:00","2014","07","01","02:00","21.7","","20.0","","90","","23","","5","","16.1","","99.74","","29","","","","NA"
"2014-07-01 03:00","2014","07","01","03:00","21.7","","20.0","","90","","","","0","","16.1","","99.67","","29","","","","NA"
"2014-07-01 04:00","2014","07","01","04:00","22.2","","20.3","","89","","20","","18","","16.1","","99.66","","30","","","","NA"
"2014-07-01 05:00","2014","07","01","05:00","21.7","","20.3","","92","","26","","5","","16.1","","99.68","","30","","","","NA"
"2014-07-01 06:00","2014","07","01","06:00","22.4","","20.5","","89","","20","","13","","16.1","","99.60","","30","","","","NA"
"2014-07-01 07:00","2014","07","01","07:00","22.7","","20.5","","87","","18","","15","","16.1","","99.39","","31","","","","NA"
"2014-07-01 08:00","2014","07","01","08:00","24.1","","21.1","","83","","18","","17","","16.1","","99.34","","33","","","","NA"
"2014-07-01 09:00","2014","07","01","09:00","22.9","","20.5","","86","","20","","11","","16.1","","99.41","","31","","","","NA"
"2014-07-01 10:00","2014","07","01","10:00","23.8","","20.8","","83","","22","","18","","16.1","","99.43","","32","","","","NA"
"2014-07-01 11:00","2014","07","01","11:00","27.3","","21.4","","70","","26","","24","","16.1","","99.48","","36","","","","NA"
"2014-07-01 12:00","2014","07","01","12:00","27.7","","19.1","","59","","25","","28","","16.1","","99.53","","35","","","","NA"
"2014-07-01 13:00","2014","07","01","13:00","28.9","","19.6","","57","","26","","24","","16.1","","99.57","","36","","","","NA"
"2014-07-01 14:00","2014","07","01","14:00","26.1","","19.2","","65","","24","","30","","16.1","","99.60","","33","","","","NA"
"2014-07-01 15:00","2014","07","01","15:00","26.0","","19.4","","67","","23","","26","","16.1","","99.58","","33","","","","NA"
"2014-07-01 16:00","2014","07","01","16:00","25.2","","19.8","","71","","22","","21","","16.1","","99.55","","33","","","","NA"
"2014-07-01 17:00","2014","07","01","17:00","23.9","","19.3","","75","","21","","22","","16.1","","99.54","","31","","","","NA"
"2014-07-01 18:00","2014","07","01","18:00","23.6","","18.6","","73","","23","","26","","16.1","","99.56","","30","","","","NA"
"2014-07-01 19:00","2014","07","01","19:00","22.8","","19.3","","81","","22","","17","","16.1","","99.60","","30","","","","NA"
"2014-07-01 20:00","2014","07","01","20:00","22.1","","19.3","","84","","26","","11","","16.1","","99.61","","29","","","","NA"
"2014-07-01 21:00","2014","07","01","21:00","21.8","","19.0","","84","","","M","4","","16.1","","99.65","","29","","","","NA"
"2014-07-01 22:00","2014","07","01","22:00","21.3","","18.5","","84","","25","","8","","16.1","","99.66","","28","","","","NA"
"2014-07-01 23:00","2014","07","01","23:00","21.0","","18.6","","86","","22","","4","","16.1","","99.67","","27","","","","NA"
"2014-07-02 00:00","2014","07","02","00:00","21.6","","19.0","","85","","22","","8","","16.1","","99.76","","28","","","","NA"
"2014-07-02 01:00","2014","07","02","01:00","20.6","","18.7","","89","","23","","9","","16.1","","99.81","","27","","","","NA"
"2014-07-02 02:00","2014","07","02","02:00","20.5","","18.5","","88","","","M","4","","16.1","","99.82","","27","","","","NA"
"2014-07-02 03:00","2014","07","02","03:00","20.0","","18.3","","90","","27","","8","","16.1","","99.84","","26","","","","NA"
"2014-07-02 04:00","2014","07","02","04:00","19.8","","18.1","","90","","24","","8","","16.1","","99.86","","","","","","NA"
"2014-07-02 05:00","2014","07","02","05:00","20.9","","18.1","","84","","","M","4","","16.1","","99.81","","27","","","","NA"
"2014-07-02 06:00","2014","07","02","06:00","20.4","","18.5","","89","","24","","4","","16.1","","99.87","","27","","","","NA"
"2014-07-02 07:00","2014","07","02","07:00","20.9","","18.7","","87","","25","","8","","16.1","","99.94","","27","","","","NA"
"2014-07-02 08:00","2014","07","02","08:00","20.8","","18.9","","89","","24","","8","","16.1","","99.99","","27","","","","NA"
"2014-07-02 09:00","2014","07","02","09:00","22.4","","19.3","","82","","21","","15","","16.1","","100.01","","29","","","","NA"
"2014-07-02 10:00","2014","07","02","10:00","24.0","","19.6","","76","","19","","18","","16.1","","100.00","","31","","","","NA"
"2014-07-02 11:00","2014","07","02","11:00","24.7","","19.6","","73","","18","","18","","16.1","","100.02","","32","","","","NA"
"2014-07-02 12:00","2014","07","02","12:00","25.2","","19.1","","68","","17","","18","","16.1","","99.97","","32","","","","NA"
"2014-07-02 13:00","2014","07","02","13:00","26.8","","19.0","","62","","17","","17","","16.1","","99.91","","34","","","","NA"
"2014-07-02 14:00","2014","07","02","14:00","24.1","","19.3","","74","","18","","15","","16.1","","99.89","","31","","","","Rain"
"2014-07-02 15:00","2014","07","02","15:00","23.5","","18.5","","73","","21","","18","","16.1","","99.92","","30","","","","NA"
"2014-07-02 16:00","2014","07","02","16:00","23.8","","17.3","","67","","28","","34","","16.1","","100.01","","29","","","","NA"
"2014-07-02 17:00","2014","07","02","17:00","24.1","","17.3","","65","","25","","26","","16.1","","100.04","","30","","","","NA"
"2014-07-02 18:00","2014","07","02","18:00","22.0","","18.5","","80","","24","","15","","16.1","","100.05","","28","","","","NA"
"2014-07-02 19:00","2014","07","02","19:00","24.4","","17.3","","64","","28","","18","","16.1","","100.09","","30","","","","NA"
"2014-07-02 20:00","2014","07","02","20:00","23.2","","16.8","","67","","26","","13","","16.1","","100.12","","28","","","","NA"
"2014-07-02 21:00","2014","07","02","21:00","23.0","","16.7","","67","","26","","11","","16.1","","100.22","","28","","","","NA"
"2014-07-02 22:00","2014","07","02","22:00","22.4","","15.6","","65","","31","","17","","16.1","","100.28","","27","","","","NA"
"2014-07-02 23:00","2014","07","02","23:00","21.7","","15.2","","66","","29","","18","","16.1","","100.34","","26","","","","NA"
"2014-07-03 00:00","2014","07","03","00:00","20.7","","15.4","","71","","28","","13","","16.1","","100.40","","25","","","","NA"
"2014-07-03 01:00","2014","07","03","01:00","19.8","","15.4","","76","","30","","15","","16.1","","100.35","","","","","","NA"
"2014-07-03 02:00","2014","07","03","02:00","18.7","","14.0","","74","","32","","21","","16.1","","100.34","","","","","","NA"
"2014-07-03 03:00","2014","07","03","03:00","17.8","","11.4","","66","","31","","13","","16.1","","100.38","","","","","","NA"
"2014-07-03 04:00","2014","07","03","04:00","17.3","","10.1","","62","","31","","9","","16.1","","100.41","","","","","","NA"
"2014-07-03 05:00","2014","07","03","05:00","17.3","","10.2","","63","","32","","9","","16.1","","100.46","","","","","","NA"
"2014-07-03 06:00","2014","07","03","06:00","17.6","","9.9","","60","","31","","11","","16.1","","100.49","","","","","","NA"
"2014-07-03 07:00","2014","07","03","07:00","18.7","","11.2","","61","","","M","4","","16.1","","100.48","","","","","","NA"
"2014-07-03 08:00","2014","07","03","08:00","19.4","","11.6","","60","","9","","11","","16.1","","100.50","","","","","","NA"
"2014-07-03 09:00","2014","07","03","09:00","18.8","","13.1","","69","","22","","5","","16.1","","100.52","","","","","","NA"
"2014-07-03 10:00","2014","07","03","10:00","19.0","","13.0","","68","","22","","5","","16.1","","100.53","","","","","","NA"
"2014-07-03 11:00","2014","07","03","11:00","20.5","","14.9","","70","","","M","4","","16.1","","100.50","","","","","","NA"
"2014-07-03 12:00","2014","07","03","12:00","19.2","","14.1","","72","","14","","11","","16.1","","100.50","","","","","","NA"
"2014-07-03 13:00","2014","07","03","13:00","18.1","","15.4","","84","","19","","5","","16.1","","100.53","","","","","","Rain"
"2014-07-03 14:00","2014","07","03","14:00","19.9","","16.2","","79","","16","","5","","16.1","","100.48","","","","","","NA"
"2014-07-03 15:00","2014","07","03","15:00","19.8","","15.8","","77","","18","","8","","16.1","","100.50","","","","","","NA"
"2014-07-03 16:00","2014","07","03","16:00","21.1","","13.9","","63","","32","","24","","16.1","","100.47","","","","","","NA"
"2014-07-03 17:00","2014","07","03","17:00","20.4","","13.7","","65","","30","","17","","16.1","","100.53","","","","","","NA"
"2014-07-03 18:00","2014","07","03","18:00","19.1","","13.3","","69","","31","","15","","16.1","","100.59","","","","","","NA"
"2014-07-03 19:00","2014","07","03","19:00","17.5","","12.1","","70","","31","","18","","16.1","","100.65","","","","","","NA"
"2014-07-03 20:00","2014","07","03","20:00","17.1","","11.3","","68","","34","","17","","16.1","","100.72","","","","","","NA"
"2014-07-03 21:00","2014","07","03","21:00","16.6","","10.3","","66","","33","","18","","16.1","","100.80","","","","","","NA"
"2014-07-03 22:00","2014","07","03","22:00","16.0","","10.0","","67","","33","","24","","16.1","","100.82","","","","","","NA"
"2014-07-03 23:00","2014","07","03","23:00","15.4","","9.4","","67","","32","","21","","16.1","","100.89","","","","","","NA"
"2014-07-04 00:00","2014","07","04","00:00","14.3","","10.8","","79","","34","","13","","16.1","","100.96","","","","","","NA"
"2014-07-04 01:00","2014","07","04","01:00","13.9","","10.7","","81","","32","","17","","16.1","","100.97","","","","","","NA"
"2014-07-04 02:00","2014","07","04","02:00","13.8","","10.3","","79","","32","","9","","16.1","","101.02","","","","","","NA"
"2014-07-04 03:00","2014","07","04","03:00","13.2","","10.0","","81","","31","","11","","16.1","","101.06","","","","","","NA"
"2014-07-04 04:00","2014","07","04","04:00","13.1","","9.8","","80","","32","","15","","16.1","","101.13","","","","","","NA"
"2014-07-04 05:00","2014","07","04","05:00","13.2","","9.5","","78","","32","","15","","16.1","","101.19","","","","","","NA"
"2014-07-04 06:00","2014","07","04","06:00","14.4","","9.8","","74","","33","","11","","16.1","","101.24","","","","","","NA"
"2014-07-04 07:00","2014","07","04","07:00","16.0","","9.9","","67","","33","","17","","16.1","","101.29","","","","","","NA"
"2014-07-04 08:00","2014","07","04","08:00","18.1","","9.3","","56","","32","","17","","16.1","","101.34","","","","","","NA"
"2014-07-04 09:00","2014","07","04","09:00","19.4","","7.7","","46","","35","","17","","16.1","","101.35","","","","","","NA"
"2014-07-04 10:00","2014","07","04","10:00","20.4","","8.5","","46","","35","","17","","16.1","","101.34","","","","","","NA"
"2014-07-04 11:00","2014","07","04","11:00","20.7","","9.2","","47","","29","","15","","16.1","","101.32","","","","","","NA"
"2014-07-04 12:00","2014","07","04","12:00","22.2","","7.8","","39","","29","","17","","16.1","","101.27","","","","","","NA"
"2014-07-04 13:00","2014","07","04","13:00","21.9","","6.8","","37","","30","","17","","16.1","","101.23","","","","","","NA"
"2014-07-04 14:00","2014","07","04","14:00","19.4","","10.5","","56","","","M","11","","16.1","","101.24","","","","","","NA"
"2014-07-04 15:00","2014","07","04","15:00","24.2","","4.6","","28","","36","","13","","16.1","","101.18","","","","","","NA"
"2014-07-04 16:00","2014","07","04","16:00","24.1","","5.0","","29","","35","","11","","16.1","","101.18","","","","","","NA"
"2014-07-04 17:00","2014","07","04","17:00","23.7","","4.1","","28","","1","","21","","16.1","","101.19","","","","","","NA"
"2014-07-04 18:00","2014","07","04","18:00","23.2","","3.9","","28","","35","","26","","16.1","","101.24","","","","","","NA"
"2014-07-04 19:00","2014","07","04","19:00","22.6","","3.5","","28","","35","","18","","16.1","","101.26","","","","","","NA"
"2014-07-04 20:00","2014","07","04","20:00","21.2","","4.5","","33","","34","","18","","16.1","","101.30","","","","","","NA"
"2014-07-04 21:00","2014","07","04","21:00","20.1","","5.2","","37","","31","","13","","16.1","","101.35","","","","","","NA"
"2014-07-04 22:00","2014","07","04","22:00","19.3","","6.9","","44","","31","","9","","16.1","","101.37","","","","","","NA"
"2014-07-04 23:00","2014","07","04","23:00","18.6","","7.2","","47","","31","","13","","16.1","","101.40","","","","","","NA"
"2014-07-05 00:00","2014","07","05","00:00","17.6","","7.0","","49","","33","","17","","16.1","","101.40","","","","","","NA"
"2014-07-05 01:00","2014","07","05","01:00","16.9","","6.6","","50","","33","","13","","16.1","","101.38","","","","","","NA"
"2014-07-05 02:00","2014","07","05","02:00","16.5","","6.2","","50","","33","","13","","16.1","","101.37","","","","","","NA"
"2014-07-05 03:00","2014","07","05","03:00","16.2","","6.0","","51","","34","","13","","16.1","","101.35","","","","","","NA"
"2014-07-05 04:00","2014","07","05","04:00","15.5","","6.3","","54","","32","","13","","16.1","","101.36","","","","","","NA"
"2014-07-05 05:00","2014","07","05","05:00","12.8","","7.9","","72","","27","","13","","16.1","","101.42","","","","","","NA"
"2014-07-05 06:00","2014","07","05","06:00","15.1","","7.8","","61","","28","","9","","16.1","","101.45","","","","","","NA"
"2014-07-05 07:00","2014","07","05","07:00","17.5","","7.7","","52","","29","","9","","16.1","","101.46","","","","","","NA"
"2014-07-05 08:00","2014","07","05","08:00","19.9","","8.6","","48","","28","","8","","16.1","","101.48","","","","","","NA"
"2014-07-05 09:00","2014","07","05","09:00","18.5","","11.4","","63","","20","","13","","16.1","","101.44","","","","","","NA"
"2014-07-05 10:00","2014","07","05","10:00","20.5","","10.6","","53","","20","","15","","16.1","","101.40","","","","","","NA"
"2014-07-05 11:00","2014","07","05","11:00","20.2","","12.4","","60","","19","","18","","16.1","","101.38","","","","","","NA"
"2014-07-05 12:00","2014","07","05","12:00","20.7","","13.4","","63","","19","","22","","16.1","","101.33","","","","","","NA"
"2014-07-05 13:00","2014","07","05","13:00","21.4","","11.5","","53","","20","","24","","16.1","","101.26","","","","","","NA"
"2014-07-05 14:00","2014","07","05","14:00","21.0","","11.8","","55","","20","","21","","16.1","","101.18","","","","","","NA"
"2014-07-05 15:00","2014","07","05","15:00","21.6","","11.8","","53","","21","","21","","16.1","","101.11","","","","","","NA"
"2014-07-05 16:00","2014","07","05","16:00","21.6","","12.4","","55","","19","","17","","16.1","","101.05","","","","","","NA"
"2014-07-05 17:00","2014","07","05","17:00","20.4","","14.2","","67","","20","","9","","16.1","","100.99","","","","","","NA"
"2014-07-05 18:00","2014","07","05","18:00","25.3","","8.0","","33","","27","","21","","16.1","","100.96","","26","","","","NA"
"2014-07-05 19:00","2014","07","05","19:00","24.9","","7.6","","33","","27","","18","","16.1","","100.95","","25","","","","NA"
"2014-07-05 20:00","2014","07","05","20:00","23.6","","7.2","","34","","27","","15","","16.1","","100.92","","","","","","NA"
"2014-07-05 21:00","2014","07","05","21:00","17.5","","12.1","","70","","23","","21","","16.1","","100.94","","","","","","NA"
"2014-07-05 22:00","2014","07","05","22:00","15.6","","12.2","","80","","26","","9","","16.1","","100.92","","","","","","NA"
"2014-07-05 23:00","2014","07","05","23:00","16.1","","11.4","","74","","26","","11","","16.1","","100.90","","","","","","NA"
"2014-07-06 00:00","2014","07","06","00:00","15.6","","11.8","","78","","22","","15","","16.1","","100.85","","","","","","NA"
"2014-07-06 01:00","2014","07","06","01:00","15.6","","11.4","","76","","23","","9","","16.1","","100.83","","","","","","NA"
"2014-07-06 02:00","2014","07","06","02:00","15.7","","11.3","","75","","23","","5","","16.1","","100.79","","","","","","NA"
"2014-07-06 03:00","2014","07","06","03:00","15.6","","11.0","","74","","26","","8","","16.1","","100.80","","","","","","NA"
"2014-07-06 04:00","2014","07","06","04:00","15.2","","11.2","","77","","22","","9","","16.1","","100.75","","","","","","NA"
"2014-07-06 05:00","2014","07","06","05:00","15.5","","11.1","","75","","22","","5","","16.1","","100.74","","","","","","NA"
"2014-07-06 06:00","2014","07","06","06:00","15.7","","12.3","","80","","22","","4","","16.1","","100.70","","","","","","NA"
"2014-07-06 07:00","2014","07","06","07:00","17.5","","13.9","","79","","20","","8","","16.1","","100.66","","","","","","NA"
"2014-07-06 08:00","2014","07","06","08:00","18.5","","15.0","","80","","22","","9","","16.1","","100.65","","","","","","NA"
"2014-07-06 09:00","2014","07","06","09:00","19.6","","15.4","","76","","22","","9","","16.1","","100.62","","","","","","NA"
"2014-07-06 10:00","2014","07","06","10:00","20.4","","15.6","","74","","19","","21","","16.1","","100.49","","25","","","","NA"
"2014-07-06 11:00","2014","07","06","11:00","21.5","","16.2","","71","","19","","18","","16.1","","100.40","","26","","","","NA"
"2014-07-06 12:00","2014","07","06","12:00","21.9","","15.5","","66","","19","","21","","16.1","","100.35","","26","","","","NA"
"2014-07-06 13:00","2014","07","06","13:00","22.0","","14.9","","64","","19","","22","","16.1","","100.31","","26","","","","NA"
"2014-07-06 14:00","2014","07","06","14:00","21.3","","14.5","","65","","20","","24","","16.1","","100.26","","25","","","","NA"
"2014-07-06 15:00","2014","07","06","15:00","19.8","","14.3","","70","","21","","22","","16.1","","100.21","","","","","","NA"
"2014-07-06 16:00","2014","07","06","16:00","20.7","","14.0","","65","","21","","22","","16.1","","100.15","","","","","","NA"
"2014-07-06 17:00","2014","07","06","17:00","21.0","","14.3","","65","","20","","24","","16.1","","100.08","","25","","","","NA"
"2014-07-06 18:00","2014","07","06","18:00","19.6","","14.5","","72","","19","","18","","16.1","","100.01","","","","","","NA"
"2014-07-06 19:00","2014","07","06","19:00","17.1","","12.5","","74","","22","","18","","16.1","","100.00","","","","","","NA"
"2014-07-06 20:00","2014","07","06","20:00","16.4","","12.6","","78","","23","","11","","16.1","","99.99","","","","","","NA"
"2014-07-06 21:00","2014","07","06","21:00","15.9","","13.1","","83","","23","","5","","16.1","","99.98","","","","","","NA"
"2014-07-06 22:00","2014","07","06","22:00","17.0","","13.4","","79","","23","","13","","16.1","","99.93","","","","","","NA"
"2014-07-06 23:00","2014","07","06","23:00","16.3","","13.3","","82","","23","","11","","16.1","","99.89","","","","","","NA"
"2014-07-07 00:00","2014","07","07","00:00","17.2","","14.4","","83","","21","","17","","16.1","","99.79","","","","","","NA"
"2014-07-07 01:00","2014","07","07","01:00","17.0","","14.9","","87","","23","","13","","16.1","","99.69","","","","","","NA"
"2014-07-07 02:00","2014","07","07","02:00","16.7","","14.9","","89","","","M","4","","16.1","","99.65","","","","","","NA"
"2014-07-07 03:00","2014","07","07","03:00","16.0","","14.9","","93","","25","","9","","11.3","","99.63","","","","","","Rain"
"2014-07-07 04:00","2014","07","07","04:00","16.3","","15.8","","97","","22","","17","","0.8","","99.55","","","","","","Moderate Rain,Fog"
"2014-07-07 05:00","2014","07","07","05:00","16.5","","16.0","","97","","25","","13","","0.8","","99.49","","","","","","Rain,Fog"
"2014-07-07 06:00","2014","07","07","06:00","15.8","","15.5","","98","","25","","5","","3.6","","99.46","","","","","","Rain,Fog"
"2014-07-07 07:00","2014","07","07","07:00","17.0","","16.5","","97","","25","","13","","11.3","","99.43","","","","","","Rain"
"2014-07-07 08:00","2014","07","07","08:00","17.9","","17.1","","95","","","M","4","","14.5","","99.39","","","","","","NA"
"2014-07-07 09:00","2014","07","07","09:00","16.8","","15.9","","94","","24","","18","","16.1","","99.42","","","","","","NA"
"2014-07-07 10:00","2014","07","07","10:00","16.3","","15.5","","95","","27","","13","","16.1","","99.38","","","","","","NA"
"2014-07-07 11:00","2014","07","07","11:00","17.3","","16.0","","92","","27","","5","","16.1","","99.38","","","","","","NA"
"2014-07-07 12:00","2014","07","07","12:00","18.4","","17.1","","92","","21","","9","","16.1","","99.37","","","","","","NA"
"2014-07-07 13:00","2014","07","07","13:00","17.3","","16.1","","92","","26","","13","","8.1","","99.37","","","","","","Fog"
"2014-07-07 14:00","2014","07","07","14:00","18.5","","16.3","","87","","21","","22","","11.3","","99.31","","","","","","NA"
"2014-07-07 15:00","2014","07","07","15:00","19.9","","18.8","","93","","21","","28","","6.4","","99.33","","","","","","Thunderstorms,Fog"
"2014-07-07 16:00","2014","07","07","16:00","20.0","","17.2","","84","","27","","9","","16.1","","99.31","","25","","","","NA"
"2014-07-07 17:00","2014","07","07","17:00","18.6","","14.9","","79","","21","","5","","16.1","","99.32","","","","","","NA"
"2014-07-07 18:00","2014","07","07","18:00","22.2","","15.5","","65","","22","","15","","16.1","","99.39","","26","","","","NA"
"2014-07-07 19:00","2014","07","07","19:00","17.7","","16.1","","90","","21","","21","","16.1","","99.46","","","","","","NA"
"2014-07-07 20:00","2014","07","07","20:00","16.2","","15.4","","95","","25","","9","","14.5","","99.49","","","","","","NA"
"2014-07-07 21:00","2014","07","07","21:00","16.5","","15.9","","96","","27","","11","","12.9","","99.59","","","","","","NA"
"2014-07-07 22:00","2014","07","07","22:00","15.8","","15.2","","96","","26","","5","","4.8","","99.58","","","","","","Fog"
"2014-07-07 23:00","2014","07","07","23:00","16.3","","15.8","","97","","21","","9","","1.2","","99.57","","","","","","Fog"
"2014-07-08 00:00","2014","07","08","00:00","15.8","","15.5","","98","","27","","9","","0.4","","99.55","","","","","","Fog"
"2014-07-08 01:00","2014","07","08","01:00","16.2","","15.9","","98","","","M","4","","4.8","","99.54","","","","","","Fog"
"2014-07-08 02:00","2014","07","08","02:00","15.8","","15.5","","98","","23","","8","","0.4","","99.50","","","","","","Fog"
"2014-07-08 03:00","2014","07","08","03:00","15.3","","15.0","","98","","20","","5","","0.4","","99.36","","","","","","Fog"
"2014-07-08 04:00","2014","07","08","04:00","16.0","","15.7","","98","","26","","8","","0.4","","99.47","","","","","","Fog"
"2014-07-08 05:00","2014","07","08","05:00","15.0","","14.7","","98","","27","","9","","0.0","","99.53","","","","","","Fog"
"2014-07-08 06:00","2014","07","08","06:00","15.4","","15.1","","98","","28","","8","","0.0","","99.54","","","","","","Fog"
"2014-07-08 07:00","2014","07","08","07:00","17.0","","16.7","","98","","","M","4","","0.0","","99.51","","","","","","Fog"
"2014-07-08 08:00","2014","07","08","08:00","18.2","","17.9","","98","","","M","4","","4.8","","99.54","","","","","","Fog"
"2014-07-08 09:00","2014","07","08","09:00","20.1","","19.3","","95","","21","","9","","11.3","","99.46","","27","","","","NA"
"2014-07-08 10:00","2014","07","08","10:00","20.2","","19.0","","92","","18","","11","","9.7","","99.37","","27","","","","Fog"
"2014-07-08 11:00","2014","07","08","11:00","21.3","","18.7","","85","","17","","18","","16.1","","99.29","","28","","","","NA"
"2014-07-08 12:00","2014","07","08","12:00","19.9","","19.1","","95","","17","","18","","6.4","","99.25","","","","","","Thunderstorms,Rain,Fog"
"2014-07-08 13:00","2014","07","08","13:00","20.7","","19.6","","93","","14","","9","","6.4","","99.04","","28","","","","Rain,Fog"
"2014-07-08 14:00","2014","07","08","14:00","18.1","","16.6","","91","","24","","24","","1.6","","99.08","","","","","","Heavy Rain,Fog"
"2014-07-08 15:00","2014","07","08","15:00","18.8","","16.5","","86","","33","","13","","16.1","","98.98","","","","","","Rain"
"2014-07-08 16:00","2014","07","08","16:00","18.9","","16.5","","86","","25","","17","","16.1","","99.03","","","","","","NA"
"2014-07-08 17:00","2014","07","08","17:00","17.2","","14.4","","83","","20","","24","","16.1","","99.10","","","","","","NA"
"2014-07-08 18:00","2014","07","08","18:00","17.5","","14.3","","82","","21","","26","","16.1","","99.14","","","","","","NA"
"2014-07-08 19:00","2014","07","08","19:00","15.5","","13.2","","86","","22","","9","","16.1","","99.16","","","","","","NA"
"2014-07-08 20:00","2014","07","08","20:00","17.4","","14.7","","84","","26","","24","","16.1","","99.16","","","","","","NA"
"2014-07-08 21:00","2014","07","08","21:00","20.2","","14.1","","68","","28","","48","","16.1","","99.35","","","","","","NA"
"2014-07-08 22:00","2014","07","08","22:00","17.3","","13.3","","77","","28","","24","","16.1","","99.53","","","","","","NA"
"2014-07-08 23:00","2014","07","08","23:00","17.3","","13.0","","76","","29","","21","","16.1","","99.59","","","","","","NA"
"2014-07-09 00:00","2014","07","09","00:00","14.9","","12.4","","85","","23","","11","","16.1","","99.64","","","","","","NA"
"2014-07-09 01:00","2014","07","09","01:00","13.2","","11.8","","91","","26","","9","","16.1","","99.66","","","","","","NA"
"2014-07-09 02:00","2014","07","09","02:00","13.6","","11.8","","89","","22","","8","","16.1","","99.67","","","","","","NA"
"2014-07-09 03:00","2014","07","09","03:00","15.4","","12.8","","85","","24","","11","","16.1","","99.70","","","","","","NA"
"2014-07-09 04:00","2014","07","09","04:00","13.5","","11.9","","90","","24","","11","","16.1","","99.75","","","","","","NA"
"2014-07-09 05:00","2014","07","09","05:00","16.0","","12.6","","80","","26","","18","","16.1","","99.79","","","","","","NA"
"2014-07-09 06:00","2014","07","09","06:00","16.4","","12.2","","76","","28","","21","","16.1","","99.84","","","","","","NA"
"2014-07-09 07:00","2014","07","09","07:00","17.4","","12.1","","71","","29","","21","","16.1","","99.90","","","","","","NA"
"2014-07-09 08:00","2014","07","09","08:00","17.5","","11.6","","68","","30","","22","","16.1","","100.00","","","","","","NA"
"2014-07-09 09:00","2014","07","09","09:00","18.9","","11.1","","60","","32","","18","","16.1","","100.06","","","","","","NA"
"2014-07-09 10:00","2014","07","09","10:00","19.0","","11.4","","61","","29","","18","","16.1","","100.13","","","","","","NA"
"2014-07-09 11:00","2014","07","09","11:00","19.4","","11.6","","60","","26","","13","","16.1","","100.17","","","","","","NA"
"2014-07-09 12:00","2014","07","09","12:00","20.3","","11.5","","57","","25","","17","","16.1","","100.18","","","","","","NA"
"2014-07-09 13:00","2014","07","09","13:00","21.3","","11.8","","54","","29","","22","","16.1","","100.22","","","","","","NA"
"2014-07-09 14:00","2014","07","09","14:00","21.3","","11.0","","51","","28","","21","","16.1","","100.27","","","","","","NA"
"2014-07-09 15:00","2014","07","09","15:00","21.4","","10.2","","49","","26","","21","","16.1","","100.27","","","","","","NA"
"2014-07-09 16:00","2014","07","09","16:00","22.0","","10.6","","48","","26","","22","","16.1","","100.29","","","","","","NA"
"2014-07-09 17:00","2014","07","09","17:00","21.4","","9.9","","48","","28","","24","","16.1","","100.33","","","","","","NA"
"2014-07-09 18:00","2014","07","09","18:00","21.8","","9.8","","46","","29","","13","","16.1","","100.37","","","","","","NA"
"2014-07-09 19:00","2014","07","09","19:00","20.9","","9.6","","48","","28","","18","","16.1","","100.41","","","","","","NA"
"2014-07-09 20:00","2014","07","09","20:00","19.8","","8.6","","48","","30","","18","","16.1","","100.48","","","","","","NA"
"2014-07-09 21:00","2014","07","09","21:00","19.1","","9.9","","55","","32","","9","","16.1","","100.60","","","","","","NA"
"2014-07-09 22:00","2014","07","09","22:00","18.2","","9.7","","57","","32","","11","","16.1","","100.70","","","","","","NA"
"2014-07-09 23:00","2014","07","09","23:00","17.6","","8.9","","56","","32","","9","","16.1","","100.76","","","","","","NA"
"2014-07-10 00:00","2014","07","10","00:00","16.9","","9.1","","60","","34","","8","","16.1","","100.81","","","","","","NA"
"2014-07-10 01:00","2014","07","10","01:00","16.7","","8.6","","59","","33","","9","","16.1","","100.83","","","","","","NA"
"2014-07-10 02:00","2014","07","10","02:00","15.7","","9.2","","65","","32","","9","","16.1","","100.87","","","","","","NA"
"2014-07-10 03:00","2014","07","10","03:00","15.2","","8.4","","64","","35","","8","","16.1","","100.90","","","","","","NA"
"2014-07-10 04:00","2014","07","10","04:00","12.6","","9.0","","79","","33","","8","","16.1","","100.93","","","","","","NA"
"2014-07-10 05:00","2014","07","10","05:00","15.3","","7.8","","61","","33","","8","","16.1","","100.98","","","","","","NA"
"2014-07-10 06:00","2014","07","10","06:00","13.3","","9.1","","76","","22","","5","","16.1","","101.07","","","","","","NA"
"2014-07-10 07:00","2014","07","10","07:00","15.1","","10.5","","74","","19","","5","","16.1","","101.17","","","","","","NA"
"2014-07-10 08:00","2014","07","10","08:00","15.9","","9.5","","65","","15","","11","","16.1","","101.24","","","","","","NA"
"2014-07-10 09:00","2014","07","10","09:00","16.3","","9.5","","64","","19","","9","","16.1","","101.28","","","","","","NA"
"2014-07-10 10:00","2014","07","10","10:00","16.9","","10.5","","66","","18","","11","","16.1","","101.31","","","","","","NA"
"2014-07-10 11:00","2014","07","10","11:00","18.9","","11.0","","60","","16","","13","","16.1","","101.33","","","","","","NA"
"2014-07-10 12:00","2014","07","10","12:00","18.6","","11.2","","62","","12","","13","","16.1","","101.30","","","","","","NA"
"2014-07-10 13:00","2014","07","10","13:00","18.9","","11.5","","62","","11","","11","","16.1","","101.31","","","","","","NA"
"2014-07-10 14:00","2014","07","10","14:00","19.8","","10.0","","53","","13","","11","","16.1","","101.31","","","","","","NA"
"2014-07-10 15:00","2014","07","10","15:00","20.1","","10.1","","52","","12","","8","","16.1","","101.28","","","","","","NA"
"2014-07-10 16:00","2014","07","10","16:00","19.1","","11.0","","59","","8","","9","","16.1","","101.23","","","","","","NA"
"2014-07-10 17:00","2014","07","10","17:00","19.0","","12.5","","65","","9","","8","","16.1","","101.21","","","","","","NA"
"2014-07-10 18:00","2014","07","10","18:00","18.2","","11.8","","66","","8","","5","","16.1","","101.19","","","","","","NA"
"2014-07-10 19:00","2014","07","10","19:00","17.0","","12.7","","76","","7","","8","","16.1","","101.22","","","","","","NA"
"2014-07-10 20:00","2014","07","10","20:00","16.2","","13.1","","82","","7","","13","","16.1","","101.23","","","","","","NA"
"2014-07-10 21:00","2014","07","10","21:00","16.7","","12.9","","78","","7","","11","","16.1","","101.29","","","","","","NA"
"2014-07-10 22:00","2014","07","10","22:00","16.7","","11.8","","73","","8","","9","","16.1","","101.32","","","","","","NA"
"2014-07-10 23:00","2014","07","10","23:00","16.5","","11.3","","71","","7","","9","","16.1","","101.32","","","","","","NA"
"2014-07-11 00:00","2014","07","11","00:00","15.2","","11.5","","78","","6","","8","","16.1","","101.33","","","","","","NA"
"2014-07-11 01:00","2014","07","11","01:00","15.1","","11.7","","80","","9","","5","","16.1","","101.34","","","","","","NA"
"2014-07-11 02:00","2014","07","11","02:00","14.1","","11.6","","85","","","","0","","16.1","","101.34","","","","","","NA"
"2014-07-11 03:00","2014","07","11","03:00","13.7","","11.8","","88","","18","","4","","16.1","","101.37","","","","","","NA"
"2014-07-11 04:00","2014","07","11","04:00","13.3","","11.4","","88","","7","","5","","16.1","","101.40","","","","","","NA"
"2014-07-11 05:00","2014","07","11","05:00","13.7","","11.1","","84","","","","0","","16.1","","101.43","","","","","","NA"
"2014-07-11 06:00","2014","07","11","06:00","15.0","","12.7","","86","","","","0","","16.1","","101.46","","","","","","NA"
"2014-07-11 07:00","2014","07","11","07:00","17.3","","11.8","","70","","8","","9","","16.1","","101.48","","","","","","NA"
"2014-07-11 08:00","2014","07","11","08:00","18.0","","10.2","","60","","9","","13","","16.1","","101.49","","","","","","NA"
"2014-07-11 09:00","2014","07","11","09:00","18.6","","10.3","","58","","9","","17","","16.1","","101.51","","","","","","NA"
"2014-07-11 10:00","2014","07","11","10:00","17.9","","12.2","","69","","7","","13","","16.1","","101.55","","","","","","NA"
"2014-07-11 11:00","2014","07","11","11:00","19.3","","12.9","","66","","8","","11","","16.1","","101.51","","","","","","NA"
"2014-07-11 12:00","2014","07","11","12:00","18.9","","13.5","","71","","7","","11","","16.1","","101.52","","","","","","NA"
"2014-07-11 13:00","2014","07","11","13:00","19.3","","13.4","","68","","7","","13","","16.1","","101.46","","","","","","NA"
"2014-07-11 14:00","2014","07","11","14:00","19.7","","12.8","","64","","7","","15","","16.1","","101.40","","","","","","NA"
"2014-07-11 15:00","2014","07","11","15:00","20.0","","14.1","","68","","7","","15","","16.1","","101.36","","","","","","NA"
"2014-07-11 16:00","2014","07","11","16:00","20.5","","13.0","","62","","7","","11","","16.1","","101.30","","","","","","NA"
"2014-07-11 17:00","2014","07","11","17:00","20.9","","12.8","","59","","8","","9","","16.1","","101.25","","","","","","NA"
"2014-07-11 18:00","2014","07","11","18:00","19.7","","13.0","","65","","7","","15","","16.1","","101.23","","","","","","NA"
"2014-07-11 19:00","2014","07","11","19:00","18.6","","13.4","","72","","8","","13","","16.1","","101.25","","","","","","NA"
"2014-07-11 20:00","2014","07","11","20:00","17.5","","14.4","","82","","8","","15","","16.1","","101.25","","","","","","NA"
"2014-07-11 21:00","2014","07","11","21:00","17.7","","14.8","","83","","7","","9","","16.1","","101.29","","","","","","NA"
"2014-07-11 22:00","2014","07","11","22:00","17.7","","14.6","","82","","7","","9","","16.1","","101.29","","","","","","NA"
"2014-07-11 23:00","2014","07","11","23:00","17.8","","14.5","","81","","8","","9","","16.1","","101.28","","","","","","NA"
"2014-07-12 00:00","2014","07","12","00:00","17.8","","14.7","","82","","10","","5","","16.1","","101.28","","","","","","NA"
"2014-07-12 01:00","2014","07","12","01:00","18.0","","14.3","","79","","8","","9","","16.1","","101.24","","","","","","NA"
"2014-07-12 02:00","2014","07","12","02:00","17.9","","14.2","","79","","8","","11","","16.1","","101.18","","","","","","NA"
"2014-07-12 03:00","2014","07","12","03:00","17.7","","13.9","","78","","8","","11","","16.1","","101.17","","","","","","NA"
"2014-07-12 04:00","2014","07","12","04:00","16.8","","14.4","","86","","","M","4","","16.1","","101.20","","","","","","NA"
"2014-07-12 05:00","2014","07","12","05:00","15.6","","13.4","","87","","","","0","","16.1","","101.19","","","","","","NA"
"2014-07-12 06:00","2014","07","12","06:00","15.7","","14.4","","92","","27","","8","","16.1","","101.21","","","","","","NA"
"2014-07-12 07:00","2014","07","12","07:00","18.7","","12.7","","68","","9","","8","","16.1","","101.18","","","","","","NA"
"2014-07-12 08:00","2014","07","12","08:00","19.2","","12.8","","66","","8","","9","","16.1","","101.16","","","","","","NA"
"2014-07-12 09:00","2014","07","12","09:00","20.4","","15.2","","72","","18","","5","","16.1","","101.16","","","","","","NA"
"2014-07-12 10:00","2014","07","12","10:00","20.1","","14.9","","72","","21","","9","","16.1","","101.16","","","","","","NA"
"2014-07-12 11:00","2014","07","12","11:00","20.9","","16.6","","76","","19","","9","","16.1","","101.15","","26","","","","NA"
"2014-07-12 12:00","2014","07","12","12:00","22.6","","15.3","","63","","12","","9","","16.1","","101.08","","27","","","","NA"
"2014-07-12 13:00","2014","07","12","13:00","21.9","","15.8","","68","","7","","13","","16.1","","101.02","","26","","","","NA"
"2014-07-12 14:00","2014","07","12","14:00","23.4","","16.1","","63","","7","","13","","16.1","","100.96","","28","","","","NA"
"2014-07-12 15:00","2014","07","12","15:00","25.6","","16.4","","56","","14","","9","","16.1","","100.92","","30","","","","NA"
"2014-07-12 16:00","2014","07","12","16:00","26.9","","13.7","","44","","17","","18","","16.1","","100.85","","30","","","","NA"
"2014-07-12 17:00","2014","07","12","17:00","26.1","","15.2","","50","","16","","22","","16.1","","100.79","","30","","","","NA"
"2014-07-12 18:00","2014","07","12","18:00","24.3","","16.0","","59","","17","","18","","16.1","","100.73","","29","","","","NA"
"2014-07-12 19:00","2014","07","12","19:00","20.0","","16.1","","78","","","M","4","","16.1","","100.71","","25","","","","NA"
"2014-07-12 20:00","2014","07","12","20:00","20.6","","16.3","","76","","19","","11","","16.1","","100.63","","25","","","","NA"
"2014-07-12 21:00","2014","07","12","21:00","21.2","","16.7","","75","","21","","5","","16.1","","100.61","","26","","","","NA"
"2014-07-12 22:00","2014","07","12","22:00","20.3","","16.6","","79","","20","","8","","16.1","","100.56","","25","","","","NA"
"2014-07-12 23:00","2014","07","12","23:00","20.6","","16.6","","78","","","M","4","","16.1","","100.51","","26","","","","NA"
"2014-07-13 00:00","2014","07","13","00:00","21.0","","16.9","","77","","","M","4","","16.1","","100.42","","26","","","","NA"
"2014-07-13 01:00","2014","07","13","01:00","20.7","","17.3","","81","","","M","4","","16.1","","100.31","","26","","","","NA"
"2014-07-13 02:00","2014","07","13","02:00","20.2","","17.0","","81","","","M","4","","16.1","","100.21","","25","","","","NA"
"2014-07-13 03:00","2014","07","13","03:00","21.3","","18.2","","82","","15","","8","","16.1","","100.09","","27","","","","NA"
"2014-07-13 04:00","2014","07","13","04:00","20.6","","18.0","","85","","21","","8","","16.1","","99.97","","27","","","","NA"
"2014-07-13 05:00","2014","07","13","05:00","19.8","","17.4","","86","","25","","13","","16.1","","99.94","","","","","","NA"
"2014-07-13 06:00","2014","07","13","06:00","18.7","","17.7","","94","","21","","17","","2.8","","99.95","","","","","","Thunderstorms,Rain,Fog"
"2014-07-13 07:00","2014","07","13","07:00","18.3","","17.7","","96","","28","","8","","2.4","","99.89","","","","","","Fog"
"2014-07-13 08:00","2014","07","13","08:00","19.4","","17.9","","91","","19","","18","","16.1","","99.85","","","","","","NA"
"2014-07-13 09:00","2014","07","13","09:00","19.7","","18.0","","90","","19","","24","","12.9","","99.75","","","","","","NA"
"2014-07-13 10:00","2014","07","13","10:00","19.3","","18.7","","96","","22","","37","","2.0","","99.75","","","","","","Heavy Rain,Fog"
"2014-07-13 11:00","2014","07","13","11:00","24.6","","20.3","","77","","26","","28","","16.1","","99.79","","32","","","","NA"
"2014-07-13 12:00","2014","07","13","12:00","26.0","","19.3","","66","","28","","34","","16.1","","99.73","","33","","","","NA"
"2014-07-13 13:00","2014","07","13","13:00","27.1","","18.9","","60","","29","","22","","16.1","","99.80","","34","","","","NA"
"2014-07-13 14:00","2014","07","13","14:00","27.9","","16.5","","49","","27","","28","","16.1","","99.82","","33","","","","NA"
"2014-07-13 15:00","2014","07","13","15:00","28.4","","16.5","","48","","27","","26","","16.1","","99.84","","33","","","","NA"
"2014-07-13 16:00","2014","07","13","16:00","27.8","","16.7","","50","","26","","22","","16.1","","99.85","","33","","","","NA"
"2014-07-13 17:00","2014","07","13","17:00","28.5","","15.3","","44","","27","","21","","16.1","","99.87","","33","","","","NA"
"2014-07-13 18:00","2014","07","13","18:00","27.0","","15.4","","49","","27","","21","","16.1","","99.93","","31","","","","NA"
"2014-07-13 19:00","2014","07","13","19:00","26.5","","15.1","","49","","27","","21","","16.1","","99.98","","31","","","","NA"
"2014-07-13 20:00","2014","07","13","20:00","25.1","","14.7","","52","","29","","17","","16.1","","100.05","","29","","","","NA"
"2014-07-13 21:00","2014","07","13","21:00","23.9","","14.6","","56","","28","","11","","16.1","","100.08","","28","","","","NA"
"2014-07-13 22:00","2014","07","13","22:00","23.8","","15.1","","58","","28","","11","","16.1","","100.11","","28","","","","NA"
"2014-07-13 23:00","2014","07","13","23:00","21.1","","14.6","","66","","35","","21","","16.1","","100.18","","25","","","","NA"
"2014-07-14 00:00","2014","07","14","00:00","20.9","","8.8","","45","","36","","17","","16.1","","100.21","","","","","","NA"
"2014-07-14 01:00","2014","07","14","01:00","20.6","","8.5","","45","","33","","11","","16.1","","100.24","","","","","","NA"
"2014-07-14 02:00","2014","07","14","02:00","20.2","","7.3","","43","","","M","11","","16.1","","100.24","","","","","","NA"
"2014-07-14 03:00","2014","07","14","03:00","19.3","","7.5","","46","","34","","5","","16.1","","100.26","","","","","","NA"
"2014-07-14 04:00","2014","07","14","04:00","16.1","","10.1","","67","","","M","5","","16.1","","100.24","","","","","","NA"
"2014-07-14 05:00","2014","07","14","05:00","15.5","","10.9","","74","","","M","5","","16.1","","100.30","","","","","","NA"
"2014-07-14 06:00","2014","07","14","06:00","15.5","","12.1","","80","","","","0","","16.1","","100.33","","","","","","NA"
"2014-07-14 07:00","2014","07","14","07:00","18.0","","11.9","","67","","17","","5","","16.1","","100.28","","","","","","NA"
"2014-07-14 08:00","2014","07","14","08:00","18.3","","11.0","","62","","","M","4","","16.1","","100.31","","","","","","NA"
"2014-07-14 09:00","2014","07","14","09:00","17.8","","11.5","","66","","8","","8","","16.1","","100.30","","","","","","NA"
"2014-07-14 10:00","2014","07","14","10:00","18.3","","10.9","","62","","9","","9","","16.1","","100.31","","","","","","NA"
"2014-07-14 11:00","2014","07","14","11:00","20.2","","10.7","","54","","9","","13","","16.1","","100.28","","","","","","NA"
"2014-07-14 12:00","2014","07","14","12:00","19.4","","10.2","","55","","7","","17","","16.1","","100.25","","","","","","NA"
"2014-07-14 13:00","2014","07","14","13:00","19.3","","9.2","","52","","8","","17","","16.1","","100.21","","","","","","NA"
"2014-07-14 14:00","2014","07","14","14:00","18.8","","10.4","","58","","8","","17","","16.1","","100.14","","","","","","NA"
"2014-07-14 15:00","2014","07","14","15:00","19.2","","10.3","","56","","7","","18","","16.1","","100.11","","","","","","NA"
"2014-07-14 16:00","2014","07","14","16:00","18.7","","11.3","","62","","7","","18","","16.1","","100.07","","","","","","NA"
"2014-07-14 17:00","2014","07","14","17:00","19.1","","10.2","","56","","9","","13","","16.1","","100.10","","","","","","NA"
"2014-07-14 18:00","2014","07","14","18:00","19.2","","10.1","","55","","8","","11","","16.1","","100.06","","","","","","NA"
"2014-07-14 19:00","2014","07","14","19:00","18.7","","10.9","","60","","8","","18","","16.1","","100.06","","","","","","NA"
"2014-07-14 20:00","2014","07","14","20:00","17.5","","10.5","","63","","6","","15","","16.1","","100.04","","","","","","NA"
"2014-07-14 21:00","2014","07","14","21:00","18.1","","9.4","","56","","7","","15","","16.1","","100.05","","","","","","NA"
"2014-07-14 22:00","2014","07","14","22:00","18.2","","9.6","","57","","8","","11","","16.1","","99.98","","","","","","NA"
"2014-07-14 23:00","2014","07","14","23:00","17.5","","10.6","","64","","7","","11","","16.1","","99.94","","","","","","NA"
"2014-07-15 00:00","2014","07","15","00:00","17.9","","10.8","","63","","8","","13","","16.1","","99.89","","","","","","NA"
"2014-07-15 01:00","2014","07","15","01:00","16.9","","12.5","","75","","6","","11","","16.1","","99.87","","","","","","Rain"
"2014-07-15 02:00","2014","07","15","02:00","17.0","","12.3","","74","","6","","13","","16.1","","99.77","","","","","","Rain"
"2014-07-15 03:00","2014","07","15","03:00","16.7","","11.6","","72","","6","","17","","16.1","","99.71","","","","","","NA"
"2014-07-15 04:00","2014","07","15","04:00","16.0","","12.1","","77","","5","","21","","16.1","","99.66","","","","","","Rain"
"2014-07-15 05:00","2014","07","15","05:00","17.1","","13.7","","80","","4","","15","","16.1","","99.61","","","","","","Rain"
"2014-07-15 06:00","2014","07","15","06:00","16.4","","14.5","","88","","6","","22","","12.9","","99.59","","","","","","Rain"
"2014-07-15 07:00","2014","07","15","07:00","16.6","","15.1","","91","","9","","15","","16.1","","99.59","","","","","","NA"
"2014-07-15 08:00","2014","07","15","08:00","16.7","","14.9","","89","","8","","26","","16.1","","99.56","","","","","","NA"
"2014-07-15 09:00","2014","07","15","09:00","16.9","","14.9","","88","","","M","32","","16.1","","99.54","","","","","","NA"
"2014-07-15 10:00","2014","07","15","10:00","17.7","","15.6","","87","","7","","22","","16.1","","99.54","","","","","","NA"
"2014-07-15 11:00","2014","07","15","11:00","18.4","","16.2","","87","","7","","15","","16.1","","99.56","","","","","","NA"
"2014-07-15 12:00","2014","07","15","12:00","21.8","","18.0","","79","","","M","9","","16.1","","99.55","","28","","","","NA"
"2014-07-15 13:00","2014","07","15","13:00","22.0","","17.4","","75","","18","","11","","16.1","","99.53","","28","","","","NA"
"2014-07-15 14:00","2014","07","15","14:00","20.2","","16.4","","79","","20","","11","","16.1","","99.56","","25","","","","NA"
"2014-07-15 15:00","2014","07","15","15:00","22.0","","12.2","","53","","25","","28","","16.1","","99.58","","","","","","NA"
"2014-07-15 16:00","2014","07","15","16:00","22.0","","11.5","","51","","24","","24","","16.1","","99.59","","","","","","NA"
"2014-07-15 17:00","2014","07","15","17:00","21.6","","10.6","","49","","27","","43","","16.1","","99.64","","","","","","NA"
"2014-07-15 18:00","2014","07","15","18:00","20.8","","9.8","","49","","26","","24","","16.1","","99.70","","","","","","NA"
"2014-07-15 19:00","2014","07","15","19:00","18.5","","10.5","","59","","25","","15","","16.1","","99.80","","","","","","NA"
"2014-07-15 20:00","2014","07","15","20:00","15.1","","10.9","","76","","25","","13","","16.1","","99.80","","","","","","NA"
"2014-07-15 21:00","2014","07","15","21:00","18.3","","10.0","","58","","27","","22","","16.1","","99.87","","","","","","NA"
"2014-07-15 22:00","2014","07","15","22:00","15.3","","11.1","","76","","25","","15","","16.1","","99.91","","","","","","NA"
"2014-07-15 23:00","2014","07","15","23:00","16.4","","11.2","","71","","26","","24","","16.1","","99.89","","","","","","NA"
"2014-07-16 00:00","2014","07","16","00:00","15.1","","11.0","","76","","26","","24","","16.1","","99.89","","","","","","NA"
"2014-07-16 01:00","2014","07","16","01:00","14.9","","11.2","","78","","28","","18","","16.1","","99.89","","","","","","NA"
"2014-07-16 02:00","2014","07","16","02:00","13.7","","11.1","","84","","25","","15","","16.1","","99.91","","","","","","NA"
"2014-07-16 03:00","2014","07","16","03:00","12.0","","10.6","","91","","22","","11","","16.1","","99.93","","","","","","NA"
"2014-07-16 04:00","2014","07","16","04:00","12.5","","11.3","","92","","26","","9","","16.1","","99.97","","","","","","NA"
"2014-07-16 05:00","2014","07","16","05:00","12.1","","11.0","","93","","22","","8","","16.1","","100.02","","","","","","NA"
"2014-07-16 06:00","2014","07","16","06:00","12.6","","11.5","","93","","24","","13","","16.1","","100.06","","","","","","NA"
"2014-07-16 07:00","2014","07","16","07:00","13.8","","11.9","","88","","25","","9","","16.1","","100.11","","","","","","NA"
"2014-07-16 08:00","2014","07","16","08:00","17.9","","12.5","","70","","26","","15","","16.1","","100.13","","","","","","NA"
"2014-07-16 09:00","2014","07","16","09:00","16.8","","11.4","","70","","24","","13","","16.1","","100.17","","","","","","NA"
"2014-07-16 10:00","2014","07","16","10:00","19.0","","11.5","","61","","27","","21","","16.1","","100.18","","","","","","NA"
"2014-07-16 11:00","2014","07","16","11:00","20.1","","11.9","","59","","25","","17","","16.1","","100.19","","","","","","NA"
"2014-07-16 12:00","2014","07","16","12:00","17.0","","12.3","","74","","17","","21","","16.1","","100.19","","","","","","NA"
"2014-07-16 13:00","2014","07","16","13:00","17.5","","12.2","","71","","15","","11","","16.1","","100.19","","","","","","NA"
"2014-07-16 14:00","2014","07","16","14:00","17.2","","13.1","","77","","26","","5","","16.1","","100.22","","","","","","NA"
"2014-07-16 15:00","2014","07","16","15:00","16.3","","13.2","","82","","25","","8","","14.5","","100.23","","","","","","Rain"
"2014-07-16 16:00","2014","07","16","16:00","16.8","","14.5","","86","","19","","8","","16.1","","100.19","","","","","","NA"
"2014-07-16 17:00","2014","07","16","17:00","17.5","","13.9","","79","","28","","9","","16.1","","100.21","","","","","","NA"
"2014-07-16 18:00","2014","07","16","18:00","20.3","","12.0","","58","","28","","17","","16.1","","100.24","","","","","","NA"
"2014-07-16 19:00","2014","07","16","19:00","18.8","","12.5","","66","","27","","13","","16.1","","100.31","","","","","","NA"
"2014-07-16 20:00","2014","07","16","20:00","17.4","","12.4","","72","","25","","11","","16.1","","100.32","","","","","","NA"
"2014-07-16 21:00","2014","07","16","21:00","18.8","","11.0","","60","","30","","11","","16.1","","100.38","","","","","","NA"
"2014-07-16 22:00","2014","07","16","22:00","18.3","","11.9","","66","","33","","9","","16.1","","100.43","","","","","","NA"
"2014-07-16 23:00","2014","07","16","23:00","17.0","","10.9","","67","","32","","9","","16.1","","100.47","","","","","","NA"
"2014-07-17 00:00","2014","07","17","00:00","15.7","","11.1","","74","","30","","13","","16.1","","100.49","","","","","","NA"
"2014-07-17 01:00","2014","07","17","01:00","15.4","","11.1","","75","","32","","8","","16.1","","100.53","","","","","","NA"
"2014-07-17 02:00","2014","07","17","02:00","14.2","","9.7","","74","","30","","11","","16.1","","100.54","","","","","","NA"
"2014-07-17 03:00","2014","07","17","03:00","13.0","","8.9","","76","","28","","11","","16.1","","100.56","","","","","","NA"
"2014-07-17 04:00","2014","07","17","04:00","13.2","","8.9","","75","","31","","9","","16.1","","100.58","","","","","","NA"
"2014-07-17 05:00","2014","07","17","05:00","11.9","","8.8","","81","","26","","5","","16.1","","100.63","","","","","","NA"
"2014-07-17 06:00","2014","07","17","06:00","12.1","","9.9","","86","","25","","8","","16.1","","100.69","","","","","","NA"
"2014-07-17 07:00","2014","07","17","07:00","13.2","","10.1","","81","","22","","9","","16.1","","100.72","","","","","","NA"
"2014-07-17 08:00","2014","07","17","08:00","14.0","","10.8","","81","","21","","11","","16.1","","100.77","","","","","","NA"
"2014-07-17 09:00","2014","07","17","09:00","14.8","","11.2","","79","","21","","13","","16.1","","100.80","","","","","","NA"
"2014-07-17 10:00","2014","07","17","10:00","16.0","","11.7","","75","","18","","17","","16.1","","100.80","","","","","","NA"
"2014-07-17 11:00","2014","07","17","11:00","15.9","","12.9","","82","","20","","11","","16.1","","100.80","","","","","","NA"
"2014-07-17 12:00","2014","07","17","12:00","18.4","","12.9","","70","","17","","18","","16.1","","100.76","","","","","","NA"
"2014-07-17 13:00","2014","07","17","13:00","18.4","","12.1","","66","","14","","11","","16.1","","100.76","","","","","","NA"
"2014-07-17 14:00","2014","07","17","14:00","18.7","","9.9","","56","","17","","18","","16.1","","100.76","","","","","","NA"
"2014-07-17 15:00","2014","07","17","15:00","19.1","","11.8","","62","","17","","17","","16.1","","100.74","","","","","","NA"
"2014-07-17 16:00","2014","07","17","16:00","18.5","","13.5","","72","","19","","21","","16.1","","100.74","","","","","","NA"
"2014-07-17 17:00","2014","07","17","17:00","17.7","","13.4","","76","","26","","11","","16.1","","100.77","","","","","","NA"
"2014-07-17 18:00","2014","07","17","18:00","17.5","","11.9","","69","","19","","4","","16.1","","100.81","","","","","","NA"
"2014-07-17 19:00","2014","07","17","19:00","20.8","","8.1","","43","","28","","13","","16.1","","100.86","","","","","","NA"
"2014-07-17 20:00","2014","07","17","20:00","20.3","","8.0","","45","","28","","11","","16.1","","100.92","","","","","","NA"
"2014-07-17 21:00","2014","07","17","21:00","19.3","","8.8","","50","","29","","9","","16.1","","100.99","","","","","","NA"
"2014-07-17 22:00","2014","07","17","22:00","19.9","","9.0","","49","","32","","8","","16.1","","101.05","","","","","","NA"
"2014-07-17 23:00","2014","07","17","23:00","15.3","","10.3","","72","","27","","4","","16.1","","101.07","","","","","","NA"
"2014-07-18 00:00","2014","07","18","00:00","13.8","","10.3","","79","","28","","8","","16.1","","101.12","","","","","","NA"
"2014-07-18 01:00","2014","07","18","01:00","13.9","","10.1","","78","","","M","4","","16.1","","101.14","","","","","","NA"
"2014-07-18 02:00","2014","07","18","02:00","14.3","","10.4","","77","","27","","5","","16.1","","101.16","","","","","","NA"
"2014-07-18 03:00","2014","07","18","03:00","12.7","","10.3","","85","","28","","8","","16.1","","101.22","","","","","","NA"
"2014-07-18 04:00","2014","07","18","04:00","15.0","","10.3","","73","","32","","13","","16.1","","101.25","","","","","","NA"
"2014-07-18 05:00","2014","07","18","05:00","14.4","","10.5","","77","","31","","5","","16.1","","101.32","","","","","","NA"
"2014-07-18 06:00","2014","07","18","06:00","14.7","","10.4","","75","","31","","8","","16.1","","101.37","","","","","","NA"
"2014-07-18 07:00","2014","07","18","07:00","16.8","","11.6","","71","","","","0","","16.1","","101.41","","","","","","NA"
"2014-07-18 08:00","2014","07","18","08:00","14.3","","10.9","","80","","23","","5","","16.1","","101.50","","","","","","NA"
"2014-07-18 09:00","2014","07","18","09:00","16.0","","10.9","","71","","20","","8","","16.1","","101.51","","","","","","NA"
"2014-07-18 10:00","2014","07","18","10:00","19.8","","9.0","","49","","","M","4","","16.1","","101.49","","","","","","NA"
"2014-07-18 11:00","2014","07","18","11:00","19.6","","10.5","","55","","19","","9","","16.1","","101.49","","","","","","NA"
"2014-07-18 12:00","2014","07","18","12:00","21.7","","9.6","","46","","13","","11","","16.1","","101.47","","","","","","NA"
"2014-07-18 13:00","2014","07","18","13:00","21.7","","9.2","","44","","12","","11","","16.1","","101.42","","","","","","NA"
"2014-07-18 14:00","2014","07","18","14:00","22.1","","10.1","","46","","12","","13","","16.1","","101.40","","","","","","NA"
"2014-07-18 15:00","2014","07","18","15:00","21.9","","10.1","","47","","13","","9","","16.1","","101.38","","","","","","NA"
"2014-07-18 16:00","2014","07","18","16:00","21.4","","10.5","","49","","7","","11","","16.1","","101.37","","","","","","NA"
"2014-07-18 17:00","2014","07","18","17:00","21.5","","10.2","","48","","7","","8","","16.1","","101.36","","","","","","NA"
"2014-07-18 18:00","2014","07","18","18:00","20.2","","11.1","","55","","7","","8","","16.1","","101.33","","","","","","NA"
"2014-07-18 19:00","2014","07","18","19:00","18.8","","9.3","","54","","7","","13","","16.1","","101.33","","","","","","NA"
"2014-07-18 20:00","2014","07","18","20:00","18.6","","11.4","","63","","7","","9","","16.1","","101.31","","","","","","NA"
"2014-07-18 21:00","2014","07","18","21:00","18.2","","13.1","","72","","7","","13","","16.1","","101.34","","","","","","NA"
"2014-07-18 22:00","2014","07","18","22:00","17.9","","13.7","","76","","7","","11","","16.1","","101.35","","","","","","NA"
"2014-07-18 23:00","2014","07","18","23:00","17.9","","13.0","","73","","7","","13","","16.1","","101.35","","","","","","NA"
"2014-07-19 00:00","2014","07","19","00:00","17.9","","13.5","","75","","8","","13","","16.1","","101.35","","","","","","NA"
"2014-07-19 01:00","2014","07","19","01:00","17.9","","13.9","","77","","7","","13","","16.1","","101.32","","","","","","NA"
"2014-07-19 02:00","2014","07","19","02:00","17.6","","13.8","","78","","7","","11","","16.1","","101.29","","","","","","NA"
"2014-07-19 03:00","2014","07","19","03:00","17.2","","13.6","","79","","7","","11","","16.1","","101.28","","","","","","NA"
"2014-07-19 04:00","2014","07","19","04:00","16.6","","13.4","","81","","7","","13","","16.1","","101.28","","","","","","NA"
"2014-07-19 05:00","2014","07","19","05:00","16.3","","13.1","","81","","6","","17","","16.1","","101.30","","","","","","NA"
"2014-07-19 06:00","2014","07","19","06:00","17.0","","12.9","","77","","7","","17","","16.1","","101.29","","","","","","NA"
"2014-07-19 07:00","2014","07","19","07:00","17.5","","12.9","","74","","6","","21","","16.1","","101.31","","","","","","NA"
"2014-07-19 08:00","2014","07","19","08:00","18.0","","13.7","","76","","7","","21","","16.1","","101.33","","","","","","NA"
"2014-07-19 09:00","2014","07","19","09:00","18.4","","14.6","","78","","6","","26","","16.1","","101.30","","","","","","NA"
"2014-07-19 10:00","2014","07","19","10:00","18.2","","15.0","","81","","8","","18","","16.1","","101.30","","","","","","NA"
"2014-07-19 11:00","2014","07","19","11:00","18.5","","15.3","","81","","8","","21","","16.1","","101.26","","","","","","NA"
"2014-07-19 12:00","2014","07","19","12:00","18.0","","15.6","","86","","8","","18","","16.1","","101.24","","","","","","NA"
"2014-07-19 13:00","2014","07","19","13:00","17.4","","16.3","","93","","7","","15","","16.1","","101.22","","","","","","Rain"
"2014-07-19 14:00","2014","07","19","14:00","17.8","","16.7","","93","","7","","13","","16.1","","101.18","","","","","","Rain"
"2014-07-19 15:00","2014","07","19","15:00","17.9","","16.9","","94","","7","","11","","9.7","","101.14","","","","","","Rain,Fog"
"2014-07-19 16:00","2014","07","19","16:00","17.3","","16.5","","95","","8","","11","","8.1","","101.11","","","","","","Rain,Fog"
"2014-07-19 17:00","2014","07","19","17:00","17.0","","16.2","","95","","7","","15","","4.8","","101.08","","","","","","Rain,Fog"
"2014-07-19 18:00","2014","07","19","18:00","17.2","","16.6","","96","","7","","18","","6.4","","101.07","","","","","","Rain,Fog"
"2014-07-19 19:00","2014","07","19","19:00","17.0","","16.4","","96","","7","","24","","8.1","","101.06","","","","","","Rain,Fog"
"2014-07-19 20:00","2014","07","19","20:00","16.4","","15.8","","96","","8","","15","","6.4","","101.06","","","","","","Rain,Fog"
"2014-07-19 21:00","2014","07","19","21:00","16.4","","15.9","","97","","7","","18","","2.8","","101.06","","","","","","Rain,Fog"
"2014-07-19 22:00","2014","07","19","22:00","16.7","","16.2","","97","","8","","11","","1.6","","101.00","","","","","","Fog"
"2014-07-19 23:00","2014","07","19","23:00","16.7","","15.9","","95","","7","","13","","11.3","","100.98","","","","","","NA"
"2014-07-20 00:00","2014","07","20","00:00","17.0","","16.0","","94","","6","","17","","12.9","","100.93","","","","","","NA"
"2014-07-20 01:00","2014","07","20","01:00","17.5","","16.4","","93","","8","","11","","14.5","","100.90","","","","","","NA"
"2014-07-20 02:00","2014","07","20","02:00","17.4","","16.4","","94","","7","","8","","12.9","","100.87","","","","","","NA"
"2014-07-20 03:00","2014","07","20","03:00","17.4","","16.4","","94","","7","","11","","16.1","","100.86","","","","","","NA"
"2014-07-20 04:00","2014","07","20","04:00","17.5","","16.7","","95","","8","","11","","9.7","","100.86","","","","","","Fog"
"2014-07-20 05:00","2014","07","20","05:00","17.0","","16.4","","96","","7","","13","","2.4","","100.87","","","","","","Fog"
"2014-07-20 06:00","2014","07","20","06:00","17.1","","16.6","","97","","7","","13","","3.6","","100.90","","","","","","Fog"
"2014-07-20 07:00","2014","07","20","07:00","17.4","","16.9","","97","","7","","9","","3.2","","100.95","","","","","","Fog"
"2014-07-20 08:00","2014","07","20","08:00","18.4","","17.8","","96","","7","","9","","4.8","","100.96","","","","","","Fog"
"2014-07-20 09:00","2014","07","20","09:00","19.3","","17.9","","92","","7","","8","","12.9","","100.97","","","","","","NA"
"2014-07-20 10:00","2014","07","20","10:00","19.2","","17.7","","91","","8","","5","","11.3","","100.97","","","","","","NA"
"2014-07-20 11:00","2014","07","20","11:00","20.7","","18.5","","87","","8","","9","","16.1","","100.98","","27","","","","NA"
"2014-07-20 12:00","2014","07","20","12:00","22.9","","19.1","","79","","15","","9","","16.1","","100.94","","30","","","","NA"
"2014-07-20 13:00","2014","07","20","13:00","21.9","","18.5","","81","","7","","11","","16.1","","100.92","","28","","","","NA"
"2014-07-20 14:00","2014","07","20","14:00","21.6","","18.5","","83","","7","","9","","16.1","","100.90","","28","","","","NA"
"2014-07-20 15:00","2014","07","20","15:00","20.8","","18.2","","85","","8","","8","","16.1","","100.87","","27","","","","NA"
"2014-07-20 16:00","2014","07","20","16:00","20.6","","18.7","","88","","","M","4","","14.5","","100.88","","27","","","","Rain"
"2014-07-20 17:00","2014","07","20","17:00","18.9","","17.6","","92","","8","","15","","8.1","","100.85","","","","","","Fog"
"2014-07-20 18:00","2014","07","20","18:00","19.2","","17.4","","89","","8","","17","","16.1","","100.87","","","","","","NA"
"2014-07-20 19:00","2014","07","20","19:00","19.1","","17.1","","88","","8","","15","","16.1","","100.86","","","","","","NA"
"2014-07-20 20:00","2014","07","20","20:00","18.5","","17.0","","91","","7","","17","","16.1","","100.87","","","","","","NA"
"2014-07-20 21:00","2014","07","20","21:00","18.3","","16.8","","91","","7","","15","","16.1","","100.92","","","","","","NA"
"2014-07-20 22:00","2014","07","20","22:00","18.2","","16.7","","91","","7","","17","","16.1","","100.93","","","","","","NA"
"2014-07-20 23:00","2014","07","20","23:00","18.7","","17.1","","90","","7","","15","","16.1","","100.91","","","","","","NA"
"2014-07-21 00:00","2014","07","21","00:00","18.5","","16.9","","90","","7","","8","","16.1","","100.92","","","","","","NA"
"2014-07-21 01:00","2014","07","21","01:00","18.7","","17.1","","90","","8","","8","","16.1","","100.90","","","","","","NA"
"2014-07-21 02:00","2014","07","21","02:00","16.4","","15.6","","95","","","","0","","6.4","","100.91","","","","","","Fog"
"2014-07-21 03:00","2014","07","21","03:00","16.0","","15.2","","95","","","M","4","","9.7","","100.92","","","","","","Fog"
"2014-07-21 04:00","2014","07","21","04:00","15.3","","14.8","","97","","","","0","","1.6","","100.95","","","","","","Fog"
"2014-07-21 05:00","2014","07","21","05:00","15.0","","14.5","","97","","","M","4","","0.8","","101.00","","","","","","Fog"
"2014-07-21 06:00","2014","07","21","06:00","15.7","","15.4","","98","","25","","4","","0.6","","101.05","","","","","","Fog"
"2014-07-21 07:00","2014","07","21","07:00","16.7","","16.1","","96","","22","","5","","4.8","","101.11","","","","","","Fog"
"2014-07-21 08:00","2014","07","21","08:00","19.5","","17.2","","87","","19","","8","","11.3","","101.13","","","","","","NA"
"2014-07-21 09:00","2014","07","21","09:00","17.6","","16.2","","92","","21","","13","","8.1","","101.11","","","","","","Fog"
"2014-07-21 10:00","2014","07","21","10:00","17.8","","16.6","","93","","21","","8","","11.3","","101.12","","","","","","NA"
"2014-07-21 11:00","2014","07","21","11:00","18.2","","16.7","","91","","19","","5","","16.1","","101.12","","","","","","NA"
"2014-07-21 12:00","2014","07","21","12:00","20.6","","18.1","","85","","20","","11","","16.1","","101.11","","27","","","","NA"
"2014-07-21 13:00","2014","07","21","13:00","21.8","","18.5","","81","","18","","13","","16.1","","101.07","","28","","","","NA"
"2014-07-21 14:00","2014","07","21","14:00","23.5","","19.2","","76","","19","","8","","16.1","","101.05","","30","","","","NA"
"2014-07-21 15:00","2014","07","21","15:00","25.5","","17.6","","61","","14","","9","","16.1","","101.02","","31","","","","NA"
"2014-07-21 16:00","2014","07","21","16:00","25.8","","17.5","","60","","13","","8","","16.1","","100.99","","31","","","","NA"
"2014-07-21 17:00","2014","07","21","17:00","23.3","","19.3","","78","","7","","9","","16.1","","100.97","","30","","","","NA"
"2014-07-21 18:00","2014","07","21","18:00","22.6","","18.7","","78","","7","","11","","16.1","","100.97","","29","","","","NA"
"2014-07-21 19:00","2014","07","21","19:00","21.7","","18.6","","82","","8","","8","","16.1","","100.97","","28","","","","NA"
"2014-07-21 20:00","2014","07","21","20:00","20.7","","18.7","","88","","10","","4","","16.1","","100.97","","27","","","","NA"
"2014-07-21 21:00","2014","07","21","21:00","20.2","","18.7","","91","","9","","5","","16.1","","101.04","","27","","","","NA"
"2014-07-21 22:00","2014","07","21","22:00","19.7","","18.6","","93","","8","","5","","14.5","","101.03","","","","","","NA"
"2014-07-21 23:00","2014","07","21","23:00","19.6","","18.8","","95","","9","","8","","8.1","","101.02","","","","","","Fog"
"2014-07-22 00:00","2014","07","22","00:00","19.4","","18.6","","95","","8","","9","","6.4","","101.02","","","","","","Fog"
"2014-07-22 01:00","2014","07","22","01:00","19.7","","18.7","","94","","10","","8","","11.3","","100.99","","","","","","NA"
"2014-07-22 02:00","2014","07","22","02:00","18.8","","17.7","","93","","16","","5","","9.7","","100.99","","","","","","Fog"
"2014-07-22 03:00","2014","07","22","03:00","17.9","","17.1","","95","","","","0","","3.2","","100.98","","","","","","Fog"
"2014-07-22 04:00","2014","07","22","04:00","17.4","","16.9","","97","","","","0","","1.6","","101.00","","","","","","Fog"
"2014-07-22 05:00","2014","07","22","05:00","17.0","","16.5","","97","","","","0","","0.8","","101.00","","","","","","Fog"
"2014-07-22 06:00","2014","07","22","06:00","18.5","","17.5","","94","","","M","4","","6.4","","101.04","","","","","","Fog"
"2014-07-22 07:00","2014","07","22","07:00","19.8","","18.7","","93","","","","0","","4.8","","101.06","","","","","","Fog"
"2014-07-22 08:00","2014","07","22","08:00","21.4","","19.2","","87","","6","","8","","6.4","","101.08","","28","","","","Fog"
"2014-07-22 09:00","2014","07","22","09:00","22.2","","18.9","","81","","12","","8","","9.7","","101.02","","29","","","","Haze"
"2014-07-22 10:00","2014","07","22","10:00","22.4","","18.8","","80","","18","","8","","12.9","","100.99","","29","","","","NA"
"2014-07-22 11:00","2014","07","22","11:00","22.3","","18.6","","79","","19","","8","","11.3","","100.89","","29","","","","NA"
"2014-07-22 12:00","2014","07","22","12:00","24.5","","18.5","","69","","18","","11","","16.1","","100.83","","31","","","","NA"
"2014-07-22 13:00","2014","07","22","13:00","25.6","","18.6","","65","","8","","11","","16.1","","100.76","","32","","","","NA"
"2014-07-22 14:00","2014","07","22","14:00","26.8","","15.9","","51","","11","","11","","16.1","","100.69","","31","","","","NA"
"2014-07-22 15:00","2014","07","22","15:00","26.8","","16.4","","52","","11","","13","","12.9","","100.60","","32","","","","NA"
"2014-07-22 16:00","2014","07","22","16:00","26.7","","16.9","","55","","13","","9","","16.1","","100.58","","32","","","","NA"
"2014-07-22 17:00","2014","07","22","17:00","26.2","","17.3","","58","","14","","17","","16.1","","100.52","","32","","","","NA"
"2014-07-22 18:00","2014","07","22","18:00","24.8","","19.3","","71","","18","","11","","16.1","","100.50","","32","","","","NA"
"2014-07-22 19:00","2014","07","22","19:00","22.2","","18.1","","77","","","M","4","","16.1","","100.40","","28","","","","NA"
"2014-07-22 20:00","2014","07","22","20:00","21.0","","17.5","","80","","20","","9","","16.1","","100.34","","27","","","","NA"
"2014-07-22 21:00","2014","07","22","21:00","21.0","","18.1","","83","","","M","4","","16.1","","100.38","","27","","","","NA"
"2014-07-22 22:00","2014","07","22","22:00","21.0","","18.4","","85","","28","","5","","16.1","","100.39","","27","","","","NA"
"2014-07-22 23:00","2014","07","22","23:00","22.2","","18.9","","81","","15","","5","","16.1","","100.41","","29","","","","NA"
"2014-07-23 00:00","2014","07","23","00:00","22.5","","18.7","","79","","","M","4","","16.1","","100.31","","29","","","","NA"
"2014-07-23 01:00","2014","07","23","01:00","20.7","","18.1","","85","","20","","15","","16.1","","100.22","","27","","","","NA"
"2014-07-23 02:00","2014","07","23","02:00","20.9","","18.8","","88","","23","","13","","16.1","","100.18","","28","","","","NA"
"2014-07-23 03:00","2014","07","23","03:00","21.6","","19.9","","90","","26","","11","","9.7","","100.04","","29","","","","Thunderstorms,Fog"
"2014-07-23 04:00","2014","07","23","04:00","19.9","","18.6","","92","","23","","9","","6.4","","100.04","","","","","","Fog"
"2014-07-23 05:00","2014","07","23","05:00","20.4","","19.3","","93","","25","","13","","6.4","","100.17","","27","","","","Fog"
"2014-07-23 06:00","2014","07","23","06:00","22.3","","20.1","","87","","25","","11","","9.7","","100.12","","30","","","","Fog"
"2014-07-23 07:00","2014","07","23","07:00","21.3","","19.7","","91","","34","","11","","9.7","","100.15","","29","","","","Fog"
"2014-07-23 08:00","2014","07","23","08:00","22.2","","17.8","","76","","34","","15","","16.1","","100.19","","28","","","","NA"
"2014-07-23 09:00","2014","07","23","09:00","21.4","","16.1","","71","","31","","18","","16.1","","100.28","","26","","","","NA"
"2014-07-23 10:00","2014","07","23","10:00","20.1","","15.3","","74","","31","","22","","16.1","","100.38","","","","","","NA"
"2014-07-23 11:00","2014","07","23","11:00","21.9","","15.8","","68","","31","","13","","16.1","","100.37","","26","","","","NA"
"2014-07-23 12:00","2014","07","23","12:00","22.4","","14.4","","60","","32","","22","","16.1","","100.39","","26","","","","NA"
"2014-07-23 13:00","2014","07","23","13:00","21.3","","14.8","","66","","30","","24","","16.1","","100.44","","25","","","","NA"
"2014-07-23 14:00","2014","07","23","14:00","21.8","","14.7","","63","","30","","26","","16.1","","100.45","","26","","","","NA"
"2014-07-23 15:00","2014","07","23","15:00","21.6","","14.4","","63","","33","","24","","16.1","","100.46","","25","","","","NA"
"2014-07-23 16:00","2014","07","23","16:00","20.8","","13.7","","63","","32","","22","","16.1","","100.48","","","","","","NA"
"2014-07-23 17:00","2014","07","23","17:00","20.4","","13.7","","65","","31","","18","","16.1","","100.50","","","","","","NA"
"2014-07-23 18:00","2014","07","23","18:00","20.6","","13.4","","63","","30","","18","","16.1","","100.53","","","","","","NA"
"2014-07-23 19:00","2014","07","23","19:00","20.8","","12.1","","57","","35","","8","","16.1","","100.59","","","","","","NA"
"2014-07-23 20:00","2014","07","23","20:00","20.1","","12.5","","61","","34","","11","","16.1","","100.62","","","","","","NA"
"2014-07-23 21:00","2014","07","23","21:00","19.3","","11.3","","59","","31","","9","","16.1","","100.67","","","","","","NA"
"2014-07-23 22:00","2014","07","23","22:00","18.6","","10.8","","60","","32","","15","","16.1","","100.69","","","","","","NA"
"2014-07-23 23:00","2014","07","23","23:00","18.0","","10.9","","63","","34","","13","","16.1","","100.69","","","","","","NA"
"2014-07-24 00:00","2014","07","24","00:00","17.8","","11.2","","65","","34","","17","","16.1","","100.69","","","","","","NA"
"2014-07-24 01:00","2014","07","24","01:00","18.1","","10.0","","59","","1","","18","","16.1","","100.67","","","","","","NA"
"2014-07-24 02:00","2014","07","24","02:00","17.5","","9.1","","57","","1","","21","","16.1","","100.67","","","","","","NA"
"2014-07-24 03:00","2014","07","24","03:00","17.3","","8.8","","57","","36","","21","","16.1","","100.70","","","","","","NA"
"2014-07-24 04:00","2014","07","24","04:00","16.8","","9.2","","61","","35","","11","","16.1","","100.76","","","","","","NA"
"2014-07-24 05:00","2014","07","24","05:00","16.1","","10.0","","67","","34","","11","","16.1","","100.81","","","","","","NA"
"2014-07-24 06:00","2014","07","24","06:00","16.7","","10.1","","65","","32","","5","","16.1","","100.83","","","","","","NA"
"2014-07-24 07:00","2014","07","24","07:00","17.5","","9.2","","58","","1","","15","","16.1","","100.88","","","","","","NA"
"2014-07-24 08:00","2014","07","24","08:00","18.6","","9.2","","54","","1","","9","","16.1","","100.91","","","","","","NA"
"2014-07-24 09:00","2014","07","24","09:00","19.4","","6.8","","44","","33","","15","","16.1","","100.90","","","","","","NA"
"2014-07-24 10:00","2014","07","24","10:00","19.8","","8.0","","46","","1","","15","","16.1","","100.91","","","","","","NA"
"2014-07-24 11:00","2014","07","24","11:00","19.8","","7.2","","44","","1","","13","","16.1","","100.89","","","","","","NA"
"2014-07-24 12:00","2014","07","24","12:00","19.3","","12.2","","63","","18","","15","","16.1","","100.87","","","","","","NA"
"2014-07-24 13:00","2014","07","24","13:00","19.4","","11.7","","61","","18","","15","","16.1","","100.84","","","","","","NA"
"2014-07-24 14:00","2014","07","24","14:00","19.5","","11.7","","60","","19","","17","","16.1","","100.81","","","","","","NA"
"2014-07-24 15:00","2014","07","24","15:00","19.6","","12.8","","64","","20","","15","","16.1","","100.78","","","","","","NA"
"2014-07-24 16:00","2014","07","24","16:00","19.3","","12.9","","66","","21","","15","","16.1","","100.74","","","","","","NA"
"2014-07-24 17:00","2014","07","24","17:00","19.4","","12.1","","62","","20","","9","","16.1","","100.70","","","","","","NA"
"2014-07-24 18:00","2014","07","24","18:00","19.1","","13.1","","68","","23","","8","","16.1","","100.65","","","","","","NA"
"2014-07-24 19:00","2014","07","24","19:00","18.6","","11.9","","65","","26","","5","","16.1","","100.65","","","","","","NA"
"2014-07-24 20:00","2014","07","24","20:00","17.8","","11.3","","65","","","","0","","16.1","","100.65","","","","","","NA"
"2014-07-24 21:00","2014","07","24","21:00","17.9","","10.4","","61","","28","","5","","16.1","","100.73","","","","","","NA"
"2014-07-24 22:00","2014","07","24","22:00","19.7","","6.7","","42","","31","","8","","16.1","","100.78","","","","","","NA"
"2014-07-24 23:00","2014","07","24","23:00","18.5","","7.3","","48","","33","","8","","16.1","","100.81","","","","","","NA"
"2014-07-25 00:00","2014","07","25","00:00","18.0","","8.4","","53","","33","","8","","16.1","","100.80","","","","","","NA"
"2014-07-25 01:00","2014","07","25","01:00","17.3","","8.7","","57","","31","","8","","16.1","","100.74","","","","","","NA"
"2014-07-25 02:00","2014","07","25","02:00","16.4","","9.4","","63","","30","","8","","16.1","","100.72","","","","","","NA"
"2014-07-25 03:00","2014","07","25","03:00","15.3","","11.3","","77","","26","","9","","16.1","","100.70","","","","","","NA"
"2014-07-25 04:00","2014","07","25","04:00","15.2","","11.2","","77","","27","","8","","16.1","","100.72","","","","","","NA"
"2014-07-25 05:00","2014","07","25","05:00","15.1","","10.6","","74","","28","","8","","16.1","","100.77","","","","","","NA"
"2014-07-25 06:00","2014","07","25","06:00","15.2","","11.2","","77","","26","","5","","16.1","","100.81","","","","","","NA"
"2014-07-25 07:00","2014","07","25","07:00","16.8","","9.7","","62","","29","","17","","16.1","","100.87","","","","","","NA"
"2014-07-25 08:00","2014","07","25","08:00","18.2","","10.0","","58","","27","","11","","16.1","","100.86","","","","","","NA"
"2014-07-25 09:00","2014","07","25","09:00","18.1","","12.7","","71","","21","","11","","16.1","","100.85","","","","","","NA"
"2014-07-25 10:00","2014","07","25","10:00","19.3","","12.3","","63","","20","","15","","16.1","","100.85","","","","","","NA"
"2014-07-25 11:00","2014","07","25","11:00","20.0","","14.0","","68","","19","","18","","16.1","","100.80","","","","","","NA"
"2014-07-25 12:00","2014","07","25","12:00","20.6","","14.5","","68","","19","","21","","16.1","","100.71","","","","","","NA"
"2014-07-25 13:00","2014","07","25","13:00","21.2","","14.5","","65","","18","","18","","16.1","","100.63","","25","","","","NA"
"2014-07-25 14:00","2014","07","25","14:00","21.8","","13.7","","60","","18","","18","","16.1","","100.60","","25","","","","NA"
"2014-07-25 15:00","2014","07","25","15:00","22.4","","12.9","","55","","18","","17","","16.1","","100.54","","25","","","","NA"
"2014-07-25 16:00","2014","07","25","16:00","21.6","","14.2","","63","","19","","21","","16.1","","100.47","","25","","","","NA"
"2014-07-25 17:00","2014","07","25","17:00","21.3","","14.7","","65","","18","","18","","16.1","","100.45","","25","","","","NA"
"2014-07-25 18:00","2014","07","25","18:00","20.3","","14.4","","69","","18","","18","","16.1","","100.44","","","","","","NA"
"2014-07-25 19:00","2014","07","25","19:00","19.8","","14.4","","71","","19","","17","","16.1","","100.45","","","","","","NA"
"2014-07-25 20:00","2014","07","25","20:00","18.7","","15.8","","83","","22","","18","","16.1","","100.44","","","","","","NA"
"2014-07-25 21:00","2014","07","25","21:00","18.6","","14.9","","79","","24","","15","","16.1","","100.48","","","","","","NA"
"2014-07-25 22:00","2014","07","25","22:00","18.7","","14.1","","74","","25","","17","","16.1","","100.49","","","","","","NA"
"2014-07-25 23:00","2014","07","25","23:00","18.0","","14.3","","79","","23","","13","","16.1","","100.48","","","","","","NA"
"2014-07-26 00:00","2014","07","26","00:00","17.3","","14.6","","84","","22","","9","","16.1","","100.49","","","","","","NA"
"2014-07-26 01:00","2014","07","26","01:00","17.3","","14.1","","81","","23","","13","","16.1","","100.43","","","","","","NA"
"2014-07-26 02:00","2014","07","26","02:00","16.7","","14.8","","88","","24","","9","","16.1","","100.40","","","","","","NA"
"2014-07-26 03:00","2014","07","26","03:00","16.8","","15.0","","89","","23","","9","","16.1","","100.38","","","","","","NA"
"2014-07-26 04:00","2014","07","26","04:00","16.6","","13.7","","83","","25","","8","","16.1","","100.41","","","","","","NA"
"2014-07-26 05:00","2014","07","26","05:00","17.3","","14.2","","82","","24","","11","","16.1","","100.40","","","","","","NA"
"2014-07-26 06:00","2014","07","26","06:00","17.1","","14.6","","85","","23","","8","","16.1","","100.41","","","","","","Rain"
"2014-07-26 07:00","2014","07","26","07:00","17.5","","15.0","","85","","21","","9","","16.1","","100.41","","","","","","NA"
"2014-07-26 08:00","2014","07","26","08:00","18.8","","15.0","","78","","22","","9","","16.1","","100.40","","","","","","NA"
"2014-07-26 09:00","2014","07","26","09:00","19.8","","16.0","","78","","21","","15","","16.1","","100.37","","","","","","NA"
"2014-07-26 10:00","2014","07","26","10:00","20.4","","16.1","","76","","19","","11","","16.1","","100.37","","25","","","","NA"
"2014-07-26 11:00","2014","07","26","11:00","21.7","","16.2","","71","","19","","9","","16.1","","100.32","","26","","","","NA"
"2014-07-26 12:00","2014","07","26","12:00","22.7","","16.6","","68","","18","","18","","16.1","","100.25","","28","","","","NA"
"2014-07-26 13:00","2014","07","26","13:00","22.4","","16.1","","67","","18","","18","","16.1","","100.22","","27","","","","NA"
"2014-07-26 14:00","2014","07","26","14:00","22.6","","16.5","","68","","18","","18","","16.1","","100.17","","28","","","","NA"
"2014-07-26 15:00","2014","07","26","15:00","23.2","","15.7","","62","","17","","15","","16.1","","100.09","","28","","","","NA"
"2014-07-26 16:00","2014","07","26","16:00","20.7","","17.1","","79","","20","","15","","16.1","","100.08","","26","","","","Rain"
"2014-07-26 17:00","2014","07","26","17:00","21.7","","16.5","","72","","22","","15","","16.1","","100.01","","27","","","","NA"
"2014-07-26 18:00","2014","07","26","18:00","21.6","","15.9","","70","","19","","9","","16.1","","99.96","","26","","","","NA"
"2014-07-26 19:00","2014","07","26","19:00","20.8","","15.7","","72","","","","0","","16.1","","99.94","","25","","","","NA"
"2014-07-26 20:00","2014","07","26","20:00","20.8","","15.7","","72","","","","0","","16.1","","99.94","","25","","","","NA"
"2014-07-26 21:00","2014","07","26","21:00","20.4","","15.7","","74","","","","0","","16.1","","99.90","","25","","","","NA"
"2014-07-26 22:00","2014","07","26","22:00","19.9","","17.0","","83","","","M","4","","16.1","","99.84","","","","","","NA"
"2014-07-26 23:00","2014","07","26","23:00","19.4","","17.0","","86","","26","","8","","16.1","","99.77","","","","","","NA"
"2014-07-27 00:00","2014","07","27","00:00","19.0","","17.0","","88","","25","","5","","16.1","","99.71","","","","","","NA"
"2014-07-27 01:00","2014","07","27","01:00","19.0","","17.0","","88","","25","","9","","16.1","","99.62","","","","","","NA"
"2014-07-27 02:00","2014","07","27","02:00","19.1","","16.7","","86","","25","","5","","16.1","","99.61","","","","","","NA"
"2014-07-27 03:00","2014","07","27","03:00","19.2","","17.3","","89","","25","","8","","16.1","","99.57","","","","","","NA"
"2014-07-27 04:00","2014","07","27","04:00","18.7","","17.2","","91","","24","","13","","14.5","","99.53","","","","","","NA"
"2014-07-27 05:00","2014","07","27","05:00","18.2","","17.1","","93","","25","","11","","11.3","","99.57","","","","","","NA"
"2014-07-27 06:00","2014","07","27","06:00","18.5","","17.2","","92","","23","","11","","11.3","","99.60","","","","","","NA"
"2014-07-27 07:00","2014","07","27","07:00","22.7","","17.0","","70","","31","","21","","16.1","","99.62","","28","","","","NA"
"2014-07-27 08:00","2014","07","27","08:00","23.4","","16.3","","64","","31","","21","","16.1","","99.62","","28","","","","NA"
"2014-07-27 09:00","2014","07","27","09:00","24.3","","16.2","","60","","30","","13","","16.1","","99.63","","29","","","","NA"
"2014-07-27 10:00","2014","07","27","10:00","23.9","","17.5","","67","","18","","15","","16.1","","99.64","","30","","","","NA"
"2014-07-27 11:00","2014","07","27","11:00","22.3","","18.0","","77","","18","","15","","16.1","","99.66","","28","","","","NA"
"2014-07-27 12:00","2014","07","27","12:00","24.7","","17.3","","63","","17","","17","","16.1","","99.62","","30","","","","NA"
"2014-07-27 13:00","2014","07","27","13:00","24.9","","18.0","","65","","17","","17","","16.1","","99.58","","31","","","","NA"
"2014-07-27 14:00","2014","07","27","14:00","23.5","","17.9","","70","","19","","13","","16.1","","99.51","","29","","","","NA"
"2014-07-27 15:00","2014","07","27","15:00","23.6","","18.2","","71","","20","","18","","16.1","","99.43","","30","","","","NA"
"2014-07-27 16:00","2014","07","27","16:00","24.1","","18.1","","69","","20","","18","","16.1","","99.37","","30","","","","NA"
"2014-07-27 17:00","2014","07","27","17:00","24.4","","17.7","","66","","19","","11","","16.1","","99.30","","30","","","","NA"
"2014-07-27 18:00","2014","07","27","18:00","23.8","","17.4","","67","","17","","17","","16.1","","99.34","","29","","","","NA"
"2014-07-27 19:00","2014","07","27","19:00","22.1","","17.5","","75","","18","","18","","16.1","","99.32","","28","","","","NA"
"2014-07-27 20:00","2014","07","27","20:00","21.7","","16.2","","70","","35","","21","","16.1","","99.36","","26","","","","Rain"
"2014-07-27 21:00","2014","07","27","21:00","19.7","","17.0","","84","","34","","21","","16.1","","99.42","","","","","","Rain"
"2014-07-27 22:00","2014","07","27","22:00","19.1","","17.1","","88","","21","","13","","16.1","","99.55","","","","","","Rain"
"2014-07-27 23:00","2014","07","27","23:00","18.9","","17.6","","92","","34","","15","","16.1","","99.44","","","","","","Rain"
"2014-07-28 00:00","2014","07","28","00:00","18.7","","17.1","","90","","5","","21","","16.1","","99.38","","","","","","Rain"
"2014-07-28 01:00","2014","07","28","01:00","18.8","","17.0","","89","","4","","21","","16.1","","99.32","","","","","","Rain"
"2014-07-28 02:00","2014","07","28","02:00","18.6","","17.3","","92","","7","","8","","4.8","","99.34","","","","","","Rain,Fog"
"2014-07-28 03:00","2014","07","28","03:00","18.6","","17.1","","91","","4","","13","","4.8","","99.29","","","","","","Moderate Rain,Fog"
"2014-07-28 04:00","2014","07","28","04:00","18.2","","16.4","","89","","3","","18","","11.3","","99.30","","","","","","Rain"
"2014-07-28 05:00","2014","07","28","05:00","17.6","","15.4","","87","","2","","21","","12.9","","99.38","","","","","","Rain"
"2014-07-28 06:00","2014","07","28","06:00","17.7","","15.0","","84","","36","","22","","16.1","","99.43","","","","","","Rain"
"2014-07-28 07:00","2014","07","28","07:00","16.9","","14.2","","84","","36","","26","","16.1","","99.49","","","","","","NA"
"2014-07-28 08:00","2014","07","28","08:00","16.9","","13.6","","81","","35","","24","","16.1","","99.57","","","","","","NA"
"2014-07-28 09:00","2014","07","28","09:00","16.1","","13.1","","82","","34","","22","","16.1","","99.66","","","","","","Rain"
"2014-07-28 10:00","2014","07","28","10:00","16.4","","12.8","","79","","35","","24","","16.1","","99.71","","","","","","Rain"
"2014-07-28 11:00","2014","07","28","11:00","18.4","","12.4","","68","","33","","26","","16.1","","99.74","","","","","","NA"
"2014-07-28 12:00","2014","07","28","12:00","19.1","","12.3","","64","","34","","21","","16.1","","99.79","","","","","","NA"
"2014-07-28 13:00","2014","07","28","13:00","21.0","","11.3","","54","","35","","21","","16.1","","99.81","","","","","","NA"
"2014-07-28 14:00","2014","07","28","14:00","21.2","","12.9","","59","","33","","26","","16.1","","99.85","","","","","","NA"
"2014-07-28 15:00","2014","07","28","15:00","20.7","","11.3","","55","","33","","30","","16.1","","99.89","","","","","","NA"
"2014-07-28 16:00","2014","07","28","16:00","20.5","","11.0","","54","","32","","26","","16.1","","99.96","","","","","","NA"
"2014-07-28 17:00","2014","07","28","17:00","19.0","","9.7","","54","","31","","30","","16.1","","100.01","","","","","","NA"
"2014-07-28 18:00","2014","07","28","18:00","18.3","","9.6","","57","","33","","26","","16.1","","100.06","","","","","","NA"
"2014-07-28 19:00","2014","07","28","19:00","17.8","","9.9","","59","","32","","26","","16.1","","100.10","","","","","","NA"
"2014-07-28 20:00","2014","07","28","20:00","17.1","","10.0","","63","","32","","22","","16.1","","100.13","","","","","","NA"
"2014-07-28 21:00","2014","07","28","21:00","16.3","","9.9","","65","","31","","17","","16.1","","100.21","","","","","","NA"
"2014-07-28 22:00","2014","07","28","22:00","15.9","","10.1","","68","","30","","11","","16.1","","100.22","","","","","","NA"
"2014-07-28 23:00","2014","07","28","23:00","15.7","","10.3","","70","","32","","13","","16.1","","100.22","","","","","","NA"
"2014-07-29 00:00","2014","07","29","00:00","15.7","","10.3","","70","","32","","11","","16.1","","100.22","","","","","","NA"
"2014-07-29 01:00","2014","07","29","01:00","15.4","","10.4","","72","","34","","11","","16.1","","100.23","","","","","","NA"
"2014-07-29 02:00","2014","07","29","02:00","14.6","","10.5","","76","","33","","9","","16.1","","100.22","","","","","","NA"
"2014-07-29 03:00","2014","07","29","03:00","14.7","","11.0","","78","","33","","13","","16.1","","100.22","","","","","","NA"
"2014-07-29 04:00","2014","07","29","04:00","14.8","","11.2","","79","","33","","13","","16.1","","100.23","","","","","","NA"
"2014-07-29 05:00","2014","07","29","05:00","15.1","","11.4","","78","","33","","11","","16.1","","100.28","","","","","","NA"
"2014-07-29 06:00","2014","07","29","06:00","15.7","","11.7","","77","","34","","9","","16.1","","100.32","","","","","","NA"
"2014-07-29 07:00","2014","07","29","07:00","16.2","","11.5","","74","","33","","13","","16.1","","100.37","","","","","","NA"
"2014-07-29 08:00","2014","07","29","08:00","17.2","","12.0","","71","","32","","11","","16.1","","100.40","","","","","","NA"
"2014-07-29 09:00","2014","07","29","09:00","18.2","","10.6","","61","","31","","13","","16.1","","100.43","","","","","","NA"
"2014-07-29 10:00","2014","07","29","10:00","18.8","","11.3","","62","","24","","9","","16.1","","100.44","","","","","","NA"
"2014-07-29 11:00","2014","07","29","11:00","18.2","","12.3","","68","","19","","13","","16.1","","100.44","","","","","","NA"
"2014-07-29 12:00","2014","07","29","12:00","18.0","","13.6","","75","","19","","17","","16.1","","100.43","","","","","","NA"
"2014-07-29 13:00","2014","07","29","13:00","18.6","","13.2","","71","","18","","18","","16.1","","100.40","","","","","","NA"
"2014-07-29 14:00","2014","07","29","14:00","18.6","","12.3","","66","","18","","17","","16.1","","100.39","","","","","","NA"
"2014-07-29 15:00","2014","07","29","15:00","18.1","","12.9","","71","","19","","18","","16.1","","100.38","","","","","","NA"
"2014-07-29 16:00","2014","07","29","16:00","17.2","","13.1","","76","","19","","18","","16.1","","100.38","","","","","","NA"
"2014-07-29 17:00","2014","07","29","17:00","18.0","","12.6","","70","","26","","21","","16.1","","100.42","","","","","","Rain"
"2014-07-29 18:00","2014","07","29","18:00","17.5","","14.3","","81","","25","","4","","16.1","","100.44","","","","","","NA"
"2014-07-29 19:00","2014","07","29","19:00","19.1","","12.0","","63","","25","","13","","16.1","","100.46","","","","","","NA"
"2014-07-29 20:00","2014","07","29","20:00","17.5","","12.8","","73","","29","","15","","12.9","","100.48","","","","","","Rain"
"2014-07-29 21:00","2014","07","29","21:00","16.6","","13.9","","84","","24","","5","","16.1","","100.50","","","","","","NA"
"2014-07-29 22:00","2014","07","29","22:00","15.6","","14.0","","90","","","","0","","16.1","","100.48","","","","","","NA"
"2014-07-29 23:00","2014","07","29","23:00","15.1","","14.2","","94","","26","","4","","16.1","","100.47","","","","","","NA"
"2014-07-30 00:00","2014","07","30","00:00","14.9","","14.1","","95","","22","","8","","16.1","","100.45","","","","","","NA"
"2014-07-30 01:00","2014","07","30","01:00","14.5","","13.7","","95","","27","","8","","16.1","","100.43","","","","","","NA"
"2014-07-30 02:00","2014","07","30","02:00","13.8","","13.3","","97","","","","0","","16.1","","100.41","","","","","","NA"
"2014-07-30 03:00","2014","07","30","03:00","14.4","","13.7","","96","","26","","5","","16.1","","100.39","","","","","","NA"
"2014-07-30 04:00","2014","07","30","04:00","14.3","","13.7","","96","","20","","4","","11.3","","100.41","","","","","","NA"
"2014-07-30 05:00","2014","07","30","05:00","14.7","","12.8","","89","","25","","5","","16.1","","100.43","","","","","","NA"
"2014-07-30 06:00","2014","07","30","06:00","14.2","","12.9","","92","","23","","9","","16.1","","100.46","","","","","","NA"
"2014-07-30 07:00","2014","07","30","07:00","15.7","","14.1","","90","","26","","9","","16.1","","100.49","","","","","","NA"
"2014-07-30 08:00","2014","07","30","08:00","16.6","","14.1","","85","","26","","13","","16.1","","100.51","","","","","","NA"
"2014-07-30 09:00","2014","07","30","09:00","17.9","","14.3","","79","","23","","13","","16.1","","100.51","","","","","","NA"
"2014-07-30 10:00","2014","07","30","10:00","18.6","","14.9","","79","","22","","15","","16.1","","100.51","","","","","","NA"
"2014-07-30 11:00","2014","07","30","11:00","19.4","","15.0","","75","","19","","18","","16.1","","100.48","","","","","","NA"
"2014-07-30 12:00","2014","07","30","12:00","20.3","","15.1","","72","","18","","13","","16.1","","100.43","","","","","","NA"
"2014-07-30 13:00","2014","07","30","13:00","19.1","","15.3","","79","","17","","17","","16.1","","100.40","","","","","","NA"
"2014-07-30 14:00","2014","07","30","14:00","20.8","","14.7","","68","","24","","15","","16.1","","100.42","","25","","","","NA"
"2014-07-30 15:00","2014","07","30","15:00","19.7","","14.3","","71","","","M","4","","16.1","","100.45","","","","","","NA"
"2014-07-30 16:00","2014","07","30","16:00","19.9","","13.9","","68","","9","","13","","16.1","","100.42","","","","","","NA"
"2014-07-30 17:00","2014","07","30","17:00","19.8","","15.1","","74","","13","","11","","16.1","","100.42","","","","","","NA"
"2014-07-30 18:00","2014","07","30","18:00","19.1","","13.7","","71","","","M","4","","16.1","","100.45","","","","","","NA"
"2014-07-30 19:00","2014","07","30","19:00","18.3","","13.7","","74","","27","","5","","16.1","","100.46","","","","","","NA"
"2014-07-30 20:00","2014","07","30","20:00","17.9","","14.4","","80","","","","0","","8.1","","100.50","","","","","","Haze"
"2014-07-30 21:00","2014","07","30","21:00","17.0","","14.4","","85","","","","0","","16.1","","100.53","","","","","","NA"
"2014-07-30 22:00","2014","07","30","22:00","16.0","","14.0","","88","","","M","4","","16.1","","100.57","","","","","","NA"
"2014-07-30 23:00","2014","07","30","23:00","18.2","","12.9","","71","","34","","8","","16.1","","100.55","","","","","","NA"
"2014-07-31 00:00","2014","07","31","00:00","17.5","","12.7","","73","","31","","8","","16.1","","100.52","","","","","","NA"
"2014-07-31 01:00","2014","07","31","01:00","16.8","","12.7","","77","","29","","8","","16.1","","100.52","","","","","","NA"
"2014-07-31 02:00","2014","07","31","02:00","16.3","","12.5","","78","","31","","9","","16.1","","100.53","","","","","","NA"
"2014-07-31 03:00","2014","07","31","03:00","15.4","","12.4","","82","","30","","11","","16.1","","100.55","","","","","","NA"
"2014-07-31 04:00","2014","07","31","04:00","15.6","","10.9","","73","","33","","9","","16.1","","100.55","","","","","","NA"
"2014-07-31 05:00","2014","07","31","05:00","15.9","","10.4","","69","","32","","8","","16.1","","100.57","","","","","","NA"
"2014-07-31 06:00","2014","07","31","06:00","15.0","","11.9","","81","","22","","8","","16.1","","100.61","","","","","","NA"
"2014-07-31 07:00","2014","07","31","07:00","15.6","","11.7","","78","","22","","5","","16.1","","100.64","","","","","","NA"
"2014-07-31 08:00","2014","07","31","08:00","16.3","","12.8","","80","","23","","9","","16.1","","100.66","","","","","","NA"
"2014-07-31 09:00","2014","07","31","09:00","16.9","","11.4","","70","","24","","5","","16.1","","100.64","","","","","","NA"
"2014-07-31 10:00","2014","07","31","10:00","17.5","","11.3","","67","","23","","8","","16.1","","100.66","","","","","","NA"
"2014-07-31 11:00","2014","07","31","11:00","18.5","","12.4","","67","","18","","8","","16.1","","100.66","","","","","","NA"
"2014-07-31 12:00","2014","07","31","12:00","20.0","","13.4","","65","","13","","8","","16.1","","100.66","","","","","","NA"
"2014-07-31 13:00","2014","07","31","13:00","21.1","","14.6","","66","","19","","11","","16.1","","100.65","","25","","","","NA"
"2014-07-31 14:00","2014","07","31","14:00","19.9","","14.8","","72","","19","","5","","16.1","","100.66","","","","","","NA"
"2014-07-31 15:00","2014","07","31","15:00","21.2","","15.9","","71","","20","","8","","16.1","","100.64","","26","","","","NA"
"2014-07-31 16:00","2014","07","31","16:00","22.4","","15.2","","63","","19","","13","","16.1","","100.63","","26","","","","NA"
"2014-07-31 17:00","2014","07","31","17:00","22.3","","13.9","","58","","24","","17","","16.1","","100.66","","26","","","","NA"
"2014-07-31 18:00","2014","07","31","18:00","20.3","","15.8","","75","","17","","18","","16.1","","100.67","","25","","","","NA"
"2014-07-31 19:00","2014","07","31","19:00","19.2","","15.9","","81","","20","","17","","16.1","","100.70","","","","","","NA"
"2014-07-31 20:00","2014","07","31","20:00","18.9","","15.6","","81","","20","","22","","16.1","","100.75","","","","","","NA"
"2014-07-31 21:00","2014","07","31","21:00","18.5","","15.4","","82","","22","","18","","16.1","","100.81","","","","","","NA"
"2014-07-31 22:00","2014","07","31","22:00","17.5","","15.0","","85","","26","","8","","16.1","","100.81","","","","","","NA"
"2014-07-31 23:00","2014","07","31","23:00","17.2","","14.7","","85","","24","","8","","16.1","","100.81","","","","","","NA"
