"Station Name","TORONTO CITY CENTRE"
"Province","ONTARIO"
"Latitude","43.63"
"Longitude","-79.40"
"Elevation","76.80"
"Climate Identifier","6158359"
"WMO Identifier","71265"
"TC Identifier","YTZ"
"All times are specified in Local Standard Time (LST). Add 1 hour to adjust for Daylight Saving Time where and when it is observed."

"Legend"
"E","Estimated"
"M","Missing"
"NA","Not Available"

"Date/Time","Year","Month","Day","Time","Temp (°C)","Temp Flag","Dew Point Temp (°C)","Dew Point Temp Flag","Rel Hum (%)","Rel Hum Flag","Wind Dir (10s deg)","Wind Dir Flag","Wind Spd (km/h)","Wind Spd Flag","Visibility (km)","Visibility Flag","Stn Press (kPa)","Stn Press Flag","Hmdx","Hmdx Flag","Wind Chill","Wind Chill Flag","Weather"
"2014-08-01 00:00","2014","08","01","00:00","17.8","","14.7","","82","","","M","4","","16.1","","100.82","","","","","","NA"
"2014-08-01 01:00","2014","08","01","01:00","17.5","","15.0","","85","","23","","4","","16.1","","100.82","","","","","","NA"
"2014-08-01 02:00","2014","08","01","02:00","17.6","","14.5","","82","","18","","4","","16.1","","100.80","","","","","","NA"
"2014-08-01 03:00","2014","08","01","03:00","17.4","","15.4","","88","","22","","5","","16.1","","100.81","","","","","","NA"
"2014-08-01 04:00","2014","08","01","04:00","16.9","","14.8","","87","","26","","5","","16.1","","100.84","","","","","","NA"
"2014-08-01 05:00","2014","08","01","05:00","16.1","","14.7","","91","","17","","8","","16.1","","100.85","","","","","","NA"
"2014-08-01 06:00","2014","08","01","06:00","16.5","","15.1","","91","","","","0","","16.1","","100.93","","","","","","NA"
"2014-08-01 07:00","2014","08","01","07:00","18.4","","15.5","","83","","23","","4","","16.1","","100.98","","","","","","NA"
"2014-08-01 08:00","2014","08","01","08:00","18.9","","15.3","","79","","21","","5","","16.1","","101.01","","","","","","NA"
"2014-08-01 09:00","2014","08","01","09:00","19.9","","15.5","","76","","25","","5","","16.1","","101.00","","","","","","NA"
"2014-08-01 10:00","2014","08","01","10:00","20.8","","16.7","","77","","20","","9","","16.1","","101.01","","26","","","","NA"
"2014-08-01 11:00","2014","08","01","11:00","21.8","","17.3","","75","","19","","11","","16.1","","101.01","","27","","","","NA"
"2014-08-01 12:00","2014","08","01","12:00","23.4","","17.7","","70","","17","","11","","16.1","","101.00","","29","","","","NA"
"2014-08-01 13:00","2014","08","01","13:00","25.1","","17.8","","64","","17","","18","","16.1","","100.95","","31","","","","NA"
"2014-08-01 14:00","2014","08","01","14:00","25.7","","17.6","","60","","16","","21","","16.1","","100.92","","31","","","","NA"
"2014-08-01 15:00","2014","08","01","15:00","26.1","","17.1","","57","","17","","21","","16.1","","100.87","","31","","","","NA"
"2014-08-01 16:00","2014","08","01","16:00","25.3","","17.8","","63","","17","","18","","16.1","","100.86","","31","","","","NA"
"2014-08-01 17:00","2014","08","01","17:00","21.4","","15.0","","66","","36","","15","","16.1","","101.02","","25","","","","Thunderstorms"
"2014-08-01 18:00","2014","08","01","18:00","20.6","","16.7","","78","","7","","9","","16.1","","101.00","","26","","","","NA"
"2014-08-01 19:00","2014","08","01","19:00","20.1","","16.2","","78","","7","","13","","16.1","","101.01","","25","","","","NA"
"2014-08-01 20:00","2014","08","01","20:00","19.3","","15.4","","78","","11","","5","","16.1","","101.02","","","","","","NA"
"2014-08-01 21:00","2014","08","01","21:00","17.8","","15.5","","86","","13","","4","","16.1","","101.03","","","","","","NA"
"2014-08-01 22:00","2014","08","01","22:00","18.2","","15.9","","86","","28","","5","","16.1","","101.05","","","","","","NA"
"2014-08-01 23:00","2014","08","01","23:00","18.0","","16.0","","88","","28","","5","","16.1","","101.04","","","","","","NA"
"2014-08-02 00:00","2014","08","02","00:00","19.2","","15.5","","79","","32","","5","","16.1","","101.06","","","","","","NA"
"2014-08-02 01:00","2014","08","02","01:00","17.7","","15.2","","85","","","","0","","16.1","","101.04","","","","","","NA"
"2014-08-02 02:00","2014","08","02","02:00","17.8","","16.2","","90","","9","","11","","9.7","","101.01","","","","","","Fog"
"2014-08-02 03:00","2014","08","02","03:00","17.2","","16.2","","94","","","","0","","6.4","","101.02","","","","","","Fog"
"2014-08-02 04:00","2014","08","02","04:00","16.3","","15.5","","95","","","M","4","","4.8","","101.04","","","","","","Fog"
"2014-08-02 05:00","2014","08","02","05:00","16.7","","16.1","","96","","34","","5","","3.6","","101.03","","","","","","Fog"
"2014-08-02 06:00","2014","08","02","06:00","17.2","","16.0","","92","","","M","4","","8.1","","101.05","","","","","","Fog"
"2014-08-02 07:00","2014","08","02","07:00","18.8","","16.4","","86","","","","0","","9.7","","101.08","","","","","","Fog"
"2014-08-02 08:00","2014","08","02","08:00","20.3","","15.9","","76","","7","","9","","8.1","","101.12","","25","","","","Haze"
"2014-08-02 09:00","2014","08","02","09:00","20.9","","16.1","","74","","9","","11","","16.1","","101.13","","26","","","","NA"
"2014-08-02 10:00","2014","08","02","10:00","20.7","","17.3","","81","","7","","11","","12.9","","101.13","","26","","","","NA"
"2014-08-02 11:00","2014","08","02","11:00","21.4","","17.9","","80","","6","","9","","12.9","","101.16","","27","","","","NA"
"2014-08-02 12:00","2014","08","02","12:00","21.6","","18.1","","80","","7","","11","","11.3","","101.13","","28","","","","NA"
"2014-08-02 13:00","2014","08","02","13:00","23.8","","17.7","","68","","12","","9","","16.1","","101.05","","30","","","","NA"
"2014-08-02 14:00","2014","08","02","14:00","23.2","","17.6","","70","","8","","9","","14.5","","100.99","","29","","","","NA"
"2014-08-02 15:00","2014","08","02","15:00","23.0","","16.8","","68","","6","","8","","16.1","","100.95","","28","","","","NA"
"2014-08-02 16:00","2014","08","02","16:00","23.0","","17.1","","69","","15","","8","","16.1","","100.94","","28","","","","NA"
"2014-08-02 17:00","2014","08","02","17:00","22.1","","17.5","","75","","","M","4","","16.1","","100.90","","28","","","","NA"
"2014-08-02 18:00","2014","08","02","18:00","21.8","","16.1","","70","","20","","4","","16.1","","100.92","","26","","","","NA"
"2014-08-02 19:00","2014","08","02","19:00","21.8","","16.6","","72","","","","0","","16.1","","100.91","","27","","","","NA"
"2014-08-02 20:00","2014","08","02","20:00","21.7","","15.2","","66","","","","0","","16.1","","100.93","","26","","","","NA"
"2014-08-02 21:00","2014","08","02","21:00","20.7","","15.5","","72","","31","","4","","16.1","","100.96","","25","","","","NA"
"2014-08-02 22:00","2014","08","02","22:00","19.9","","16.5","","81","","","","0","","14.5","","100.94","","","","","","NA"
"2014-08-02 23:00","2014","08","02","23:00","21.3","","15.9","","71","","31","","4","","16.1","","100.95","","26","","","","NA"
"2014-08-03 00:00","2014","08","03","00:00","19.5","","16.6","","83","","","","0","","16.1","","100.96","","","","","","NA"
"2014-08-03 01:00","2014","08","03","01:00","19.4","","16.4","","82","","12","","4","","16.1","","100.94","","","","","","NA"
"2014-08-03 02:00","2014","08","03","02:00","19.7","","16.4","","81","","","M","4","","12.9","","100.92","","","","","","NA"
"2014-08-03 03:00","2014","08","03","03:00","19.4","","16.5","","83","","30","","4","","16.1","","100.91","","","","","","NA"
"2014-08-03 04:00","2014","08","03","04:00","20.4","","16.2","","76","","31","","4","","16.1","","100.89","","25","","","","NA"
"2014-08-03 05:00","2014","08","03","05:00","20.4","","15.9","","75","","31","","5","","16.1","","100.93","","25","","","","NA"
"2014-08-03 06:00","2014","08","03","06:00","19.3","","16.4","","83","","26","","4","","16.1","","100.96","","","","","","NA"
"2014-08-03 07:00","2014","08","03","07:00","19.3","","16.7","","85","","","","0","","16.1","","101.02","","","","","","NA"
"2014-08-03 08:00","2014","08","03","08:00","20.2","","17.0","","82","","","M","4","","16.1","","101.04","","25","","","","NA"
"2014-08-03 09:00","2014","08","03","09:00","21.9","","16.5","","71","","28","","5","","16.1","","101.01","","27","","","","NA"
"2014-08-03 10:00","2014","08","03","10:00","22.5","","16.8","","70","","21","","9","","16.1","","101.01","","28","","","","NA"
"2014-08-03 11:00","2014","08","03","11:00","22.3","","16.9","","71","","20","","8","","16.1","","100.97","","28","","","","NA"
"2014-08-03 12:00","2014","08","03","12:00","22.5","","16.5","","68","","17","","8","","16.1","","100.97","","27","","","","NA"
"2014-08-03 13:00","2014","08","03","13:00","22.4","","16.8","","70","","15","","8","","16.1","","100.97","","28","","","","NA"
"2014-08-03 14:00","2014","08","03","14:00","22.6","","17.0","","70","","13","","8","","16.1","","100.91","","28","","","","NA"
"2014-08-03 15:00","2014","08","03","15:00","21.6","","17.3","","76","","13","","9","","16.1","","100.89","","27","","","","NA"
"2014-08-03 16:00","2014","08","03","16:00","22.0","","18.0","","78","","","M","4","","16.1","","100.85","","28","","","","NA"
"2014-08-03 17:00","2014","08","03","17:00","22.1","","18.4","","79","","12","","11","","16.1","","100.85","","28","","","","NA"
"2014-08-03 18:00","2014","08","03","18:00","22.4","","18.6","","79","","","","0","","16.1","","100.82","","29","","","","NA"
"2014-08-03 19:00","2014","08","03","19:00","21.3","","18.5","","84","","","","0","","16.1","","100.84","","28","","","","NA"
"2014-08-03 20:00","2014","08","03","20:00","19.9","","18.3","","90","","9","","5","","16.1","","100.86","","","","","","NA"
"2014-08-03 21:00","2014","08","03","21:00","20.1","","18.8","","92","","7","","11","","8.1","","100.92","","27","","","","Fog"
"2014-08-03 22:00","2014","08","03","22:00","20.5","","18.5","","88","","13","","8","","16.1","","100.89","","27","","","","NA"
"2014-08-03 23:00","2014","08","03","23:00","20.3","","17.9","","86","","14","","8","","16.1","","100.88","","26","","","","NA"
"2014-08-04 00:00","2014","08","04","00:00","19.3","","18.2","","93","","28","","5","","16.1","","100.88","","","","","","NA"
"2014-08-04 01:00","2014","08","04","01:00","19.7","","18.6","","93","","","M","4","","16.1","","100.85","","","","","","NA"
"2014-08-04 02:00","2014","08","04","02:00","19.5","","18.4","","93","","19","","5","","14.5","","100.84","","","","","","NA"
"2014-08-04 03:00","2014","08","04","03:00","19.1","","18.1","","94","","26","","4","","9.7","","100.83","","","","","","Fog"
"2014-08-04 04:00","2014","08","04","04:00","18.6","","18.0","","96","","","","0","","6.4","","100.80","","","","","","Fog"
"2014-08-04 05:00","2014","08","04","05:00","18.4","","17.8","","96","","25","","5","","4.0","","100.85","","","","","","Fog"
"2014-08-04 06:00","2014","08","04","06:00","18.5","","18.0","","97","","27","","5","","2.8","","100.87","","","","","","Fog"
"2014-08-04 07:00","2014","08","04","07:00","19.1","","18.1","","94","","23","","5","","4.8","","100.89","","","","","","Fog"
"2014-08-04 08:00","2014","08","04","08:00","19.8","","18.1","","90","","20","","13","","9.7","","100.87","","","","","","Fog"
"2014-08-04 09:00","2014","08","04","09:00","20.4","","18.4","","88","","23","","13","","11.3","","100.89","","27","","","","NA"
"2014-08-04 10:00","2014","08","04","10:00","21.1","","18.1","","83","","21","","11","","14.5","","100.89","","27","","","","NA"
"2014-08-04 11:00","2014","08","04","11:00","22.3","","18.0","","76","","21","","8","","16.1","","100.85","","28","","","","NA"
"2014-08-04 12:00","2014","08","04","12:00","23.1","","18.3","","74","","17","","9","","16.1","","100.81","","29","","","","NA"
"2014-08-04 13:00","2014","08","04","13:00","22.6","","18.7","","78","","8","","11","","16.1","","100.76","","29","","","","Thunderstorms"
"2014-08-04 14:00","2014","08","04","14:00","21.9","","19.0","","83","","18","","8","","16.1","","100.70","","29","","","","Thunderstorms"
"2014-08-04 15:00","2014","08","04","15:00","22.1","","17.2","","74","","32","","9","","16.1","","100.74","","28","","","","Thunderstorms"
"2014-08-04 16:00","2014","08","04","16:00","20.4","","16.4","","78","","5","","26","","16.1","","100.79","","25","","","","NA"
"2014-08-04 17:00","2014","08","04","17:00","19.2","","16.4","","84","","15","","13","","16.1","","100.85","","","","","","NA"
"2014-08-04 18:00","2014","08","04","18:00","19.2","","17.3","","89","","23","","11","","16.1","","100.87","","","","","","NA"
"2014-08-04 19:00","2014","08","04","19:00","18.7","","16.9","","89","","22","","15","","16.1","","100.81","","","","","","NA"
"2014-08-04 20:00","2014","08","04","20:00","18.5","","16.3","","87","","27","","11","","16.1","","100.79","","","","","","NA"
"2014-08-04 21:00","2014","08","04","21:00","20.1","","16.8","","81","","31","","11","","16.1","","100.79","","25","","","","NA"
"2014-08-04 22:00","2014","08","04","22:00","20.2","","16.7","","80","","31","","11","","16.1","","100.76","","25","","","","NA"
"2014-08-04 23:00","2014","08","04","23:00","20.0","","16.9","","82","","32","","11","","16.1","","100.77","","25","","","","NA"
"2014-08-05 00:00","2014","08","05","00:00","19.4","","16.7","","84","","30","","8","","16.1","","100.74","","","","","","NA"
"2014-08-05 01:00","2014","08","05","01:00","18.5","","17.0","","91","","22","","8","","16.1","","100.72","","","","","","NA"
"2014-08-05 02:00","2014","08","05","02:00","18.2","","16.8","","91","","26","","8","","16.1","","100.71","","","","","","NA"
"2014-08-05 03:00","2014","08","05","03:00","18.0","","16.9","","93","","28","","5","","11.3","","100.73","","","","","","NA"
"2014-08-05 04:00","2014","08","05","04:00","18.5","","15.7","","84","","32","","5","","16.1","","100.74","","","","","","NA"
"2014-08-05 05:00","2014","08","05","05:00","18.0","","16.0","","88","","","","0","","16.1","","100.79","","","","","","NA"
"2014-08-05 06:00","2014","08","05","06:00","18.9","","15.1","","78","","","M","9","","16.1","","100.82","","","","","","NA"
"2014-08-05 07:00","2014","08","05","07:00","19.3","","15.2","","77","","33","","11","","16.1","","100.85","","","","","","NA"
"2014-08-05 08:00","2014","08","05","08:00","19.2","","16.0","","81","","25","","5","","16.1","","100.84","","","","","","NA"
"2014-08-05 09:00","2014","08","05","09:00","19.7","","16.4","","81","","24","","8","","16.1","","100.83","","","","","","NA"
"2014-08-05 10:00","2014","08","05","10:00","20.9","","17.2","","79","","18","","9","","16.1","","100.86","","26","","","","NA"
"2014-08-05 11:00","2014","08","05","11:00","21.5","","16.2","","71","","29","","15","","16.1","","100.91","","26","","","","Rain"
"2014-08-05 12:00","2014","08","05","12:00","21.6","","16.0","","70","","32","","5","","16.1","","100.79","","26","","","","NA"
"2014-08-05 13:00","2014","08","05","13:00","20.7","","16.5","","76","","25","","9","","16.1","","100.79","","26","","","","Rain"
"2014-08-05 14:00","2014","08","05","14:00","20.4","","17.7","","84","","22","","13","","16.1","","100.72","","26","","","","NA"
"2014-08-05 15:00","2014","08","05","15:00","21.9","","17.2","","74","","18","","8","","16.1","","100.68","","27","","","","NA"
"2014-08-05 16:00","2014","08","05","16:00","22.2","","16.3","","69","","15","","9","","16.1","","100.66","","27","","","","NA"
"2014-08-05 17:00","2014","08","05","17:00","20.8","","17.7","","82","","21","","9","","16.1","","100.66","","27","","","","NA"
"2014-08-05 18:00","2014","08","05","18:00","20.5","","18.3","","87","","19","","8","","16.1","","100.66","","27","","","","NA"
"2014-08-05 19:00","2014","08","05","19:00","19.5","","16.7","","84","","28","","8","","16.1","","100.66","","","","","","NA"
"2014-08-05 20:00","2014","08","05","20:00","19.9","","15.0","","73","","28","","5","","16.1","","100.67","","","","","","NA"
"2014-08-05 21:00","2014","08","05","21:00","19.2","","15.4","","78","","22","","5","","16.1","","100.68","","","","","","NA"
"2014-08-05 22:00","2014","08","05","22:00","17.8","","15.8","","88","","","","0","","16.1","","100.68","","","","","","NA"
"2014-08-05 23:00","2014","08","05","23:00","18.1","","15.6","","85","","21","","4","","16.1","","100.65","","","","","","NA"
"2014-08-06 00:00","2014","08","06","00:00","17.9","","15.4","","85","","31","","5","","16.1","","100.60","","","","","","NA"
"2014-08-06 01:00","2014","08","06","01:00","19.2","","15.3","","78","","32","","9","","16.1","","100.61","","","","","","NA"
"2014-08-06 02:00","2014","08","06","02:00","18.5","","15.4","","82","","32","","9","","16.1","","100.59","","","","","","NA"
"2014-08-06 03:00","2014","08","06","03:00","17.4","","15.6","","89","","30","","9","","16.1","","100.59","","","","","","NA"
"2014-08-06 04:00","2014","08","06","04:00","17.3","","15.3","","88","","31","","8","","16.1","","100.59","","","","","","NA"
"2014-08-06 05:00","2014","08","06","05:00","17.5","","15.0","","85","","34","","8","","16.1","","100.60","","","","","","NA"
"2014-08-06 06:00","2014","08","06","06:00","17.8","","15.1","","84","","34","","8","","16.1","","100.63","","","","","","NA"
"2014-08-06 07:00","2014","08","06","07:00","19.5","","15.4","","77","","35","","11","","16.1","","100.66","","","","","","NA"
"2014-08-06 08:00","2014","08","06","08:00","20.8","","15.4","","71","","8","","8","","16.1","","100.66","","25","","","","NA"
"2014-08-06 09:00","2014","08","06","09:00","21.3","","16.0","","71","","21","","8","","16.1","","100.66","","26","","","","NA"
"2014-08-06 10:00","2014","08","06","10:00","22.1","","16.5","","70","","19","","15","","16.1","","100.68","","27","","","","NA"
"2014-08-06 11:00","2014","08","06","11:00","21.8","","17.1","","74","","17","","17","","16.1","","100.68","","27","","","","NA"
"2014-08-06 12:00","2014","08","06","12:00","21.6","","17.2","","76","","17","","15","","16.1","","100.66","","27","","","","NA"
"2014-08-06 13:00","2014","08","06","13:00","21.8","","17.8","","78","","19","","17","","16.1","","100.63","","28","","","","NA"
"2014-08-06 14:00","2014","08","06","14:00","21.7","","17.1","","75","","17","","9","","16.1","","100.60","","27","","","","NA"
"2014-08-06 15:00","2014","08","06","15:00","21.6","","17.7","","78","","22","","9","","16.1","","100.54","","27","","","","NA"
"2014-08-06 16:00","2014","08","06","16:00","21.1","","17.8","","81","","24","","8","","16.1","","100.56","","27","","","","NA"
"2014-08-06 17:00","2014","08","06","17:00","20.8","","16.4","","75","","25","","8","","16.1","","100.59","","26","","","","NA"
"2014-08-06 18:00","2014","08","06","18:00","21.2","","16.5","","74","","21","","11","","16.1","","100.58","","26","","","","NA"
"2014-08-06 19:00","2014","08","06","19:00","21.0","","13.3","","61","","26","","5","","16.1","","100.58","","","","","","NA"
"2014-08-06 20:00","2014","08","06","20:00","20.3","","12.8","","62","","","M","4","","16.1","","100.59","","","","","","NA"
"2014-08-06 21:00","2014","08","06","21:00","20.3","","13.7","","65","","28","","5","","16.1","","100.62","","","","","","NA"
"2014-08-06 22:00","2014","08","06","22:00","21.0","","12.8","","59","","32","","8","","16.1","","100.67","","","","","","NA"
"2014-08-06 23:00","2014","08","06","23:00","20.3","","12.9","","62","","30","","8","","16.1","","100.69","","","","","","NA"
"2014-08-07 00:00","2014","08","07","00:00","19.7","","13.3","","66","","31","","8","","16.1","","100.70","","","","","","NA"
"2014-08-07 01:00","2014","08","07","01:00","19.0","","14.2","","73","","31","","8","","16.1","","100.69","","","","","","NA"
"2014-08-07 02:00","2014","08","07","02:00","18.9","","13.1","","69","","30","","9","","16.1","","100.70","","","","","","NA"
"2014-08-07 03:00","2014","08","07","03:00","18.3","","12.8","","70","","29","","5","","16.1","","100.71","","","","","","NA"
"2014-08-07 04:00","2014","08","07","04:00","18.4","","12.6","","69","","32","","8","","16.1","","100.73","","","","","","NA"
"2014-08-07 05:00","2014","08","07","05:00","18.1","","12.8","","71","","33","","11","","16.1","","100.75","","","","","","NA"
"2014-08-07 06:00","2014","08","07","06:00","18.5","","13.5","","72","","34","","17","","16.1","","100.81","","","","","","NA"
"2014-08-07 07:00","2014","08","07","07:00","19.5","","14.5","","72","","31","","13","","16.1","","100.85","","","","","","NA"
"2014-08-07 08:00","2014","08","07","08:00","21.0","","15.3","","69","","35","","9","","16.1","","100.88","","25","","","","NA"
"2014-08-07 09:00","2014","08","07","09:00","22.3","","15.0","","63","","35","","8","","16.1","","100.88","","26","","","","NA"
"2014-08-07 10:00","2014","08","07","10:00","23.1","","13.2","","53","","1","","15","","16.1","","100.90","","26","","","","NA"
"2014-08-07 11:00","2014","08","07","11:00","23.9","","10.7","","43","","35","","21","","16.1","","100.91","","26","","","","NA"
"2014-08-07 12:00","2014","08","07","12:00","24.5","","9.9","","39","","2","","15","","16.1","","100.89","","26","","","","NA"
"2014-08-07 13:00","2014","08","07","13:00","24.7","","11.0","","42","","32","","8","","16.1","","100.87","","26","","","","NA"
"2014-08-07 14:00","2014","08","07","14:00","24.9","","8.4","","35","","33","","9","","16.1","","100.86","","25","","","","NA"
"2014-08-07 15:00","2014","08","07","15:00","24.3","","9.0","","37","","35","","9","","16.1","","100.83","","25","","","","NA"
"2014-08-07 16:00","2014","08","07","16:00","24.5","","10.1","","40","","33","","15","","16.1","","100.81","","26","","","","NA"
"2014-08-07 17:00","2014","08","07","17:00","24.4","","10.6","","41","","31","","11","","16.1","","100.82","","26","","","","NA"
"2014-08-07 18:00","2014","08","07","18:00","23.6","","8.8","","38","","36","","13","","16.1","","100.86","","","","","","NA"
"2014-08-07 19:00","2014","08","07","19:00","22.5","","12.0","","51","","34","","13","","16.1","","100.90","","25","","","","NA"
"2014-08-07 20:00","2014","08","07","20:00","21.2","","11.7","","54","","33","","18","","16.1","","100.94","","","","","","NA"
"2014-08-07 21:00","2014","08","07","21:00","20.3","","10.9","","54","","34","","15","","16.1","","100.98","","","","","","NA"
"2014-08-07 22:00","2014","08","07","22:00","19.7","","11.6","","59","","34","","13","","16.1","","100.99","","","","","","NA"
"2014-08-07 23:00","2014","08","07","23:00","19.0","","12.8","","67","","34","","15","","16.1","","100.99","","","","","","NA"
"2014-08-08 00:00","2014","08","08","00:00","18.7","","13.4","","71","","34","","17","","16.1","","101.01","","","","","","NA"
"2014-08-08 01:00","2014","08","08","01:00","19.0","","13.4","","70","","34","","15","","16.1","","101.00","","","","","","NA"
"2014-08-08 02:00","2014","08","08","02:00","19.1","","12.7","","66","","35","","13","","16.1","","101.02","","","","","","NA"
"2014-08-08 03:00","2014","08","08","03:00","17.9","","12.9","","72","","31","","11","","16.1","","101.05","","","","","","NA"
"2014-08-08 04:00","2014","08","08","04:00","18.2","","12.5","","69","","33","","8","","16.1","","101.10","","","","","","NA"
"2014-08-08 05:00","2014","08","08","05:00","16.5","","12.5","","77","","32","","5","","16.1","","101.15","","","","","","NA"
"2014-08-08 06:00","2014","08","08","06:00","16.9","","12.5","","75","","34","","8","","16.1","","101.20","","","","","","NA"
"2014-08-08 07:00","2014","08","08","07:00","18.2","","13.2","","72","","","M","4","","16.1","","101.23","","","","","","NA"
"2014-08-08 08:00","2014","08","08","08:00","19.4","","13.7","","69","","","M","4","","16.1","","101.26","","","","","","NA"
"2014-08-08 09:00","2014","08","08","09:00","21.2","","13.3","","60","","10","","9","","16.1","","101.24","","","","","","NA"
"2014-08-08 10:00","2014","08","08","10:00","21.9","","13.9","","60","","20","","8","","16.1","","101.25","","25","","","","NA"
"2014-08-08 11:00","2014","08","08","11:00","22.4","","12.4","","53","","17","","13","","16.1","","101.23","","25","","","","NA"
"2014-08-08 12:00","2014","08","08","12:00","21.9","","13.8","","60","","17","","11","","16.1","","101.20","","25","","","","NA"
"2014-08-08 13:00","2014","08","08","13:00","21.6","","15.7","","69","","18","","11","","16.1","","101.16","","26","","","","NA"
"2014-08-08 14:00","2014","08","08","14:00","22.6","","14.4","","60","","18","","13","","16.1","","101.12","","26","","","","NA"
"2014-08-08 15:00","2014","08","08","15:00","23.6","","11.7","","47","","16","","11","","16.1","","101.08","","26","","","","NA"
"2014-08-08 16:00","2014","08","08","16:00","23.4","","13.9","","55","","16","","9","","16.1","","101.07","","27","","","","NA"
"2014-08-08 17:00","2014","08","08","17:00","22.2","","15.3","","65","","19","","5","","16.1","","101.08","","26","","","","NA"
"2014-08-08 18:00","2014","08","08","18:00","21.2","","16.4","","74","","25","","5","","16.1","","101.06","","26","","","","NA"
"2014-08-08 19:00","2014","08","08","19:00","20.7","","15.3","","71","","26","","8","","16.1","","101.05","","25","","","","NA"
"2014-08-08 20:00","2014","08","08","20:00","20.5","","14.0","","66","","27","","5","","16.1","","101.08","","","","","","NA"
"2014-08-08 21:00","2014","08","08","21:00","19.9","","13.7","","67","","28","","4","","16.1","","101.12","","","","","","NA"
"2014-08-08 22:00","2014","08","08","22:00","18.4","","13.8","","74","","25","","4","","16.1","","101.12","","","","","","NA"
"2014-08-08 23:00","2014","08","08","23:00","18.1","","13.4","","74","","","M","4","","16.1","","101.12","","","","","","NA"
"2014-08-09 00:00","2014","08","09","00:00","17.4","","13.2","","76","","","","0","","16.1","","101.12","","","","","","NA"
"2014-08-09 01:00","2014","08","09","01:00","17.5","","13.5","","77","","31","","4","","16.1","","101.12","","","","","","NA"
"2014-08-09 02:00","2014","08","09","02:00","18.9","","13.4","","70","","34","","5","","16.1","","101.12","","","","","","NA"
"2014-08-09 03:00","2014","08","09","03:00","16.0","","13.3","","84","","","","0","","16.1","","101.13","","","","","","NA"
"2014-08-09 04:00","2014","08","09","04:00","17.8","","14.1","","79","","","M","4","","16.1","","101.16","","","","","","NA"
"2014-08-09 05:00","2014","08","09","05:00","16.5","","13.6","","83","","","M","4","","16.1","","101.19","","","","","","NA"
"2014-08-09 06:00","2014","08","09","06:00","16.6","","13.3","","81","","","","0","","16.1","","101.21","","","","","","NA"
"2014-08-09 07:00","2014","08","09","07:00","18.0","","14.2","","78","","","","0","","16.1","","101.22","","","","","","NA"
"2014-08-09 08:00","2014","08","09","08:00","20.5","","14.6","","69","","8","","8","","16.1","","101.21","","","","","","NA"
"2014-08-09 09:00","2014","08","09","09:00","20.8","","15.8","","73","","22","","5","","16.1","","101.22","","25","","","","NA"
"2014-08-09 10:00","2014","08","09","10:00","21.6","","16.1","","70","","19","","11","","16.1","","101.25","","26","","","","NA"
"2014-08-09 11:00","2014","08","09","11:00","22.6","","16.5","","68","","20","","9","","16.1","","101.24","","28","","","","NA"
"2014-08-09 12:00","2014","08","09","12:00","23.4","","15.5","","61","","13","","11","","16.1","","101.23","","28","","","","NA"
"2014-08-09 13:00","2014","08","09","13:00","23.4","","15.6","","61","","12","","11","","16.1","","101.20","","28","","","","NA"
"2014-08-09 14:00","2014","08","09","14:00","23.8","","15.7","","60","","12","","9","","8.1","","101.18","","28","","","","Haze"
"2014-08-09 15:00","2014","08","09","15:00","24.4","","14.7","","54","","12","","9","","12.9","","101.14","","28","","","","NA"
"2014-08-09 16:00","2014","08","09","16:00","24.3","","14.4","","54","","10","","9","","16.1","","101.13","","28","","","","NA"
"2014-08-09 17:00","2014","08","09","17:00","24.1","","15.5","","58","","8","","9","","16.1","","101.10","","28","","","","NA"
"2014-08-09 18:00","2014","08","09","18:00","23.5","","15.5","","60","","7","","9","","16.1","","101.08","","28","","","","NA"
"2014-08-09 19:00","2014","08","09","19:00","22.5","","16.2","","67","","7","","8","","16.1","","101.07","","27","","","","NA"
"2014-08-09 20:00","2014","08","09","20:00","21.6","","16.2","","71","","7","","9","","16.1","","101.08","","26","","","","NA"
"2014-08-09 21:00","2014","08","09","21:00","21.4","","14.7","","65","","7","","8","","16.1","","101.11","","25","","","","NA"
"2014-08-09 22:00","2014","08","09","22:00","21.3","","14.1","","63","","7","","9","","16.1","","101.10","","25","","","","NA"
"2014-08-09 23:00","2014","08","09","23:00","20.9","","13.7","","63","","7","","8","","16.1","","101.13","","","","","","NA"
"2014-08-10 00:00","2014","08","10","00:00","18.2","","14.2","","77","","","","0","","16.1","","101.17","","","","","","NA"
"2014-08-10 01:00","2014","08","10","01:00","17.7","","13.5","","76","","7","","5","","16.1","","101.16","","","","","","NA"
"2014-08-10 02:00","2014","08","10","02:00","18.4","","14.7","","79","","7","","9","","16.1","","101.15","","","","","","NA"
"2014-08-10 03:00","2014","08","10","03:00","19.2","","14.3","","73","","7","","8","","16.1","","101.16","","","","","","NA"
"2014-08-10 04:00","2014","08","10","04:00","18.6","","13.5","","72","","","","0","","16.1","","101.13","","","","","","NA"
"2014-08-10 05:00","2014","08","10","05:00","18.7","","13.8","","73","","","","0","","16.1","","101.13","","","","","","NA"
"2014-08-10 06:00","2014","08","10","06:00","18.3","","13.0","","71","","29","","5","","16.1","","101.18","","","","","","NA"
"2014-08-10 07:00","2014","08","10","07:00","20.7","","14.6","","68","","6","","13","","16.1","","101.18","","","","","","NA"
"2014-08-10 08:00","2014","08","10","08:00","21.9","","15.1","","65","","8","","13","","16.1","","101.20","","26","","","","NA"
"2014-08-10 09:00","2014","08","10","09:00","22.9","","14.8","","60","","8","","13","","16.1","","101.19","","27","","","","NA"
"2014-08-10 10:00","2014","08","10","10:00","22.9","","15.3","","62","","7","","13","","16.1","","101.20","","27","","","","NA"
"2014-08-10 11:00","2014","08","10","11:00","23.2","","16.8","","67","","7","","15","","16.1","","101.19","","28","","","","NA"
"2014-08-10 12:00","2014","08","10","12:00","23.3","","17.1","","68","","8","","15","","16.1","","101.17","","29","","","","NA"
"2014-08-10 13:00","2014","08","10","13:00","23.7","","18.3","","71","","9","","17","","16.1","","101.13","","30","","","","NA"
"2014-08-10 14:00","2014","08","10","14:00","23.4","","17.7","","70","","7","","17","","16.1","","101.09","","29","","","","NA"
"2014-08-10 15:00","2014","08","10","15:00","23.5","","17.8","","70","","7","","17","","16.1","","101.07","","29","","","","NA"
"2014-08-10 16:00","2014","08","10","16:00","23.4","","17.7","","70","","8","","17","","16.1","","101.02","","29","","","","NA"
"2014-08-10 17:00","2014","08","10","17:00","22.8","","16.9","","69","","8","","18","","16.1","","100.97","","28","","","","NA"
"2014-08-10 18:00","2014","08","10","18:00","23.0","","17.9","","72","","7","","17","","16.1","","100.96","","29","","","","NA"
"2014-08-10 19:00","2014","08","10","19:00","22.0","","17.4","","75","","7","","18","","16.1","","100.91","","28","","","","NA"
"2014-08-10 20:00","2014","08","10","20:00","21.1","","17.6","","80","","6","","18","","16.1","","100.90","","27","","","","NA"
"2014-08-10 21:00","2014","08","10","21:00","21.0","","17.5","","80","","6","","17","","16.1","","100.89","","27","","","","NA"
"2014-08-10 22:00","2014","08","10","22:00","20.9","","17.4","","80","","6","","11","","16.1","","100.92","","26","","","","NA"
"2014-08-10 23:00","2014","08","10","23:00","21.0","","17.6","","81","","6","","15","","16.1","","100.91","","27","","","","NA"
"2014-08-11 00:00","2014","08","11","00:00","20.8","","17.7","","82","","6","","18","","16.1","","100.92","","27","","","","NA"
"2014-08-11 01:00","2014","08","11","01:00","20.8","","17.0","","79","","7","","18","","16.1","","100.87","","26","","","","NA"
"2014-08-11 02:00","2014","08","11","02:00","20.7","","16.8","","78","","6","","18","","16.1","","100.84","","26","","","","NA"
"2014-08-11 03:00","2014","08","11","03:00","20.3","","17.0","","81","","6","","21","","16.1","","100.81","","26","","","","NA"
"2014-08-11 04:00","2014","08","11","04:00","20.3","","17.0","","81","","6","","18","","16.1","","100.79","","26","","","","NA"
"2014-08-11 05:00","2014","08","11","05:00","20.1","","18.1","","88","","7","","15","","16.1","","100.77","","26","","","","NA"
"2014-08-11 06:00","2014","08","11","06:00","20.6","","18.8","","89","","7","","15","","16.1","","100.74","","27","","","","NA"
"2014-08-11 07:00","2014","08","11","07:00","21.0","","18.9","","88","","7","","21","","16.1","","100.74","","28","","","","NA"
"2014-08-11 08:00","2014","08","11","08:00","22.9","","19.3","","80","","6","","17","","16.1","","100.74","","30","","","","NA"
"2014-08-11 09:00","2014","08","11","09:00","22.9","","18.6","","76","","8","","13","","16.1","","100.74","","29","","","","NA"
"2014-08-11 10:00","2014","08","11","10:00","23.4","","18.6","","74","","9","","15","","16.1","","100.70","","30","","","","NA"
"2014-08-11 11:00","2014","08","11","11:00","23.8","","19.0","","74","","8","","15","","16.1","","100.68","","31","","","","NA"
"2014-08-11 12:00","2014","08","11","12:00","23.9","","19.2","","75","","8","","22","","16.1","","100.63","","31","","","","NA"
"2014-08-11 13:00","2014","08","11","13:00","24.1","","19.2","","74","","7","","24","","16.1","","100.58","","31","","","","NA"
"2014-08-11 14:00","2014","08","11","14:00","24.6","","19.8","","74","","7","","21","","16.1","","100.54","","32","","","","NA"
"2014-08-11 15:00","2014","08","11","15:00","24.6","","20.3","","77","","7","","22","","16.1","","100.47","","32","","","","NA"
"2014-08-11 16:00","2014","08","11","16:00","24.6","","20.5","","78","","7","","21","","16.1","","100.40","","33","","","","NA"
"2014-08-11 17:00","2014","08","11","17:00","24.0","","20.1","","78","","9","","11","","16.1","","100.39","","32","","","","NA"
"2014-08-11 18:00","2014","08","11","18:00","23.9","","17.5","","67","","19","","13","","16.1","","100.35","","30","","","","NA"
"2014-08-11 19:00","2014","08","11","19:00","21.7","","16.5","","72","","21","","28","","16.1","","100.32","","27","","","","Rain"
"2014-08-11 20:00","2014","08","11","20:00","23.0","","15.3","","62","","10","","5","","16.1","","100.25","","27","","","","NA"
"2014-08-11 21:00","2014","08","11","21:00","24.1","","16.4","","62","","11","","17","","16.1","","100.20","","29","","","","NA"
"2014-08-11 22:00","2014","08","11","22:00","23.8","","16.0","","61","","10","","17","","16.1","","100.12","","28","","","","NA"
"2014-08-11 23:00","2014","08","11","23:00","23.0","","16.6","","67","","11","","17","","16.1","","100.07","","28","","","","NA"
"2014-08-12 00:00","2014","08","12","00:00","19.4","","17.6","","89","","8","","8","","8.1","","100.06","","","","","","Rain,Fog"
"2014-08-12 01:00","2014","08","12","01:00","19.5","","18.0","","91","","11","","5","","2.4","","99.98","","","","","","Heavy Rain,Fog"
"2014-08-12 02:00","2014","08","12","02:00","20.0","","18.0","","88","","11","","11","","16.1","","99.83","","26","","","","NA"
"2014-08-12 03:00","2014","08","12","03:00","20.2","","18.2","","88","","14","","24","","14.5","","99.76","","26","","","","Rain"
"2014-08-12 04:00","2014","08","12","04:00","20.1","","18.6","","91","","15","","24","","16.1","","99.69","","27","","","","NA"
"2014-08-12 05:00","2014","08","12","05:00","20.3","","18.6","","90","","16","","30","","16.1","","99.64","","27","","","","NA"
"2014-08-12 06:00","2014","08","12","06:00","20.3","","19.2","","93","","17","","22","","16.1","","99.66","","27","","","","NA"
"2014-08-12 07:00","2014","08","12","07:00","21.2","","19.4","","89","","18","","24","","16.1","","99.68","","28","","","","NA"
"2014-08-12 08:00","2014","08","12","08:00","21.6","","19.4","","87","","18","","28","","16.1","","99.70","","29","","","","NA"
"2014-08-12 09:00","2014","08","12","09:00","22.8","","19.7","","82","","18","","24","","16.1","","99.71","","30","","","","NA"
"2014-08-12 10:00","2014","08","12","10:00","22.7","","19.6","","82","","17","","18","","16.1","","99.72","","30","","","","NA"
"2014-08-12 11:00","2014","08","12","11:00","24.0","","20.2","","79","","18","","17","","16.1","","99.71","","32","","","","NA"
"2014-08-12 12:00","2014","08","12","12:00","23.3","","19.9","","81","","18","","15","","16.1","","99.70","","31","","","","NA"
"2014-08-12 13:00","2014","08","12","13:00","24.5","","20.2","","77","","17","","13","","16.1","","99.68","","32","","","","NA"
"2014-08-12 14:00","2014","08","12","14:00","25.1","","19.6","","71","","16","","17","","16.1","","99.62","","32","","","","NA"
"2014-08-12 15:00","2014","08","12","15:00","24.2","","19.6","","75","","16","","17","","16.1","","99.58","","31","","","","NA"
"2014-08-12 16:00","2014","08","12","16:00","23.5","","19.7","","79","","16","","17","","16.1","","99.57","","31","","","","NA"
"2014-08-12 17:00","2014","08","12","17:00","23.3","","19.9","","81","","18","","13","","16.1","","99.62","","31","","","","NA"
"2014-08-12 18:00","2014","08","12","18:00","22.9","","19.5","","81","","17","","17","","16.1","","99.57","","30","","","","NA"
"2014-08-12 19:00","2014","08","12","19:00","21.6","","19.7","","89","","18","","22","","16.1","","99.57","","29","","","","NA"
"2014-08-12 20:00","2014","08","12","20:00","21.3","","19.6","","90","","19","","18","","16.1","","99.63","","29","","","","NA"
"2014-08-12 21:00","2014","08","12","21:00","21.0","","18.8","","87","","21","","24","","16.1","","99.65","","28","","","","NA"
"2014-08-12 22:00","2014","08","12","22:00","20.8","","18.6","","87","","22","","26","","16.1","","99.64","","27","","","","NA"
"2014-08-12 23:00","2014","08","12","23:00","20.7","","17.8","","83","","24","","24","","16.1","","99.63","","27","","","","NA"
"2014-08-13 00:00","2014","08","13","00:00","19.8","","16.0","","78","","29","","26","","16.1","","99.67","","","","","","NA"
"2014-08-13 01:00","2014","08","13","01:00","18.9","","15.1","","79","","29","","18","","16.1","","99.65","","","","","","NA"
"2014-08-13 02:00","2014","08","13","02:00","18.5","","14.8","","79","","27","","11","","16.1","","99.72","","","","","","NA"
"2014-08-13 03:00","2014","08","13","03:00","18.1","","14.5","","79","","25","","21","","16.1","","99.72","","","","","","NA"
"2014-08-13 04:00","2014","08","13","04:00","18.4","","15.1","","81","","24","","18","","16.1","","99.73","","","","","","NA"
"2014-08-13 05:00","2014","08","13","05:00","18.5","","15.0","","80","","24","","22","","16.1","","99.74","","","","","","NA"
"2014-08-13 06:00","2014","08","13","06:00","18.4","","14.7","","79","","25","","22","","16.1","","99.79","","","","","","NA"
"2014-08-13 07:00","2014","08","13","07:00","18.6","","14.3","","76","","26","","22","","16.1","","99.83","","","","","","NA"
"2014-08-13 08:00","2014","08","13","08:00","19.4","","14.3","","72","","26","","30","","16.1","","99.85","","","","","","NA"
"2014-08-13 09:00","2014","08","13","09:00","21.0","","14.9","","68","","23","","22","","16.1","","99.85","","25","","","","NA"
"2014-08-13 10:00","2014","08","13","10:00","21.8","","14.6","","63","","26","","32","","16.1","","99.87","","26","","","","NA"
"2014-08-13 11:00","2014","08","13","11:00","21.8","","13.4","","58","","27","","34","","16.1","","99.88","","25","","","","NA"
"2014-08-13 12:00","2014","08","13","12:00","22.3","","14.1","","59","","26","","34","","16.1","","99.88","","26","","","","NA"
"2014-08-13 13:00","2014","08","13","13:00","21.6","","13.2","","58","","27","","32","","16.1","","99.91","","25","","","","NA"
"2014-08-13 14:00","2014","08","13","14:00","21.2","","13.6","","61","","26","","35","","16.1","","99.94","","","","","","NA"
"2014-08-13 15:00","2014","08","13","15:00","21.2","","12.9","","59","","27","","35","","16.1","","99.96","","","","","","NA"
"2014-08-13 16:00","2014","08","13","16:00","20.6","","11.4","","55","","30","","30","","16.1","","100.02","","","","","","NA"
"2014-08-13 17:00","2014","08","13","17:00","18.8","","11.8","","64","","31","","32","","16.1","","100.12","","","","","","NA"
"2014-08-13 18:00","2014","08","13","18:00","18.1","","10.7","","62","","30","","34","","16.1","","100.17","","","","","","NA"
"2014-08-13 19:00","2014","08","13","19:00","17.1","","8.5","","57","","33","","32","","16.1","","100.23","","","","","","NA"
"2014-08-13 20:00","2014","08","13","20:00","16.5","","9.1","","61","","29","","18","","16.1","","100.28","","","","","","NA"
"2014-08-13 21:00","2014","08","13","21:00","15.5","","10.3","","71","","25","","13","","16.1","","100.28","","","","","","NA"
"2014-08-13 22:00","2014","08","13","22:00","14.9","","11.5","","80","","24","","15","","16.1","","100.24","","","","","","NA"
"2014-08-13 23:00","2014","08","13","23:00","15.5","","10.7","","73","","28","","13","","16.1","","100.22","","","","","","NA"
"2014-08-14 00:00","2014","08","14","00:00","15.3","","10.8","","74","","29","","17","","16.1","","100.24","","","","","","NA"
"2014-08-14 01:00","2014","08","14","01:00","15.1","","11.0","","76","","32","","11","","16.1","","100.24","","","","","","NA"
"2014-08-14 02:00","2014","08","14","02:00","14.4","","9.9","","74","","31","","9","","16.1","","100.24","","","","","","NA"
"2014-08-14 03:00","2014","08","14","03:00","13.9","","9.8","","76","","32","","8","","16.1","","100.26","","","","","","NA"
"2014-08-14 04:00","2014","08","14","04:00","13.8","","9.9","","77","","30","","9","","16.1","","100.21","","","","","","NA"
"2014-08-14 05:00","2014","08","14","05:00","14.0","","9.9","","76","","29","","17","","16.1","","100.23","","","","","","NA"
"2014-08-14 06:00","2014","08","14","06:00","14.0","","9.7","","75","","28","","15","","16.1","","100.25","","","","","","NA"
"2014-08-14 07:00","2014","08","14","07:00","14.9","","10.8","","76","","26","","17","","16.1","","100.25","","","","","","NA"
"2014-08-14 08:00","2014","08","14","08:00","15.0","","9.1","","68","","28","","24","","16.1","","100.26","","","","","","NA"
"2014-08-14 09:00","2014","08","14","09:00","16.4","","8.4","","59","","29","","34","","16.1","","100.24","","","","","","NA"
"2014-08-14 10:00","2014","08","14","10:00","17.0","","8.2","","56","","28","","21","","16.1","","100.23","","","","","","NA"
"2014-08-14 11:00","2014","08","14","11:00","18.2","","7.3","","49","","29","","28","","16.1","","100.21","","","","","","NA"
"2014-08-14 12:00","2014","08","14","12:00","18.2","","6.3","","45","","29","","24","","16.1","","100.18","","","","","","NA"
"2014-08-14 13:00","2014","08","14","13:00","18.0","","6.1","","45","","29","","34","","16.1","","100.17","","","","","","NA"
"2014-08-14 14:00","2014","08","14","14:00","17.3","","6.5","","49","","28","","28","","16.1","","100.19","","","","","","NA"
"2014-08-14 15:00","2014","08","14","15:00","17.1","","6.2","","48","","29","","26","","16.1","","100.21","","","","","","NA"
"2014-08-14 16:00","2014","08","14","16:00","16.8","","6.4","","50","","30","","26","","16.1","","100.27","","","","","","NA"
"2014-08-14 17:00","2014","08","14","17:00","15.2","","8.4","","64","","29","","18","","16.1","","100.32","","","","","","NA"
"2014-08-14 18:00","2014","08","14","18:00","14.9","","7.5","","61","","30","","32","","16.1","","100.33","","","","","","NA"
"2014-08-14 19:00","2014","08","14","19:00","14.6","","7.9","","64","","28","","22","","16.1","","100.35","","","","","","NA"
"2014-08-14 20:00","2014","08","14","20:00","14.5","","8.2","","66","","28","","22","","16.1","","100.36","","","","","","NA"
"2014-08-14 21:00","2014","08","14","21:00","14.4","","8.1","","66","","27","","18","","16.1","","100.37","","","","","","NA"
"2014-08-14 22:00","2014","08","14","22:00","13.9","","8.6","","70","","28","","24","","16.1","","100.35","","","","","","NA"
"2014-08-14 23:00","2014","08","14","23:00","13.6","","8.3","","70","","28","","21","","16.1","","100.35","","","","","","NA"
"2014-08-15 00:00","2014","08","15","00:00","14.0","","8.7","","70","","29","","18","","16.1","","100.37","","","","","","NA"
"2014-08-15 01:00","2014","08","15","01:00","14.0","","8.9","","71","","30","","13","","16.1","","100.32","","","","","","NA"
"2014-08-15 02:00","2014","08","15","02:00","13.1","","9.7","","80","","25","","13","","16.1","","100.33","","","","","","NA"
"2014-08-15 03:00","2014","08","15","03:00","13.4","","9.3","","76","","26","","17","","16.1","","100.31","","","","","","NA"
"2014-08-15 04:00","2014","08","15","04:00","13.8","","9.2","","73","","26","","15","","16.1","","100.33","","","","","","NA"
"2014-08-15 05:00","2014","08","15","05:00","13.2","","9.7","","79","","26","","13","","16.1","","100.34","","","","","","NA"
"2014-08-15 06:00","2014","08","15","06:00","13.2","","10.4","","83","","23","","15","","16.1","","100.36","","","","","","NA"
"2014-08-15 07:00","2014","08","15","07:00","14.4","","9.6","","73","","27","","18","","16.1","","100.36","","","","","","NA"
"2014-08-15 08:00","2014","08","15","08:00","15.8","","10.4","","70","","27","","21","","16.1","","100.38","","","","","","NA"
"2014-08-15 09:00","2014","08","15","09:00","16.4","","10.8","","69","","25","","17","","16.1","","100.40","","","","","","NA"
"2014-08-15 10:00","2014","08","15","10:00","17.9","","10.7","","63","","24","","15","","16.1","","100.41","","","","","","NA"
"2014-08-15 11:00","2014","08","15","11:00","18.3","","11.2","","63","","24","","22","","16.1","","100.38","","","","","","NA"
"2014-08-15 12:00","2014","08","15","12:00","21.0","","9.2","","46","","28","","24","","16.1","","100.36","","","","","","NA"
"2014-08-15 13:00","2014","08","15","13:00","22.0","","8.0","","40","","26","","32","","16.1","","100.33","","","","","","NA"
"2014-08-15 14:00","2014","08","15","14:00","22.4","","7.1","","37","","26","","30","","16.1","","100.29","","","","","","NA"
"2014-08-15 15:00","2014","08","15","15:00","23.0","","7.7","","37","","26","","24","","16.1","","100.28","","","","","","NA"
"2014-08-15 16:00","2014","08","15","16:00","23.1","","6.8","","34","","26","","24","","16.1","","100.28","","","","","","NA"
"2014-08-15 17:00","2014","08","15","17:00","22.5","","6.2","","34","","27","","28","","16.1","","100.28","","","","","","NA"
"2014-08-15 18:00","2014","08","15","18:00","20.9","","6.9","","40","","27","","26","","16.1","","100.31","","","","","","NA"
"2014-08-15 19:00","2014","08","15","19:00","20.5","","6.6","","40","","28","","28","","16.1","","100.33","","","","","","NA"
"2014-08-15 20:00","2014","08","15","20:00","19.1","","7.9","","48","","27","","17","","16.1","","100.38","","","","","","NA"
"2014-08-15 21:00","2014","08","15","21:00","13.5","","8.0","","69","","25","","15","","16.1","","100.41","","","","","","NA"
"2014-08-15 22:00","2014","08","15","22:00","11.7","","8.5","","81","","23","","9","","16.1","","100.39","","","","","","NA"
"2014-08-15 23:00","2014","08","15","23:00","12.2","","8.5","","78","","25","","13","","16.1","","100.39","","","","","","NA"
"2014-08-16 00:00","2014","08","16","00:00","11.7","","9.1","","84","","23","","8","","16.1","","100.37","","","","","","NA"
"2014-08-16 01:00","2014","08","16","01:00","11.9","","9.1","","83","","23","","5","","16.1","","100.37","","","","","","NA"
"2014-08-16 02:00","2014","08","16","02:00","12.3","","9.2","","81","","20","","8","","16.1","","100.32","","","","","","NA"
"2014-08-16 03:00","2014","08","16","03:00","12.9","","9.3","","79","","25","","4","","16.1","","100.29","","","","","","NA"
"2014-08-16 04:00","2014","08","16","04:00","12.6","","10.0","","84","","23","","8","","16.1","","100.27","","","","","","NA"
"2014-08-16 05:00","2014","08","16","05:00","12.5","","9.7","","83","","24","","11","","16.1","","100.23","","","","","","NA"
"2014-08-16 06:00","2014","08","16","06:00","12.8","","10.4","","85","","26","","5","","16.1","","100.26","","","","","","NA"
"2014-08-16 07:00","2014","08","16","07:00","13.1","","11.4","","89","","24","","13","","16.1","","100.28","","","","","","NA"
"2014-08-16 08:00","2014","08","16","08:00","14.3","","11.9","","86","","22","","17","","16.1","","100.25","","","","","","NA"
"2014-08-16 09:00","2014","08","16","09:00","15.0","","12.1","","83","","22","","9","","16.1","","100.20","","","","","","NA"
"2014-08-16 10:00","2014","08","16","10:00","15.0","","11.2","","78","","22","","21","","16.1","","100.18","","","","","","NA"
"2014-08-16 11:00","2014","08","16","11:00","16.1","","11.0","","72","","22","","21","","16.1","","100.14","","","","","","NA"
"2014-08-16 12:00","2014","08","16","12:00","15.6","","11.6","","77","","23","","13","","16.1","","100.11","","","","","","NA"
"2014-08-16 13:00","2014","08","16","13:00","14.6","","11.8","","83","","20","","18","","16.1","","100.04","","","","","","Rain"
"2014-08-16 14:00","2014","08","16","14:00","13.8","","11.7","","87","","25","","13","","16.1","","100.01","","","","","","NA"
"2014-08-16 15:00","2014","08","16","15:00","13.5","","11.7","","89","","23","","17","","16.1","","99.97","","","","","","Rain"
"2014-08-16 16:00","2014","08","16","16:00","13.4","","11.8","","90","","25","","15","","16.1","","99.97","","","","","","Rain"
"2014-08-16 17:00","2014","08","16","17:00","14.0","","12.1","","88","","22","","24","","16.1","","99.97","","","","","","NA"
"2014-08-16 18:00","2014","08","16","18:00","13.1","","12.0","","93","","24","","11","","16.1","","99.98","","","","","","NA"
"2014-08-16 19:00","2014","08","16","19:00","13.0","","11.7","","92","","26","","11","","16.1","","100.02","","","","","","NA"
"2014-08-16 20:00","2014","08","16","20:00","13.2","","12.3","","94","","23","","11","","16.1","","100.04","","","","","","NA"
"2014-08-16 21:00","2014","08","16","21:00","15.4","","14.0","","91","","26","","15","","16.1","","100.08","","","","","","NA"
"2014-08-16 22:00","2014","08","16","22:00","17.0","","15.1","","88","","30","","8","","16.1","","100.08","","","","","","NA"
"2014-08-16 23:00","2014","08","16","23:00","17.8","","14.8","","82","","31","","9","","16.1","","100.08","","","","","","NA"
"2014-08-17 00:00","2014","08","17","00:00","17.4","","14.9","","85","","31","","8","","16.1","","100.14","","","","","","NA"
"2014-08-17 01:00","2014","08","17","01:00","17.3","","14.2","","82","","33","","9","","16.1","","100.19","","","","","","NA"
"2014-08-17 02:00","2014","08","17","02:00","17.3","","14.2","","82","","36","","5","","16.1","","100.25","","","","","","NA"
"2014-08-17 03:00","2014","08","17","03:00","16.7","","13.1","","79","","32","","8","","16.1","","100.32","","","","","","NA"
"2014-08-17 04:00","2014","08","17","04:00","16.0","","13.5","","85","","32","","11","","16.1","","100.35","","","","","","NA"
"2014-08-17 05:00","2014","08","17","05:00","15.6","","13.4","","86","","33","","9","","16.1","","100.41","","","","","","NA"
"2014-08-17 06:00","2014","08","17","06:00","12.0","","11.2","","95","","27","","8","","12.9","","100.47","","","","","","NA"
"2014-08-17 07:00","2014","08","17","07:00","13.6","","12.5","","93","","21","","5","","16.1","","100.51","","","","","","NA"
"2014-08-17 08:00","2014","08","17","08:00","18.2","","14.6","","79","","32","","18","","16.1","","100.57","","","","","","NA"
"2014-08-17 09:00","2014","08","17","09:00","19.5","","15.0","","75","","2","","13","","16.1","","100.60","","","","","","NA"
"2014-08-17 10:00","2014","08","17","10:00","20.0","","14.6","","71","","31","","9","","16.1","","100.61","","","","","","NA"
"2014-08-17 11:00","2014","08","17","11:00","18.1","","14.4","","79","","20","","15","","16.1","","100.62","","","","","","NA"
"2014-08-17 12:00","2014","08","17","12:00","18.1","","15.0","","82","","18","","13","","16.1","","100.62","","","","","","NA"
"2014-08-17 13:00","2014","08","17","13:00","18.8","","15.1","","79","","19","","11","","16.1","","100.61","","","","","","NA"
"2014-08-17 14:00","2014","08","17","14:00","18.2","","15.8","","86","","21","","8","","16.1","","100.57","","","","","","NA"
"2014-08-17 15:00","2014","08","17","15:00","18.7","","15.9","","83","","19","","11","","16.1","","100.53","","","","","","NA"
"2014-08-17 16:00","2014","08","17","16:00","18.8","","16.3","","85","","","","0","","16.1","","100.54","","","","","","NA"
"2014-08-17 17:00","2014","08","17","17:00","19.4","","15.5","","78","","8","","8","","16.1","","100.50","","","","","","NA"
"2014-08-17 18:00","2014","08","17","18:00","19.4","","14.4","","72","","","","0","","16.1","","100.49","","","","","","NA"
"2014-08-17 19:00","2014","08","17","19:00","18.4","","14.4","","77","","","M","4","","16.1","","100.53","","","","","","NA"
"2014-08-17 20:00","2014","08","17","20:00","19.8","","13.2","","65","","32","","15","","16.1","","100.59","","","","","","NA"
"2014-08-17 21:00","2014","08","17","21:00","18.5","","12.4","","67","","35","","11","","16.1","","100.64","","","","","","NA"
"2014-08-17 22:00","2014","08","17","22:00","17.7","","12.1","","69","","34","","9","","8.1","","100.65","","","","","","Haze"
"2014-08-17 23:00","2014","08","17","23:00","17.0","","12.2","","73","","33","","9","","16.1","","100.64","","","","","","NA"
"2014-08-18 00:00","2014","08","18","00:00","16.1","","12.4","","79","","32","","13","","16.1","","100.62","","","","","","NA"
"2014-08-18 01:00","2014","08","18","01:00","15.5","","12.3","","81","","32","","9","","16.1","","100.58","","","","","","NA"
"2014-08-18 02:00","2014","08","18","02:00","14.6","","12.3","","86","","28","","9","","16.1","","100.57","","","","","","NA"
"2014-08-18 03:00","2014","08","18","03:00","15.0","","12.2","","83","","32","","9","","16.1","","100.55","","","","","","NA"
"2014-08-18 04:00","2014","08","18","04:00","14.9","","12.6","","86","","33","","5","","16.1","","100.54","","","","","","NA"
"2014-08-18 05:00","2014","08","18","05:00","14.1","","12.5","","90","","30","","5","","16.1","","100.57","","","","","","NA"
"2014-08-18 06:00","2014","08","18","06:00","13.2","","11.7","","90","","","","0","","16.1","","100.62","","","","","","NA"
"2014-08-18 07:00","2014","08","18","07:00","16.3","","12.9","","80","","5","","11","","16.1","","100.64","","","","","","NA"
"2014-08-18 08:00","2014","08","18","08:00","16.3","","12.7","","79","","7","","11","","16.1","","100.64","","","","","","NA"
"2014-08-18 09:00","2014","08","18","09:00","16.5","","11.9","","74","","8","","13","","16.1","","100.64","","","","","","NA"
"2014-08-18 10:00","2014","08","18","10:00","17.2","","12.6","","74","","8","","18","","16.1","","100.61","","","","","","NA"
"2014-08-18 11:00","2014","08","18","11:00","17.3","","12.6","","73","","7","","15","","16.1","","100.60","","","","","","NA"
"2014-08-18 12:00","2014","08","18","12:00","17.4","","12.9","","74","","8","","13","","16.1","","100.54","","","","","","NA"
"2014-08-18 13:00","2014","08","18","13:00","17.9","","13.4","","75","","12","","13","","16.1","","100.51","","","","","","NA"
"2014-08-18 14:00","2014","08","18","14:00","18.7","","14.3","","75","","13","","11","","16.1","","100.47","","","","","","NA"
"2014-08-18 15:00","2014","08","18","15:00","19.0","","12.5","","66","","13","","11","","16.1","","100.41","","","","","","NA"
"2014-08-18 16:00","2014","08","18","16:00","19.1","","13.1","","68","","18","","13","","16.1","","100.38","","","","","","NA"
"2014-08-18 17:00","2014","08","18","17:00","18.9","","11.4","","61","","11","","9","","16.1","","100.38","","","","","","NA"
"2014-08-18 18:00","2014","08","18","18:00","18.1","","12.2","","68","","7","","5","","16.1","","100.32","","","","","","NA"
"2014-08-18 19:00","2014","08","18","19:00","16.9","","12.5","","75","","","M","4","","16.1","","100.31","","","","","","NA"
"2014-08-18 20:00","2014","08","18","20:00","16.5","","13.4","","82","","6","","9","","16.1","","100.32","","","","","","NA"
"2014-08-18 21:00","2014","08","18","21:00","16.5","","13.4","","82","","8","","9","","16.1","","100.30","","","","","","NA"
"2014-08-18 22:00","2014","08","18","22:00","15.9","","13.4","","85","","7","","8","","16.1","","100.32","","","","","","NA"
"2014-08-18 23:00","2014","08","18","23:00","16.1","","12.5","","79","","6","","5","","16.1","","100.33","","","","","","NA"
"2014-08-19 00:00","2014","08","19","00:00","15.5","","12.7","","83","","8","","11","","16.1","","100.31","","","","","","NA"
"2014-08-19 01:00","2014","08","19","01:00","15.0","","12.1","","83","","6","","11","","16.1","","100.28","","","","","","NA"
"2014-08-19 02:00","2014","08","19","02:00","14.8","","12.5","","86","","7","","15","","16.1","","100.24","","","","","","NA"
"2014-08-19 03:00","2014","08","19","03:00","14.4","","11.9","","85","","6","","17","","16.1","","100.23","","","","","","NA"
"2014-08-19 04:00","2014","08","19","04:00","14.0","","11.9","","87","","7","","11","","16.1","","100.25","","","","","","NA"
"2014-08-19 05:00","2014","08","19","05:00","14.1","","11.8","","86","","6","","21","","16.1","","100.22","","","","","","NA"
"2014-08-19 06:00","2014","08","19","06:00","14.3","","11.8","","85","","6","","18","","16.1","","100.22","","","","","","NA"
"2014-08-19 07:00","2014","08","19","07:00","15.9","","12.5","","80","","6","","22","","16.1","","100.23","","","","","","NA"
"2014-08-19 08:00","2014","08","19","08:00","17.1","","13.4","","79","","7","","24","","16.1","","100.23","","","","","","NA"
"2014-08-19 09:00","2014","08","19","09:00","17.6","","13.2","","75","","7","","28","","16.1","","100.26","","","","","","NA"
"2014-08-19 10:00","2014","08","19","10:00","18.1","","13.9","","76","","7","","24","","16.1","","100.30","","","","","","NA"
"2014-08-19 11:00","2014","08","19","11:00","18.5","","14.7","","79","","7","","28","","16.1","","100.27","","","","","","NA"
"2014-08-19 12:00","2014","08","19","12:00","18.5","","14.6","","78","","7","","28","","16.1","","100.26","","","","","","NA"
"2014-08-19 13:00","2014","08","19","13:00","19.3","","14.6","","74","","7","","26","","16.1","","100.29","","","","","","NA"
"2014-08-19 14:00","2014","08","19","14:00","19.2","","14.5","","74","","7","","26","","16.1","","100.22","","","","","","NA"
"2014-08-19 15:00","2014","08","19","15:00","19.0","","13.5","","70","","7","","28","","16.1","","100.20","","","","","","NA"
"2014-08-19 16:00","2014","08","19","16:00","18.8","","14.2","","74","","7","","22","","16.1","","100.16","","","","","","NA"
"2014-08-19 17:00","2014","08","19","17:00","18.7","","14.1","","74","","7","","18","","16.1","","100.17","","","","","","NA"
"2014-08-19 18:00","2014","08","19","18:00","18.1","","14.1","","77","","6","","17","","16.1","","100.18","","","","","","NA"
"2014-08-19 19:00","2014","08","19","19:00","17.4","","13.8","","79","","6","","15","","16.1","","100.17","","","","","","NA"
"2014-08-19 20:00","2014","08","19","20:00","17.6","","14.0","","79","","7","","18","","16.1","","100.16","","","","","","NA"
"2014-08-19 21:00","2014","08","19","21:00","17.1","","13.9","","81","","7","","18","","16.1","","100.17","","","","","","NA"
"2014-08-19 22:00","2014","08","19","22:00","17.3","","14.1","","81","","7","","22","","16.1","","100.11","","","","","","NA"
"2014-08-19 23:00","2014","08","19","23:00","17.2","","14.5","","84","","7","","22","","16.1","","100.08","","","","","","NA"
"2014-08-20 00:00","2014","08","20","00:00","18.4","","14.7","","79","","6","","22","","16.1","","100.11","","","","","","NA"
"2014-08-20 01:00","2014","08","20","01:00","17.6","","14.7","","83","","7","","22","","16.1","","100.05","","","","","","NA"
"2014-08-20 02:00","2014","08","20","02:00","17.8","","15.3","","85","","6","","22","","16.1","","100.05","","","","","","NA"
"2014-08-20 03:00","2014","08","20","03:00","17.6","","15.4","","87","","6","","17","","16.1","","100.06","","","","","","NA"
"2014-08-20 04:00","2014","08","20","04:00","17.4","","15.4","","88","","7","","11","","16.1","","100.08","","","","","","NA"
"2014-08-20 05:00","2014","08","20","05:00","16.9","","15.1","","89","","6","","5","","16.1","","100.14","","","","","","NA"
"2014-08-20 06:00","2014","08","20","06:00","17.2","","14.9","","86","","8","","11","","16.1","","100.17","","","","","","NA"
"2014-08-20 07:00","2014","08","20","07:00","16.4","","14.5","","88","","9","","9","","16.1","","100.21","","","","","","NA"
"2014-08-20 08:00","2014","08","20","08:00","16.7","","15.1","","90","","8","","9","","16.1","","100.25","","","","","","Rain"
"2014-08-20 09:00","2014","08","20","09:00","17.8","","16.2","","90","","9","","5","","16.1","","100.31","","","","","","NA"
"2014-08-20 10:00","2014","08","20","10:00","18.4","","16.7","","90","","8","","11","","16.1","","100.30","","","","","","NA"
"2014-08-20 11:00","2014","08","20","11:00","18.4","","16.5","","89","","8","","17","","16.1","","100.30","","","","","","NA"
"2014-08-20 12:00","2014","08","20","12:00","19.2","","16.9","","86","","8","","17","","16.1","","100.30","","","","","","NA"
"2014-08-20 13:00","2014","08","20","13:00","19.9","","17.2","","84","","8","","21","","16.1","","100.30","","","","","","NA"
"2014-08-20 14:00","2014","08","20","14:00","20.4","","17.0","","81","","8","","18","","16.1","","100.31","","26","","","","NA"
"2014-08-20 15:00","2014","08","20","15:00","20.0","","16.8","","82","","8","","21","","16.1","","100.29","","25","","","","NA"
"2014-08-20 16:00","2014","08","20","16:00","19.3","","16.7","","85","","7","","17","","16.1","","100.33","","","","","","NA"
"2014-08-20 17:00","2014","08","20","17:00","18.9","","16.7","","87","","7","","15","","16.1","","100.34","","","","","","NA"
"2014-08-20 18:00","2014","08","20","18:00","18.5","","16.5","","88","","7","","18","","16.1","","100.31","","","","","","NA"
"2014-08-20 19:00","2014","08","20","19:00","18.7","","17.6","","93","","7","","22","","12.9","","100.30","","","","","","NA"
"2014-08-20 20:00","2014","08","20","20:00","18.0","","17.0","","94","","7","","21","","8.1","","100.32","","","","","","Rain,Fog"
"2014-08-20 21:00","2014","08","20","21:00","18.1","","17.3","","95","","8","","22","","6.4","","100.31","","","","","","Rain,Fog"
"2014-08-20 22:00","2014","08","20","22:00","17.5","","16.9","","96","","7","","21","","2.8","","100.33","","","","","","Fog"
"2014-08-20 23:00","2014","08","20","23:00","17.7","","17.2","","97","","9","","8","","4.0","","100.38","","","","","","Fog"
"2014-08-21 00:00","2014","08","21","00:00","17.9","","17.3","","96","","8","","9","","4.8","","100.39","","","","","","Fog"
"2014-08-21 01:00","2014","08","21","01:00","17.4","","16.8","","96","","8","","13","","4.8","","100.35","","","","","","Fog"
"2014-08-21 02:00","2014","08","21","02:00","16.9","","16.4","","97","","8","","9","","1.6","","100.34","","","","","","Fog"
"2014-08-21 03:00","2014","08","21","03:00","17.0","","16.5","","97","","","","0","","4.8","","100.34","","","","","","Fog"
"2014-08-21 04:00","2014","08","21","04:00","16.5","","16.0","","97","","","","0","","4.0","","100.36","","","","","","Fog"
"2014-08-21 05:00","2014","08","21","05:00","16.9","","16.4","","97","","","","0","","6.4","","100.40","","","","","","Fog"
"2014-08-21 06:00","2014","08","21","06:00","15.7","","15.2","","97","","23","","4","","2.0","","100.46","","","","","","Fog"
"2014-08-21 07:00","2014","08","21","07:00","16.3","","15.8","","97","","29","","5","","0.2","","100.51","","","","","","Fog"
"2014-08-21 08:00","2014","08","21","08:00","17.0","","16.5","","97","","22","","5","","0.2","","100.51","","","","","","Fog"
"2014-08-21 09:00","2014","08","21","09:00","17.4","","16.9","","97","","26","","8","","2.4","","100.51","","","","","","Fog"
"2014-08-21 10:00","2014","08","21","10:00","19.2","","17.9","","92","","21","","11","","16.1","","100.51","","","","","","NA"
"2014-08-21 11:00","2014","08","21","11:00","20.2","","18.1","","88","","18","","13","","16.1","","100.52","","26","","","","NA"
"2014-08-21 12:00","2014","08","21","12:00","19.5","","17.5","","88","","19","","13","","16.1","","100.48","","","","","","Rain"
"2014-08-21 13:00","2014","08","21","13:00","21.4","","17.6","","79","","18","","11","","16.1","","100.45","","27","","","","NA"
"2014-08-21 14:00","2014","08","21","14:00","21.4","","18.0","","81","","22","","8","","16.1","","100.45","","27","","","","NA"
"2014-08-21 15:00","2014","08","21","15:00","21.8","","17.4","","76","","22","","4","","16.1","","100.42","","27","","","","NA"
"2014-08-21 16:00","2014","08","21","16:00","22.3","","17.9","","76","","","M","4","","16.1","","100.41","","28","","","","NA"
"2014-08-21 17:00","2014","08","21","17:00","23.6","","19.4","","77","","7","","9","","16.1","","100.41","","31","","","","NA"
"2014-08-21 18:00","2014","08","21","18:00","22.5","","19.2","","81","","8","","4","","16.1","","100.43","","29","","","","NA"
"2014-08-21 19:00","2014","08","21","19:00","22.4","","18.7","","79","","11","","5","","16.1","","100.46","","29","","","","NA"
"2014-08-21 20:00","2014","08","21","20:00","22.0","","19.2","","84","","6","","13","","16.1","","100.49","","29","","","","NA"
"2014-08-21 21:00","2014","08","21","21:00","21.9","","18.9","","83","","9","","9","","16.1","","100.52","","29","","","","NA"
"2014-08-21 22:00","2014","08","21","22:00","22.2","","17.9","","76","","34","","9","","16.1","","100.55","","28","","","","NA"
"2014-08-21 23:00","2014","08","21","23:00","21.4","","17.9","","80","","33","","13","","16.1","","100.54","","27","","","","NA"
"2014-08-22 00:00","2014","08","22","00:00","20.4","","17.8","","85","","33","","13","","16.1","","100.55","","26","","","","NA"
"2014-08-22 01:00","2014","08","22","01:00","19.9","","17.3","","85","","35","","15","","16.1","","100.53","","","","","","NA"
"2014-08-22 02:00","2014","08","22","02:00","19.3","","17.1","","87","","31","","8","","16.1","","100.56","","","","","","NA"
"2014-08-22 03:00","2014","08","22","03:00","19.2","","16.9","","86","","30","","8","","16.1","","100.56","","","","","","NA"
"2014-08-22 04:00","2014","08","22","04:00","18.8","","16.8","","88","","36","","13","","16.1","","100.51","","","","","","NA"
"2014-08-22 05:00","2014","08","22","05:00","17.9","","16.6","","92","","31","","8","","16.1","","100.53","","","","","","NA"
"2014-08-22 06:00","2014","08","22","06:00","17.5","","16.5","","94","","","M","4","","16.1","","100.59","","","","","","NA"
"2014-08-22 07:00","2014","08","22","07:00","18.8","","17.3","","91","","","M","4","","16.1","","100.63","","","","","","NA"
"2014-08-22 08:00","2014","08","22","08:00","18.3","","17.2","","93","","22","","8","","14.5","","100.69","","","","","","NA"
"2014-08-22 09:00","2014","08","22","09:00","20.0","","17.8","","87","","22","","9","","16.1","","100.70","","26","","","","NA"
"2014-08-22 10:00","2014","08","22","10:00","20.9","","17.8","","82","","19","","11","","16.1","","100.69","","27","","","","NA"
"2014-08-22 11:00","2014","08","22","11:00","21.7","","17.7","","78","","8","","11","","16.1","","100.67","","27","","","","NA"
"2014-08-22 12:00","2014","08","22","12:00","21.4","","17.9","","80","","12","","11","","16.1","","100.66","","27","","","","NA"
"2014-08-22 13:00","2014","08","22","13:00","21.2","","18.4","","84","","9","","13","","16.1","","100.67","","28","","","","NA"
"2014-08-22 14:00","2014","08","22","14:00","21.8","","18.4","","81","","13","","8","","12.9","","100.65","","28","","","","NA"
"2014-08-22 15:00","2014","08","22","15:00","22.0","","18.6","","81","","8","","11","","16.1","","100.61","","28","","","","NA"
"2014-08-22 16:00","2014","08","22","16:00","22.2","","18.8","","81","","6","","11","","16.1","","100.57","","29","","","","NA"
"2014-08-22 17:00","2014","08","22","17:00","20.9","","18.5","","86","","7","","13","","16.1","","100.59","","27","","","","NA"
"2014-08-22 18:00","2014","08","22","18:00","18.9","","17.9","","94","","7","","11","","0.6","","100.60","","","","","","Fog"
"2014-08-22 19:00","2014","08","22","19:00","19.0","","18.0","","94","","8","","13","","16.1","","100.64","","","","","","NA"
"2014-08-22 20:00","2014","08","22","20:00","18.4","","17.9","","97","","7","","15","","0.6","","100.70","","","","","","Fog"
"2014-08-22 21:00","2014","08","22","21:00","18.8","","18.0","","95","","7","","8","","16.1","","100.72","","","","","","NA"
"2014-08-22 22:00","2014","08","22","22:00","19.6","","17.9","","90","","7","","13","","16.1","","100.73","","","","","","NA"
"2014-08-22 23:00","2014","08","22","23:00","20.2","","18.2","","88","","6","","17","","16.1","","100.73","","26","","","","NA"
"2014-08-23 00:00","2014","08","23","00:00","20.0","","18.3","","90","","6","","17","","16.1","","100.75","","26","","","","NA"
"2014-08-23 01:00","2014","08","23","01:00","19.7","","18.2","","91","","7","","18","","16.1","","100.74","","","","","","NA"
"2014-08-23 02:00","2014","08","23","02:00","20.6","","18.0","","85","","6","","21","","16.1","","100.69","","27","","","","NA"
"2014-08-23 03:00","2014","08","23","03:00","20.2","","18.0","","87","","6","","17","","16.1","","100.71","","26","","","","NA"
"2014-08-23 04:00","2014","08","23","04:00","20.0","","17.8","","87","","7","","17","","16.1","","100.72","","26","","","","NA"
"2014-08-23 05:00","2014","08","23","05:00","19.3","","17.5","","89","","7","","15","","16.1","","100.78","","","","","","NA"
"2014-08-23 06:00","2014","08","23","06:00","19.4","","17.5","","88","","7","","18","","16.1","","100.85","","","","","","NA"
"2014-08-23 07:00","2014","08","23","07:00","19.0","","17.5","","91","","6","","22","","16.1","","100.90","","","","","","NA"
"2014-08-23 08:00","2014","08","23","08:00","19.0","","17.4","","90","","7","","17","","16.1","","100.90","","","","","","NA"
"2014-08-23 09:00","2014","08","23","09:00","19.4","","17.4","","88","","7","","17","","16.1","","100.89","","","","","","NA"
"2014-08-23 10:00","2014","08","23","10:00","20.0","","17.6","","86","","7","","22","","16.1","","100.93","","26","","","","NA"
"2014-08-23 11:00","2014","08","23","11:00","19.7","","17.6","","87","","7","","18","","16.1","","100.96","","","","","","NA"
"2014-08-23 12:00","2014","08","23","12:00","19.8","","17.6","","87","","7","","21","","16.1","","100.96","","","","","","NA"
"2014-08-23 13:00","2014","08","23","13:00","20.6","","17.6","","83","","7","","22","","16.1","","101.00","","26","","","","NA"
"2014-08-23 14:00","2014","08","23","14:00","20.0","","17.5","","85","","7","","17","","16.1","","101.03","","26","","","","NA"
"2014-08-23 15:00","2014","08","23","15:00","20.3","","17.6","","84","","6","","22","","16.1","","101.03","","26","","","","NA"
"2014-08-23 16:00","2014","08","23","16:00","20.7","","17.6","","82","","6","","18","","16.1","","101.03","","26","","","","NA"
"2014-08-23 17:00","2014","08","23","17:00","20.1","","17.5","","85","","6","","18","","16.1","","101.01","","26","","","","NA"
"2014-08-23 18:00","2014","08","23","18:00","20.0","","17.3","","84","","6","","21","","16.1","","100.99","","25","","","","NA"
"2014-08-23 19:00","2014","08","23","19:00","19.5","","16.9","","85","","6","","22","","16.1","","100.99","","","","","","NA"
"2014-08-23 20:00","2014","08","23","20:00","19.2","","16.8","","86","","6","","21","","16.1","","101.02","","","","","","NA"
"2014-08-23 21:00","2014","08","23","21:00","19.1","","16.9","","87","","6","","24","","16.1","","101.03","","","","","","NA"
"2014-08-23 22:00","2014","08","23","22:00","18.9","","16.9","","88","","6","","24","","16.1","","101.06","","","","","","NA"
"2014-08-23 23:00","2014","08","23","23:00","18.6","","16.9","","90","","6","","26","","16.1","","101.08","","","","","","NA"
"2014-08-24 00:00","2014","08","24","00:00","18.6","","17.0","","90","","6","","21","","16.1","","101.09","","","","","","NA"
"2014-08-24 01:00","2014","08","24","01:00","18.6","","17.3","","92","","6","","18","","16.1","","101.12","","","","","","NA"
"2014-08-24 02:00","2014","08","24","02:00","18.4","","17.3","","93","","7","","13","","16.1","","101.11","","","","","","NA"
"2014-08-24 03:00","2014","08","24","03:00","18.6","","17.5","","93","","6","","18","","16.1","","101.11","","","","","","NA"
"2014-08-24 04:00","2014","08","24","04:00","18.5","","17.5","","94","","6","","18","","16.1","","101.11","","","","","","NA"
"2014-08-24 05:00","2014","08","24","05:00","18.3","","17.3","","94","","5","","18","","16.1","","101.14","","","","","","NA"
"2014-08-24 06:00","2014","08","24","06:00","18.1","","17.0","","93","","7","","18","","16.1","","101.22","","","","","","NA"
"2014-08-24 07:00","2014","08","24","07:00","18.2","","17.1","","93","","6","","17","","16.1","","101.26","","","","","","NA"
"2014-08-24 08:00","2014","08","24","08:00","19.1","","17.1","","88","","6","","18","","16.1","","101.26","","","","","","NA"
"2014-08-24 09:00","2014","08","24","09:00","19.6","","17.4","","87","","7","","18","","16.1","","101.28","","","","","","NA"
"2014-08-24 10:00","2014","08","24","10:00","20.4","","17.5","","83","","7","","22","","16.1","","101.29","","26","","","","NA"
"2014-08-24 11:00","2014","08","24","11:00","21.0","","17.5","","80","","7","","21","","16.1","","101.30","","27","","","","NA"
"2014-08-24 12:00","2014","08","24","12:00","21.1","","17.7","","81","","8","","22","","16.1","","101.29","","27","","","","NA"
"2014-08-24 13:00","2014","08","24","13:00","21.5","","18.0","","80","","7","","21","","16.1","","101.26","","28","","","","NA"
"2014-08-24 14:00","2014","08","24","14:00","21.5","","17.6","","78","","7","","21","","16.1","","101.20","","27","","","","NA"
"2014-08-24 15:00","2014","08","24","15:00","21.8","","17.3","","75","","7","","18","","16.1","","101.17","","27","","","","NA"
"2014-08-24 16:00","2014","08","24","16:00","21.7","","16.8","","73","","7","","21","","16.1","","101.14","","27","","","","NA"
"2014-08-24 17:00","2014","08","24","17:00","21.8","","15.4","","67","","7","","21","","16.1","","101.13","","26","","","","NA"
"2014-08-24 18:00","2014","08","24","18:00","20.6","","14.5","","68","","8","","18","","16.1","","101.13","","","","","","NA"
"2014-08-24 19:00","2014","08","24","19:00","19.5","","15.3","","76","","7","","17","","16.1","","101.14","","","","","","NA"
"2014-08-24 20:00","2014","08","24","20:00","19.4","","15.1","","76","","6","","15","","16.1","","101.14","","","","","","NA"
"2014-08-24 21:00","2014","08","24","21:00","19.2","","15.6","","79","","7","","13","","16.1","","101.17","","","","","","NA"
"2014-08-24 22:00","2014","08","24","22:00","19.0","","15.7","","81","","7","","13","","16.1","","101.16","","","","","","NA"
"2014-08-24 23:00","2014","08","24","23:00","18.7","","15.9","","83","","7","","13","","16.1","","101.15","","","","","","NA"
"2014-08-25 00:00","2014","08","25","00:00","19.5","","16.0","","80","","6","","15","","16.1","","101.16","","","","","","NA"
"2014-08-25 01:00","2014","08","25","01:00","19.0","","16.3","","84","","7","","18","","16.1","","101.12","","","","","","NA"
"2014-08-25 02:00","2014","08","25","02:00","18.9","","15.8","","82","","7","","11","","16.1","","101.12","","","","","","NA"
"2014-08-25 03:00","2014","08","25","03:00","18.5","","15.8","","84","","7","","13","","16.1","","101.10","","","","","","NA"
"2014-08-25 04:00","2014","08","25","04:00","18.2","","16.0","","87","","8","","13","","16.1","","101.08","","","","","","NA"
"2014-08-25 05:00","2014","08","25","05:00","17.7","","16.2","","91","","6","","15","","16.1","","101.12","","","","","","NA"
"2014-08-25 06:00","2014","08","25","06:00","17.9","","16.4","","91","","8","","5","","16.1","","101.20","","","","","","NA"
"2014-08-25 07:00","2014","08","25","07:00","18.9","","17.0","","89","","7","","5","","16.1","","101.25","","","","","","NA"
"2014-08-25 08:00","2014","08","25","08:00","19.5","","16.6","","83","","9","","9","","16.1","","101.26","","","","","","NA"
"2014-08-25 09:00","2014","08","25","09:00","20.4","","17.8","","85","","7","","11","","16.1","","101.27","","26","","","","NA"
"2014-08-25 10:00","2014","08","25","10:00","21.0","","18.0","","83","","7","","13","","16.1","","101.24","","27","","","","NA"
"2014-08-25 11:00","2014","08","25","11:00","22.4","","18.7","","79","","13","","11","","16.1","","101.23","","29","","","","NA"
"2014-08-25 12:00","2014","08","25","12:00","22.1","","18.7","","81","","8","","15","","16.1","","101.16","","29","","","","NA"
"2014-08-25 13:00","2014","08","25","13:00","22.2","","18.5","","79","","7","","17","","16.1","","101.15","","29","","","","NA"
"2014-08-25 14:00","2014","08","25","14:00","23.1","","18.3","","74","","8","","13","","16.1","","101.11","","29","","","","NA"
"2014-08-25 15:00","2014","08","25","15:00","23.2","","17.7","","71","","9","","15","","16.1","","101.09","","29","","","","NA"
"2014-08-25 16:00","2014","08","25","16:00","22.8","","18.6","","77","","8","","17","","16.1","","101.04","","29","","","","NA"
"2014-08-25 17:00","2014","08","25","17:00","22.4","","18.8","","80","","7","","15","","16.1","","101.01","","29","","","","NA"
"2014-08-25 18:00","2014","08","25","18:00","21.4","","18.1","","81","","7","","17","","16.1","","100.93","","27","","","","NA"
"2014-08-25 19:00","2014","08","25","19:00","20.0","","17.5","","85","","8","","13","","16.1","","100.94","","26","","","","NA"
"2014-08-25 20:00","2014","08","25","20:00","19.8","","17.3","","85","","7","","13","","16.1","","100.96","","","","","","NA"
"2014-08-25 21:00","2014","08","25","21:00","20.0","","16.7","","81","","7","","13","","16.1","","100.93","","25","","","","NA"
"2014-08-25 22:00","2014","08","25","22:00","20.3","","16.4","","78","","8","","9","","16.1","","100.92","","25","","","","NA"
"2014-08-25 23:00","2014","08","25","23:00","19.5","","16.9","","85","","7","","9","","16.1","","100.91","","","","","","NA"
"2014-08-26 00:00","2014","08","26","00:00","19.1","","16.9","","87","","7","","5","","16.1","","100.91","","","","","","NA"
"2014-08-26 01:00","2014","08","26","01:00","18.8","","17.3","","91","","","M","4","","16.1","","100.90","","","","","","NA"
"2014-08-26 02:00","2014","08","26","02:00","19.0","","17.5","","91","","8","","5","","16.1","","100.89","","","","","","NA"
"2014-08-26 03:00","2014","08","26","03:00","19.1","","17.9","","93","","7","","5","","16.1","","100.90","","","","","","NA"
"2014-08-26 04:00","2014","08","26","04:00","18.9","","17.9","","94","","4","","4","","16.1","","100.92","","","","","","NA"
"2014-08-26 05:00","2014","08","26","05:00","18.7","","18.1","","96","","8","","4","","11.3","","100.92","","","","","","NA"
"2014-08-26 06:00","2014","08","26","06:00","19.3","","18.3","","94","","","","0","","16.1","","100.92","","","","","","NA"
"2014-08-26 07:00","2014","08","26","07:00","20.8","","18.7","","88","","23","","4","","16.1","","100.93","","27","","","","NA"
"2014-08-26 08:00","2014","08","26","08:00","21.5","","18.5","","83","","19","","5","","16.1","","100.92","","28","","","","NA"
"2014-08-26 09:00","2014","08","26","09:00","22.4","","18.6","","79","","19","","8","","16.1","","100.90","","29","","","","NA"
"2014-08-26 10:00","2014","08","26","10:00","23.1","","18.8","","76","","18","","11","","16.1","","100.92","","30","","","","NA"
"2014-08-26 11:00","2014","08","26","11:00","23.8","","19.1","","75","","17","","15","","16.1","","100.89","","31","","","","NA"
"2014-08-26 12:00","2014","08","26","12:00","24.4","","19.8","","75","","17","","15","","16.1","","100.83","","32","","","","NA"
"2014-08-26 13:00","2014","08","26","13:00","25.5","","20.0","","71","","17","","17","","16.1","","100.76","","33","","","","NA"
"2014-08-26 14:00","2014","08","26","14:00","26.8","","20.4","","67","","17","","22","","16.1","","100.67","","35","","","","NA"
"2014-08-26 15:00","2014","08","26","15:00","25.7","","20.9","","75","","18","","22","","16.1","","100.61","","34","","","","NA"
"2014-08-26 16:00","2014","08","26","16:00","25.3","","20.7","","75","","19","","24","","16.1","","100.57","","33","","","","NA"
"2014-08-26 17:00","2014","08","26","17:00","24.9","","20.7","","77","","19","","24","","16.1","","100.55","","33","","","","NA"
"2014-08-26 18:00","2014","08","26","18:00","23.8","","20.4","","81","","21","","22","","16.1","","100.54","","32","","","","NA"
"2014-08-26 19:00","2014","08","26","19:00","23.2","","19.2","","78","","22","","26","","16.1","","100.52","","30","","","","NA"
"2014-08-26 20:00","2014","08","26","20:00","22.3","","19.5","","84","","26","","11","","16.1","","100.55","","29","","","","NA"
"2014-08-26 21:00","2014","08","26","21:00","22.5","","19.7","","84","","23","","11","","16.1","","100.57","","30","","","","NA"
"2014-08-26 22:00","2014","08","26","22:00","22.4","","20.0","","86","","27","","5","","16.1","","100.56","","30","","","","NA"
"2014-08-26 23:00","2014","08","26","23:00","22.8","","20.3","","85","","32","","8","","16.1","","100.56","","31","","","","NA"
"2014-08-27 00:00","2014","08","27","00:00","23.1","","19.3","","79","","34","","24","","16.1","","100.62","","30","","","","NA"
"2014-08-27 01:00","2014","08","27","01:00","22.8","","16.2","","66","","34","","21","","16.1","","100.67","","28","","","","NA"
"2014-08-27 02:00","2014","08","27","02:00","22.2","","15.1","","64","","33","","17","","16.1","","100.71","","26","","","","NA"
"2014-08-27 03:00","2014","08","27","03:00","21.5","","13.4","","59","","32","","18","","16.1","","100.71","","25","","","","NA"
"2014-08-27 04:00","2014","08","27","04:00","20.5","","13.4","","63","","33","","11","","16.1","","100.73","","","","","","NA"
"2014-08-27 05:00","2014","08","27","05:00","19.6","","12.7","","64","","32","","18","","16.1","","100.79","","","","","","NA"
"2014-08-27 06:00","2014","08","27","06:00","18.6","","13.3","","71","","33","","9","","16.1","","100.81","","","","","","NA"
"2014-08-27 07:00","2014","08","27","07:00","19.2","","13.7","","70","","32","","9","","16.1","","100.86","","","","","","NA"
"2014-08-27 08:00","2014","08","27","08:00","20.4","","13.6","","65","","33","","11","","16.1","","100.85","","","","","","NA"
"2014-08-27 09:00","2014","08","27","09:00","21.2","","12.8","","58","","35","","13","","16.1","","100.86","","","","","","NA"
"2014-08-27 10:00","2014","08","27","10:00","21.7","","13.2","","58","","30","","13","","16.1","","100.88","","25","","","","NA"
"2014-08-27 11:00","2014","08","27","11:00","22.9","","12.3","","51","","29","","18","","16.1","","100.83","","25","","","","NA"
"2014-08-27 12:00","2014","08","27","12:00","24.2","","12.3","","47","","31","","8","","16.1","","100.76","","27","","","","NA"
"2014-08-27 13:00","2014","08","27","13:00","21.3","","16.0","","71","","20","","21","","16.1","","100.77","","26","","","","NA"
"2014-08-27 14:00","2014","08","27","14:00","21.4","","16.4","","73","","20","","15","","16.1","","100.73","","26","","","","NA"
"2014-08-27 15:00","2014","08","27","15:00","23.4","","15.2","","60","","","M","9","","16.1","","100.69","","27","","","","NA"
"2014-08-27 16:00","2014","08","27","16:00","23.8","","12.9","","50","","29","","26","","16.1","","100.72","","27","","","","NA"
"2014-08-27 17:00","2014","08","27","17:00","23.6","","12.9","","51","","30","","15","","16.1","","100.72","","26","","","","NA"
"2014-08-27 18:00","2014","08","27","18:00","22.3","","12.8","","55","","35","","13","","16.1","","100.71","","25","","","","NA"
"2014-08-27 19:00","2014","08","27","19:00","20.6","","12.5","","59","","32","","17","","16.1","","100.78","","","","","","NA"
"2014-08-27 20:00","2014","08","27","20:00","19.2","","12.2","","64","","32","","17","","16.1","","100.84","","","","","","NA"
"2014-08-27 21:00","2014","08","27","21:00","18.3","","10.3","","59","","31","","18","","16.1","","100.84","","","","","","NA"
"2014-08-27 22:00","2014","08","27","22:00","17.2","","10.1","","63","","31","","15","","16.1","","100.87","","","","","","NA"
"2014-08-27 23:00","2014","08","27","23:00","16.6","","10.7","","68","","29","","13","","16.1","","100.90","","","","","","NA"
"2014-08-28 00:00","2014","08","28","00:00","16.0","","10.8","","71","","28","","9","","16.1","","100.89","","","","","","NA"
"2014-08-28 01:00","2014","08","28","01:00","15.2","","10.6","","74","","29","","13","","16.1","","100.86","","","","","","NA"
"2014-08-28 02:00","2014","08","28","02:00","14.9","","10.0","","72","","31","","13","","16.1","","100.86","","","","","","NA"
"2014-08-28 03:00","2014","08","28","03:00","14.7","","9.8","","72","","32","","9","","16.1","","100.82","","","","","","NA"
"2014-08-28 04:00","2014","08","28","04:00","14.3","","9.6","","73","","33","","9","","16.1","","100.83","","","","","","NA"
"2014-08-28 05:00","2014","08","28","05:00","13.8","","9.9","","77","","33","","9","","16.1","","100.87","","","","","","NA"
"2014-08-28 06:00","2014","08","28","06:00","14.0","","10.5","","79","","33","","13","","16.1","","100.91","","","","","","NA"
"2014-08-28 07:00","2014","08","28","07:00","15.3","","10.6","","74","","33","","13","","16.1","","100.96","","","","","","NA"
"2014-08-28 08:00","2014","08","28","08:00","17.5","","9.5","","59","","33","","18","","16.1","","101.00","","","","","","NA"
"2014-08-28 09:00","2014","08","28","09:00","18.4","","8.3","","52","","32","","26","","16.1","","101.02","","","","","","NA"
"2014-08-28 10:00","2014","08","28","10:00","19.2","","8.7","","50","","33","","22","","16.1","","101.04","","","","","","NA"
"2014-08-28 11:00","2014","08","28","11:00","20.2","","8.5","","47","","32","","13","","16.1","","100.99","","","","","","NA"
"2014-08-28 12:00","2014","08","28","12:00","20.4","","8.2","","45","","32","","11","","16.1","","100.97","","","","","","NA"
"2014-08-28 13:00","2014","08","28","13:00","21.5","","6.5","","37","","35","","22","","16.1","","100.96","","","","","","NA"
"2014-08-28 14:00","2014","08","28","14:00","22.2","","6.2","","35","","34","","22","","16.1","","100.93","","","","","","NA"
"2014-08-28 15:00","2014","08","28","15:00","22.4","","5.2","","32","","34","","21","","16.1","","100.91","","","","","","NA"
"2014-08-28 16:00","2014","08","28","16:00","22.6","","5.4","","32","","32","","15","","16.1","","100.90","","","","","","NA"
"2014-08-28 17:00","2014","08","28","17:00","22.1","","5.4","","33","","31","","24","","16.1","","100.93","","","","","","NA"
"2014-08-28 18:00","2014","08","28","18:00","21.0","","6.2","","38","","35","","18","","16.1","","100.94","","","","","","NA"
"2014-08-28 19:00","2014","08","28","19:00","19.5","","4.2","","36","","32","","18","","16.1","","100.98","","","","","","NA"
"2014-08-28 20:00","2014","08","28","20:00","18.5","","5.6","","43","","33","","15","","16.1","","101.06","","","","","","NA"
"2014-08-28 21:00","2014","08","28","21:00","17.8","","6.4","","47","","34","","15","","16.1","","101.11","","","","","","NA"
"2014-08-28 22:00","2014","08","28","22:00","17.3","","6.9","","50","","35","","21","","16.1","","101.10","","","","","","NA"
"2014-08-28 23:00","2014","08","28","23:00","17.3","","7.3","","51","","33","","17","","16.1","","101.12","","","","","","NA"
"2014-08-29 00:00","2014","08","29","00:00","16.9","","8.2","","56","","34","","17","","16.1","","101.16","","","","","","NA"
"2014-08-29 01:00","2014","08","29","01:00","16.9","","8.7","","58","","33","","5","","16.1","","101.16","","","","","","NA"
"2014-08-29 02:00","2014","08","29","02:00","17.1","","11.2","","68","","","M","4","","16.1","","101.17","","","","","","NA"
"2014-08-29 03:00","2014","08","29","03:00","15.2","","11.2","","77","","","M","4","","16.1","","101.18","","","","","","NA"
"2014-08-29 04:00","2014","08","29","04:00","14.8","","11.0","","78","","","","0","","16.1","","101.16","","","","","","NA"
"2014-08-29 05:00","2014","08","29","05:00","15.1","","11.1","","77","","8","","5","","16.1","","101.20","","","","","","NA"
"2014-08-29 06:00","2014","08","29","06:00","14.4","","11.0","","80","","","M","4","","16.1","","101.26","","","","","","NA"
"2014-08-29 07:00","2014","08","29","07:00","16.4","","13.3","","82","","6","","9","","16.1","","101.31","","","","","","NA"
"2014-08-29 08:00","2014","08","29","08:00","17.1","","13.5","","79","","7","","11","","16.1","","101.30","","","","","","NA"
"2014-08-29 09:00","2014","08","29","09:00","18.8","","13.1","","69","","10","","13","","16.1","","101.30","","","","","","NA"
"2014-08-29 10:00","2014","08","29","10:00","19.3","","14.4","","73","","12","","15","","16.1","","101.32","","","","","","NA"
"2014-08-29 11:00","2014","08","29","11:00","20.1","","14.7","","71","","11","","11","","16.1","","101.33","","","","","","NA"
"2014-08-29 12:00","2014","08","29","12:00","20.0","","14.5","","70","","10","","11","","16.1","","101.28","","","","","","NA"
"2014-08-29 13:00","2014","08","29","13:00","20.6","","13.4","","63","","8","","15","","16.1","","101.24","","","","","","NA"
"2014-08-29 14:00","2014","08","29","14:00","20.4","","13.5","","64","","8","","17","","16.1","","101.18","","","","","","NA"
"2014-08-29 15:00","2014","08","29","15:00","20.5","","14.0","","66","","7","","15","","16.1","","101.12","","","","","","NA"
"2014-08-29 16:00","2014","08","29","16:00","20.3","","13.5","","65","","8","","18","","16.1","","101.09","","","","","","NA"
"2014-08-29 17:00","2014","08","29","17:00","19.3","","14.4","","73","","8","","21","","16.1","","101.05","","","","","","NA"
"2014-08-29 18:00","2014","08","29","18:00","19.1","","15.3","","79","","8","","17","","16.1","","101.05","","","","","","NA"
"2014-08-29 19:00","2014","08","29","19:00","19.0","","14.5","","75","","9","","18","","16.1","","101.01","","","","","","NA"
"2014-08-29 20:00","2014","08","29","20:00","19.0","","14.7","","76","","8","","17","","16.1","","101.01","","","","","","NA"
"2014-08-29 21:00","2014","08","29","21:00","18.9","","15.2","","79","","8","","15","","16.1","","101.00","","","","","","NA"
"2014-08-29 22:00","2014","08","29","22:00","18.8","","15.7","","82","","7","","18","","16.1","","101.00","","","","","","NA"
"2014-08-29 23:00","2014","08","29","23:00","18.7","","16.4","","86","","7","","15","","16.1","","100.99","","","","","","NA"
"2014-08-30 00:00","2014","08","30","00:00","18.8","","17.0","","89","","7","","15","","16.1","","100.95","","","","","","NA"
"2014-08-30 01:00","2014","08","30","01:00","18.8","","17.2","","90","","7","","11","","16.1","","100.91","","","","","","NA"
"2014-08-30 02:00","2014","08","30","02:00","18.5","","16.9","","90","","9","","5","","16.1","","100.87","","","","","","NA"
"2014-08-30 03:00","2014","08","30","03:00","18.6","","16.8","","89","","8","","5","","16.1","","100.84","","","","","","NA"
"2014-08-30 04:00","2014","08","30","04:00","18.4","","16.9","","91","","","M","4","","16.1","","100.79","","","","","","NA"
"2014-08-30 05:00","2014","08","30","05:00","18.7","","16.8","","89","","8","","4","","14.5","","100.79","","","","","","NA"
"2014-08-30 06:00","2014","08","30","06:00","19.0","","16.5","","85","","16","","8","","16.1","","100.81","","","","","","NA"
"2014-08-30 07:00","2014","08","30","07:00","19.8","","16.7","","82","","17","","8","","16.1","","100.80","","","","","","NA"
"2014-08-30 08:00","2014","08","30","08:00","20.3","","17.0","","81","","16","","8","","16.1","","100.78","","26","","","","NA"
"2014-08-30 09:00","2014","08","30","09:00","21.4","","16.6","","74","","16","","9","","16.1","","100.74","","26","","","","NA"
"2014-08-30 10:00","2014","08","30","10:00","20.2","","17.8","","86","","12","","11","","6.4","","100.74","","26","","","","Thunderstorms,Moderate Rain,Fog"
"2014-08-30 11:00","2014","08","30","11:00","20.9","","18.0","","83","","6","","11","","16.1","","100.67","","27","","","","NA"
"2014-08-30 12:00","2014","08","30","12:00","22.7","","18.7","","78","","7","","17","","16.1","","100.62","","29","","","","NA"
"2014-08-30 13:00","2014","08","30","13:00","22.8","","18.8","","78","","9","","15","","16.1","","100.59","","29","","","","NA"
"2014-08-30 14:00","2014","08","30","14:00","23.2","","18.6","","75","","10","","11","","16.1","","100.50","","30","","","","NA"
"2014-08-30 15:00","2014","08","30","15:00","22.8","","18.9","","78","","11","","13","","16.1","","100.42","","29","","","","NA"
"2014-08-30 16:00","2014","08","30","16:00","23.0","","19.3","","79","","8","","17","","16.1","","100.36","","30","","","","NA"
"2014-08-30 17:00","2014","08","30","17:00","24.1","","19.2","","74","","19","","13","","16.1","","100.30","","31","","","","NA"
"2014-08-30 18:00","2014","08","30","18:00","23.8","","19.4","","76","","22","","17","","16.1","","100.27","","31","","","","NA"
"2014-08-30 19:00","2014","08","30","19:00","22.6","","19.4","","82","","24","","8","","16.1","","100.28","","30","","","","NA"
"2014-08-30 20:00","2014","08","30","20:00","22.2","","19.2","","83","","23","","5","","16.1","","100.29","","29","","","","NA"
"2014-08-30 21:00","2014","08","30","21:00","23.3","","19.3","","78","","20","","18","","16.1","","100.30","","30","","","","NA"
"2014-08-30 22:00","2014","08","30","22:00","21.8","","19.2","","85","","26","","5","","16.1","","100.29","","29","","","","NA"
"2014-08-30 23:00","2014","08","30","23:00","22.0","","19.4","","85","","18","","17","","16.1","","100.26","","29","","","","NA"
"2014-08-31 00:00","2014","08","31","00:00","21.6","","19.4","","87","","19","","18","","16.1","","100.28","","29","","","","NA"
"2014-08-31 01:00","2014","08","31","01:00","21.3","","19.3","","88","","28","","8","","16.1","","100.30","","28","","","","NA"
"2014-08-31 02:00","2014","08","31","02:00","22.0","","19.6","","86","","23","","17","","16.1","","100.26","","29","","","","NA"
"2014-08-31 03:00","2014","08","31","03:00","21.4","","19.5","","89","","23","","13","","16.1","","100.26","","29","","","","NA"
"2014-08-31 04:00","2014","08","31","04:00","21.1","","19.4","","90","","21","","9","","16.1","","100.26","","28","","","","NA"
"2014-08-31 05:00","2014","08","31","05:00","21.2","","19.5","","90","","22","","11","","16.1","","100.29","","28","","","","NA"
"2014-08-31 06:00","2014","08","31","06:00","20.9","","19.6","","92","","26","","8","","16.1","","100.32","","28","","","","NA"
"2014-08-31 07:00","2014","08","31","07:00","21.3","","19.8","","91","","25","","9","","16.1","","100.34","","29","","","","NA"
"2014-08-31 08:00","2014","08","31","08:00","21.9","","20.2","","90","","22","","11","","14.5","","100.36","","30","","","","NA"
"2014-08-31 09:00","2014","08","31","09:00","23.3","","20.8","","86","","23","","13","","16.1","","100.36","","32","","","","NA"
"2014-08-31 10:00","2014","08","31","10:00","23.6","","20.2","","81","","21","","17","","16.1","","100.36","","31","","","","NA"
"2014-08-31 11:00","2014","08","31","11:00","24.7","","20.1","","75","","21","","15","","16.1","","100.34","","32","","","","NA"
"2014-08-31 12:00","2014","08","31","12:00","24.0","","19.9","","78","","20","","21","","16.1","","100.31","","31","","","","NA"
"2014-08-31 13:00","2014","08","31","13:00","23.7","","19.9","","79","","21","","22","","16.1","","100.32","","31","","","","NA"
"2014-08-31 14:00","2014","08","31","14:00","24.0","","19.7","","77","","22","","15","","16.1","","100.31","","31","","","","NA"
"2014-08-31 15:00","2014","08","31","15:00","24.7","","19.1","","71","","20","","21","","","M","100.27","","32","","","","NA"
"2014-08-31 16:00","2014","08","31","16:00","23.8","","19.4","","76","","20","","13","","16.1","","100.27","","31","","","","NA"
"2014-08-31 17:00","2014","08","31","17:00","28.0","","16.8","","50","","27","","22","","16.1","","100.31","","33","","","","NA"
"2014-08-31 18:00","2014","08","31","18:00","27.5","","17.0","","52","","28","","17","","16.1","","100.32","","33","","","","NA"
"2014-08-31 19:00","2014","08","31","19:00","26.1","","17.4","","58","","28","","15","","16.1","","100.37","","32","","","","NA"
"2014-08-31 20:00","2014","08","31","20:00","25.9","","17.7","","60","","30","","8","","16.1","","100.41","","32","","","","NA"
"2014-08-31 21:00","2014","08","31","21:00","25.2","","17.5","","62","","33","","9","","16.1","","100.41","","31","","","","NA"
"2014-08-31 22:00","2014","08","31","22:00","22.3","","18.6","","79","","22","","5","","16.1","","100.43","","29","","","","NA"
"2014-08-31 23:00","2014","08","31","23:00","21.4","","18.0","","81","","10","","9","","16.1","","100.45","","27","","","","NA"
