"Station Name","TORONTO CITY CENTRE"
"Province","ONTARIO"
"Latitude","43.63"
"Longitude","-79.40"
"Elevation","76.80"
"Climate Identifier","6158359"
"WMO Identifier","71265"
"TC Identifier","YTZ"
"All times are specified in Local Standard Time (LST). Add 1 hour to adjust for Daylight Saving Time where and when it is observed."

"Legend"
"E","Estimated"
"M","Missing"
"NA","Not Available"

"Date/Time","Year","Month","Day","Time","Temp (°C)","Temp Flag","Dew Point Temp (°C)","Dew Point Temp Flag","Rel Hum (%)","Rel Hum Flag","Wind Dir (10s deg)","Wind Dir Flag","Wind Spd (km/h)","Wind Spd Flag","Visibility (km)","Visibility Flag","Stn Press (kPa)","Stn Press Flag","Hmdx","Hmdx Flag","Wind Chill","Wind Chill Flag","Weather"
"2013-12-01 00:00","2013","12","01","00:00","3.1","","-0.2","","79","","24","","11","","16.1","","101.16","","","","","","NA"
"2013-12-01 01:00","2013","12","01","01:00","3.4","","0.3","","80","","23","","13","","16.1","","101.11","","","","","","NA"
"2013-12-01 02:00","2013","12","01","02:00","3.2","","0.3","","81","","23","","8","","16.1","","101.06","","","","","","NA"
"2013-12-01 03:00","2013","12","01","03:00","3.2","","-0.4","","77","","26","","4","","16.1","","101.03","","","","","","NA"
"2013-12-01 04:00","2013","12","01","04:00","2.9","","0.3","","83","","21","","9","","16.1","","100.96","","","","","","NA"
"2013-12-01 05:00","2013","12","01","05:00","2.4","","0.1","","85","","","M","4","","16.1","","100.92","","","","","","NA"
"2013-12-01 06:00","2013","12","01","06:00","3.1","","0.1","","80","","3","","4","","16.1","","100.90","","","","","","NA"
"2013-12-01 07:00","2013","12","01","07:00","1.7","","0.2","","90","","6","","4","","16.1","","100.87","","","","","","NA"
"2013-12-01 08:00","2013","12","01","08:00","1.8","","-0.2","","87","","","","0","","16.1","","100.87","","","","","","NA"
"2013-12-01 09:00","2013","12","01","09:00","2.9","","1.0","","87","","10","","5","","16.1","","100.84","","","","","","NA"
"2013-12-01 10:00","2013","12","01","10:00","3.5","","1.7","","88","","7","","11","","16.1","","100.80","","","","","","NA"
"2013-12-01 11:00","2013","12","01","11:00","4.5","","3.2","","91","","17","","5","","11.3","","100.78","","","","","","NA"
"2013-12-01 12:00","2013","12","01","12:00","4.0","","3.3","","95","","26","","8","","8.1","","100.75","","","","","","NA"
"2013-12-01 13:00","2013","12","01","13:00","3.7","","2.3","","90","","26","","8","","8.1","","100.71","","","","","","NA"
"2013-12-01 14:00","2013","12","01","14:00","3.4","","2.0","","90","","27","","5","","8.1","","100.64","","","","","","NA"
"2013-12-01 15:00","2013","12","01","15:00","3.6","","1.7","","88","","","M","4","","9.7","","100.63","","","","","","NA"
"2013-12-01 16:00","2013","12","01","16:00","2.7","","2.4","","98","","","","0","","2.0","","100.61","","","","","","NA"
"2013-12-01 17:00","2013","12","01","17:00","2.9","","2.2","","95","","","","0","","4.8","","100.61","","","","","","NA"
"2013-12-01 18:00","2013","12","01","18:00","2.8","","2.2","","96","","","","0","","4.8","","100.61","","","","","","NA"
"2013-12-01 19:00","2013","12","01","19:00","3.0","","2.4","","96","","","M","4","","4.8","","100.61","","","","","","NA"
"2013-12-01 20:00","2013","12","01","20:00","2.5","","2.4","","99","","","","0","","2.8","","100.58","","","","","","NA"
"2013-12-01 21:00","2013","12","01","21:00","3.3","","2.6","","95","","29","","4","","4.8","","100.55","","","","","","NA"
"2013-12-01 22:00","2013","12","01","22:00","3.6","","1.8","","88","","28","","8","","8.1","","100.53","","","","","","NA"
"2013-12-01 23:00","2013","12","01","23:00","3.6","","1.8","","88","","27","","8","","6.4","","100.48","","","","","","NA"
"2013-12-02 00:00","2013","12","02","00:00","3.5","","1.9","","89","","32","","8","","6.4","","100.45","","","","","","NA"
"2013-12-02 01:00","2013","12","02","01:00","3.6","","1.8","","88","","29","","4","","4.8","","100.43","","","","","","NA"
"2013-12-02 02:00","2013","12","02","02:00","3.0","","1.9","","93","","29","","8","","2.8","","100.41","","","","","","NA"
"2013-12-02 03:00","2013","12","02","03:00","2.9","","2.0","","94","","28","","9","","2.8","","100.39","","","","","","NA"
"2013-12-02 04:00","2013","12","02","04:00","2.7","","1.7","","93","","28","","8","","2.8","","100.36","","","","","","NA"
"2013-12-02 05:00","2013","12","02","05:00","2.7","","1.5","","92","","27","","11","","2.8","","100.36","","","","","","NA"
"2013-12-02 06:00","2013","12","02","06:00","2.7","","1.4","","91","","27","","11","","3.6","","100.36","","","","","","NA"
"2013-12-02 07:00","2013","12","02","07:00","2.8","","1.4","","91","","28","","9","","4.0","","100.36","","","","","","NA"
"2013-12-02 08:00","2013","12","02","08:00","2.9","","1.7","","92","","33","","9","","4.8","","100.36","","","","","","NA"
"2013-12-02 09:00","2013","12","02","09:00","3.0","","1.5","","90","","32","","9","","9.7","","100.35","","","","","","NA"
"2013-12-02 10:00","2013","12","02","10:00","2.9","","0.5","","84","","30","","9","","16.1","","100.36","","","","","","NA"
"2013-12-02 11:00","2013","12","02","11:00","2.9","","-0.2","","80","","33","","11","","16.1","","100.36","","","","","","NA"
"2013-12-02 12:00","2013","12","02","12:00","2.9","","-0.2","","80","","29","","13","","16.1","","100.32","","","","","","NA"
"2013-12-02 13:00","2013","12","02","13:00","3.0","","-1.3","","73","","31","","18","","16.1","","100.27","","","","","","NA"
"2013-12-02 14:00","2013","12","02","14:00","2.8","","-1.4","","74","","32","","11","","16.1","","100.27","","","","","","NA"
"2013-12-02 15:00","2013","12","02","15:00","2.9","","-2.0","","70","","33","","8","","16.1","","100.24","","","","","","NA"
"2013-12-02 16:00","2013","12","02","16:00","2.9","","-1.1","","75","","25","","5","","16.1","","100.27","","","","","","NA"
"2013-12-02 17:00","2013","12","02","17:00","2.9","","-1.8","","71","","26","","5","","16.1","","100.30","","","","","","NA"
"2013-12-02 18:00","2013","12","02","18:00","2.6","","-3.4","","65","","27","","15","","16.1","","100.36","","","","","","NA"
"2013-12-02 19:00","2013","12","02","19:00","2.6","","-3.4","","65","","28","","9","","16.1","","100.38","","","","","","NA"
"2013-12-02 20:00","2013","12","02","20:00","2.6","","-3.2","","66","","32","","9","","16.1","","100.39","","","","","","NA"
"2013-12-02 21:00","2013","12","02","21:00","2.3","","-2.8","","69","","31","","13","","16.1","","100.42","","","","","","NA"
"2013-12-02 22:00","2013","12","02","22:00","2.0","","-3.5","","67","","30","","13","","16.1","","100.41","","","","","","NA"
"2013-12-02 23:00","2013","12","02","23:00","2.0","","-4.2","","63","","30","","9","","16.1","","100.42","","","","","","NA"
"2013-12-03 00:00","2013","12","03","00:00","1.5","","-4.6","","64","","32","","9","","16.1","","100.42","","","","","","NA"
"2013-12-03 01:00","2013","12","03","01:00","1.4","","-5.0","","63","","31","","11","","16.1","","100.45","","","","","","NA"
"2013-12-03 02:00","2013","12","03","02:00","0.9","","-5.6","","62","","31","","9","","16.1","","100.43","","","","","","NA"
"2013-12-03 03:00","2013","12","03","03:00","1.0","","-5.7","","61","","31","","5","","16.1","","100.47","","","","","","NA"
"2013-12-03 04:00","2013","12","03","04:00","0.5","","-4.7","","68","","31","","8","","16.1","","100.46","","","","","","NA"
"2013-12-03 05:00","2013","12","03","05:00","0.0","","-4.1","","74","","33","","5","","16.1","","100.48","","","","-2","","NA"
"2013-12-03 06:00","2013","12","03","06:00","-1.1","","-4.1","","80","","","M","","M","16.1","","100.52","","","","","","NA"
"2013-12-03 07:00","2013","12","03","07:00","-1.9","","-4.1","","85","","","","0","","16.1","","100.51","","","","","","NA"
"2013-12-03 08:00","2013","12","03","08:00","-0.3","","-3.7","","78","","31","","8","","16.1","","100.57","","","","-3","","NA"
"2013-12-03 09:00","2013","12","03","09:00","0.3","","-3.6","","75","","32","","8","","16.1","","100.63","","","","","","NA"
"2013-12-03 10:00","2013","12","03","10:00","2.1","","-3.9","","65","","","","0","","16.1","","100.65","","","","","","NA"
"2013-12-03 11:00","2013","12","03","11:00","2.0","","-3.3","","68","","21","","9","","16.1","","100.67","","","","","","NA"
"2013-12-03 12:00","2013","12","03","12:00","2.8","","-3.6","","63","","19","","11","","16.1","","100.56","","","","","","NA"
"2013-12-03 13:00","2013","12","03","13:00","2.7","","-4.3","","60","","17","","13","","16.1","","100.55","","","","","","NA"
"2013-12-03 14:00","2013","12","03","14:00","3.0","","-4.3","","59","","16","","9","","16.1","","100.54","","","","","","NA"
"2013-12-03 15:00","2013","12","03","15:00","2.9","","-3.7","","62","","16","","8","","16.1","","100.59","","","","","","NA"
"2013-12-03 16:00","2013","12","03","16:00","2.2","","-3.1","","68","","14","","5","","16.1","","100.60","","","","","","NA"
"2013-12-03 17:00","2013","12","03","17:00","2.1","","-2.9","","70","","8","","5","","16.1","","100.62","","","","","","NA"
"2013-12-03 18:00","2013","12","03","18:00","1.8","","-1.8","","77","","7","","8","","16.1","","100.64","","","","","","NA"
"2013-12-03 19:00","2013","12","03","19:00","2.1","","-1.7","","76","","6","","11","","16.1","","100.67","","","","","","NA"
"2013-12-03 20:00","2013","12","03","20:00","2.4","","-2.1","","72","","6","","13","","16.1","","100.66","","","","","","NA"
"2013-12-03 21:00","2013","12","03","21:00","2.4","","-2.5","","70","","6","","17","","16.1","","100.66","","","","","","NA"
"2013-12-03 22:00","2013","12","03","22:00","2.2","","-2.8","","70","","7","","22","","16.1","","100.66","","","","","","NA"
"2013-12-03 23:00","2013","12","03","23:00","2.4","","-0.8","","80","","6","","24","","16.1","","100.66","","","","","","NA"
"2013-12-04 00:00","2013","12","04","00:00","2.6","","0.1","","83","","7","","22","","16.1","","100.63","","","","","","NA"
"2013-12-04 01:00","2013","12","04","01:00","2.4","","-0.5","","81","","6","","26","","16.1","","100.60","","","","","","NA"
"2013-12-04 02:00","2013","12","04","02:00","2.2","","-0.1","","85","","7","","30","","16.1","","100.63","","","","","","NA"
"2013-12-04 03:00","2013","12","04","03:00","1.8","","0.1","","89","","6","","30","","16.1","","100.68","","","","","","NA"
"2013-12-04 04:00","2013","12","04","04:00","1.8","","0.3","","90","","6","","32","","16.1","","100.63","","","","","","NA"
"2013-12-04 05:00","2013","12","04","05:00","2.0","","0.7","","91","","6","","37","","16.1","","100.58","","","","","","NA"
"2013-12-04 06:00","2013","12","04","06:00","1.9","","0.6","","91","","6","","33","","16.1","","100.60","","","","","","NA"
"2013-12-04 07:00","2013","12","04","07:00","2.2","","1.2","","93","","6","","30","","16.1","","100.62","","","","","","NA"
"2013-12-04 08:00","2013","12","04","08:00","2.6","","1.6","","93","","6","","28","","14.5","","100.71","","","","","","NA"
"2013-12-04 09:00","2013","12","04","09:00","2.7","","1.8","","94","","7","","35","","14.5","","100.65","","","","","","NA"
"2013-12-04 10:00","2013","12","04","10:00","3.1","","2.1","","93","","6","","35","","14.5","","100.69","","","","","","NA"
"2013-12-04 11:00","2013","12","04","11:00","3.7","","2.5","","92","","6","","28","","11.3","","100.72","","","","","","NA"
"2013-12-04 12:00","2013","12","04","12:00","3.8","","2.6","","92","","6","","32","","11.3","","100.64","","","","","","NA"
"2013-12-04 13:00","2013","12","04","13:00","3.7","","2.3","","91","","6","","32","","11.3","","100.59","","","","","","NA"
"2013-12-04 14:00","2013","12","04","14:00","3.5","","2.0","","90","","6","","35","","12.9","","100.52","","","","","","NA"
"2013-12-04 15:00","2013","12","04","15:00","3.2","","2.0","","92","","7","","37","","12.9","","100.49","","","","","","NA"
"2013-12-04 16:00","2013","12","04","16:00","3.2","","1.9","","91","","7","","30","","16.1","","100.56","","","","","","NA"
"2013-12-04 17:00","2013","12","04","17:00","3.3","","1.7","","89","","7","","33","","16.1","","100.53","","","","","","NA"
"2013-12-04 18:00","2013","12","04","18:00","3.4","","1.3","","86","","6","","33","","16.1","","100.56","","","","","","NA"
"2013-12-04 19:00","2013","12","04","19:00","3.2","","1.1","","86","","6","","39","","16.1","","100.45","","","","","","NA"
"2013-12-04 20:00","2013","12","04","20:00","3.0","","0.9","","86","","6","","41","","16.1","","100.39","","","","","","NA"
"2013-12-04 21:00","2013","12","04","21:00","3.0","","1.2","","88","","7","","41","","16.1","","100.33","","","","","","NA"
"2013-12-04 22:00","2013","12","04","22:00","3.2","","1.7","","90","","7","","41","","16.1","","100.22","","","","","","NA"
"2013-12-04 23:00","2013","12","04","23:00","3.7","","2.4","","91","","6","","35","","12.9","","100.24","","","","","","NA"
"2013-12-05 00:00","2013","12","05","00:00","4.1","","3.4","","95","","6","","30","","4.8","","100.09","","","","","","NA"
"2013-12-05 01:00","2013","12","05","01:00","4.5","","3.8","","95","","7","","30","","4.8","","99.98","","","","","","NA"
"2013-12-05 02:00","2013","12","05","02:00","4.9","","4.0","","94","","7","","22","","4.8","","99.89","","","","","","NA"
"2013-12-05 03:00","2013","12","05","03:00","5.2","","4.2","","93","","7","","22","","4.8","","99.77","","","","","","NA"
"2013-12-05 04:00","2013","12","05","04:00","5.6","","4.4","","92","","7","","18","","6.4","","99.71","","","","","","NA"
"2013-12-05 05:00","2013","12","05","05:00","5.7","","4.5","","92","","7","","22","","4.8","","99.65","","","","","","NA"
"2013-12-05 06:00","2013","12","05","06:00","6.5","","5.0","","90","","8","","15","","6.4","","99.65","","","","","","NA"
"2013-12-05 07:00","2013","12","05","07:00","6.8","","5.1","","89","","8","","11","","6.4","","99.65","","","","","","NA"
"2013-12-05 08:00","2013","12","05","08:00","5.7","","4.8","","94","","7","","11","","4.8","","99.67","","","","","","NA"
"2013-12-05 09:00","2013","12","05","09:00","8.5","","7.0","","90","","23","","5","","11.3","","99.70","","","","","","NA"
"2013-12-05 10:00","2013","12","05","10:00","8.2","","7.0","","92","","25","","13","","11.3","","99.68","","","","","","NA"
"2013-12-05 11:00","2013","12","05","11:00","8.3","","7.2","","93","","25","","13","","8.1","","99.68","","","","","","NA"
"2013-12-05 12:00","2013","12","05","12:00","9.4","","7.4","","87","","24","","13","","11.3","","99.66","","","","","","NA"
"2013-12-05 13:00","2013","12","05","13:00","9.5","","6.3","","81","","23","","21","","12.9","","99.62","","","","","","NA"
"2013-12-05 14:00","2013","12","05","14:00","11.7","","6.6","","71","","26","","32","","16.1","","99.66","","","","","","NA"
"2013-12-05 15:00","2013","12","05","15:00","11.0","","5.6","","69","","28","","37","","16.1","","99.83","","","","","","NA"
"2013-12-05 16:00","2013","12","05","16:00","9.1","","3.2","","67","","28","","37","","16.1","","100.02","","","","","","NA"
"2013-12-05 17:00","2013","12","05","17:00","7.1","","1.2","","66","","28","","30","","16.1","","100.20","","","","","","NA"
"2013-12-05 18:00","2013","12","05","18:00","5.8","","-1.2","","61","","27","","33","","16.1","","100.36","","","","","","NA"
"2013-12-05 19:00","2013","12","05","19:00","5.5","","-1.0","","63","","26","","30","","16.1","","100.47","","","","","","NA"
"2013-12-05 20:00","2013","12","05","20:00","5.1","","-1.4","","63","","26","","26","","16.1","","100.50","","","","","","NA"
"2013-12-05 21:00","2013","12","05","21:00","4.9","","-1.7","","62","","26","","28","","16.1","","100.60","","","","","","NA"
"2013-12-05 22:00","2013","12","05","22:00","4.7","","-2.0","","62","","27","","21","","16.1","","100.70","","","","","","NA"
"2013-12-05 23:00","2013","12","05","23:00","4.0","","-3.7","","57","","27","","32","","16.1","","100.65","","","","","","NA"
"2013-12-06 00:00","2013","12","06","00:00","3.5","","-3.3","","61","","27","","28","","16.1","","100.72","","","","","","NA"
"2013-12-06 01:00","2013","12","06","01:00","3.1","","-3.4","","62","","27","","21","","16.1","","100.72","","","","","","NA"
"2013-12-06 02:00","2013","12","06","02:00","2.7","","-4.6","","59","","27","","22","","16.1","","100.81","","","","","","NA"
"2013-12-06 03:00","2013","12","06","03:00","2.4","","-4.6","","60","","28","","21","","16.1","","100.85","","","","","","NA"
"2013-12-06 04:00","2013","12","06","04:00","1.8","","-5.0","","61","","29","","18","","16.1","","100.85","","","","","","NA"
"2013-12-06 05:00","2013","12","06","05:00","1.5","","-4.8","","63","","27","","18","","16.1","","100.98","","","","","","NA"
"2013-12-06 06:00","2013","12","06","06:00","1.1","","-5.5","","61","","29","","22","","16.1","","101.02","","","","","","NA"
"2013-12-06 07:00","2013","12","06","07:00","1.0","","-5.6","","62","","28","","21","","16.1","","101.11","","","","","","NA"
"2013-12-06 08:00","2013","12","06","08:00","1.0","","-5.5","","62","","28","","17","","16.1","","101.17","","","","","","NA"
"2013-12-06 09:00","2013","12","06","09:00","1.0","","-5.9","","60","","31","","18","","16.1","","101.20","","","","","","NA"
"2013-12-06 10:00","2013","12","06","10:00","1.2","","-6.0","","59","","32","","21","","16.1","","101.25","","","","","","NA"
"2013-12-06 11:00","2013","12","06","11:00","1.2","","-6.5","","57","","33","","15","","16.1","","101.31","","","","","","NA"
"2013-12-06 12:00","2013","12","06","12:00","0.9","","-6.6","","57","","27","","17","","16.1","","101.30","","","","","","NA"
"2013-12-06 13:00","2013","12","06","13:00","0.8","","-7.7","","53","","27","","17","","16.1","","101.34","","","","","","NA"
"2013-12-06 14:00","2013","12","06","14:00","0.9","","-7.3","","54","","28","","21","","16.1","","101.28","","","","","","NA"
"2013-12-06 15:00","2013","12","06","15:00","0.7","","-7.7","","54","","29","","13","","16.1","","101.26","","","","","","NA"
"2013-12-06 16:00","2013","12","06","16:00","0.5","","-7.6","","55","","28","","21","","16.1","","101.30","","","","","","NA"
"2013-12-06 17:00","2013","12","06","17:00","0.3","","-7.5","","56","","31","","15","","16.1","","101.35","","","","","","NA"
"2013-12-06 18:00","2013","12","06","18:00","0.0","","-7.3","","58","","30","","15","","16.1","","101.35","","","","-4","","NA"
"2013-12-06 19:00","2013","12","06","19:00","-0.1","","-7.1","","59","","28","","21","","16.1","","101.43","","","","-6","","NA"
"2013-12-06 20:00","2013","12","06","20:00","-0.4","","-7.1","","61","","30","","17","","16.1","","101.46","","","","-5","","NA"
"2013-12-06 21:00","2013","12","06","21:00","-0.8","","-8.0","","58","","29","","24","","16.1","","101.50","","","","-7","","NA"
"2013-12-06 22:00","2013","12","06","22:00","-0.9","","-8.6","","56","","31","","13","","16.1","","101.52","","","","-5","","NA"
"2013-12-06 23:00","2013","12","06","23:00","-1.1","","-8.8","","56","","32","","21","","16.1","","101.58","","","","-7","","NA"
"2013-12-07 00:00","2013","12","07","00:00","-1.2","","-9.1","","55","","31","","13","","16.1","","101.57","","","","-5","","NA"
"2013-12-07 01:00","2013","12","07","01:00","-1.1","","-9.0","","55","","27","","15","","16.1","","101.64","","","","-6","","NA"
"2013-12-07 02:00","2013","12","07","02:00","-1.2","","-8.4","","58","","27","","17","","16.1","","101.64","","","","-6","","NA"
"2013-12-07 03:00","2013","12","07","03:00","-1.3","","-7.8","","62","","26","","13","","16.1","","101.68","","","","-6","","NA"
"2013-12-07 04:00","2013","12","07","04:00","-1.5","","-8.5","","59","","31","","18","","16.1","","101.71","","","","-7","","NA"
"2013-12-07 05:00","2013","12","07","05:00","-1.9","","-10.3","","53","","30","","24","","16.1","","101.77","","","","-8","","NA"
"2013-12-07 06:00","2013","12","07","06:00","-2.7","","-10.5","","55","","28","","24","","16.1","","101.86","","","","-9","","NA"
"2013-12-07 07:00","2013","12","07","07:00","-3.0","","-11.0","","54","","27","","21","","16.1","","101.93","","","","-9","","NA"
"2013-12-07 08:00","2013","12","07","08:00","-2.6","","-10.0","","57","","27","","22","","16.1","","101.99","","","","-9","","NA"
"2013-12-07 09:00","2013","12","07","09:00","-2.2","","-11.4","","50","","28","","30","","16.1","","102.07","","","","-9","","NA"
"2013-12-07 10:00","2013","12","07","10:00","-1.9","","-11.2","","49","","30","","22","","16.1","","102.13","","","","-8","","NA"
"2013-12-07 11:00","2013","12","07","11:00","-1.7","","-10.3","","52","","27","","24","","16.1","","102.16","","","","-8","","NA"
"2013-12-07 12:00","2013","12","07","12:00","-1.3","","-10.5","","50","","28","","22","","16.1","","102.14","","","","-7","","NA"
"2013-12-07 13:00","2013","12","07","13:00","-0.8","","-12.7","","41","","28","","26","","16.1","","102.17","","","","-7","","NA"
"2013-12-07 14:00","2013","12","07","14:00","-1.2","","-12.5","","42","","28","","33","","16.1","","102.18","","","","-8","","NA"
"2013-12-07 15:00","2013","12","07","15:00","-1.4","","-11.2","","47","","28","","22","","16.1","","102.21","","","","-7","","NA"
"2013-12-07 16:00","2013","12","07","16:00","-1.9","","-11.5","","48","","28","","28","","16.1","","102.27","","","","-9","","NA"
"2013-12-07 17:00","2013","12","07","17:00","-2.7","","-11.6","","51","","27","","26","","16.1","","102.33","","","","-10","","NA"
"2013-12-07 18:00","2013","12","07","18:00","-3.0","","-12.1","","50","","27","","28","","16.1","","102.40","","","","-10","","NA"
"2013-12-07 19:00","2013","12","07","19:00","-3.4","","-8.9","","66","","27","","22","","16.1","","102.45","","","","-10","","NA"
"2013-12-07 20:00","2013","12","07","20:00","-3.4","","-10.8","","57","","28","","24","","16.1","","102.52","","","","-10","","NA"
"2013-12-07 21:00","2013","12","07","21:00","-4.4","","-10.2","","64","","27","","21","","16.1","","102.53","","","","-11","","NA"
"2013-12-07 22:00","2013","12","07","22:00","-4.7","","-10.0","","67","","25","","18","","16.1","","102.53","","","","-11","","NA"
"2013-12-07 23:00","2013","12","07","23:00","-4.9","","-10.1","","67","","26","","18","","16.1","","102.57","","","","-11","","NA"
"2013-12-08 00:00","2013","12","08","00:00","-5.1","","-10.0","","69","","25","","18","","16.1","","102.58","","","","-11","","NA"
"2013-12-08 01:00","2013","12","08","01:00","-5.2","","-10.2","","68","","26","","22","","16.1","","102.54","","","","-12","","NA"
"2013-12-08 02:00","2013","12","08","02:00","-5.4","","-9.4","","74","","26","","18","","16.1","","102.53","","","","-12","","NA"
"2013-12-08 03:00","2013","12","08","03:00","-5.4","","-10.5","","67","","27","","22","","16.1","","102.56","","","","-12","","NA"
"2013-12-08 04:00","2013","12","08","04:00","-5.2","","-10.6","","66","","28","","18","","16.1","","102.55","","","","-11","","NA"
"2013-12-08 05:00","2013","12","08","05:00","-5.4","","-11.4","","63","","29","","18","","16.1","","102.55","","","","-12","","NA"
"2013-12-08 06:00","2013","12","08","06:00","-5.4","","-11.7","","62","","31","","11","","16.1","","102.55","","","","-10","","NA"
"2013-12-08 07:00","2013","12","08","07:00","-5.6","","-11.3","","64","","31","","15","","16.1","","102.58","","","","-11","","NA"
"2013-12-08 08:00","2013","12","08","08:00","-5.5","","-10.9","","66","","29","","9","","16.1","","102.57","","","","-10","","NA"
"2013-12-08 09:00","2013","12","08","09:00","-5.0","","-11.5","","61","","32","","11","","16.1","","102.57","","","","-10","","NA"
"2013-12-08 10:00","2013","12","08","10:00","-4.1","","-11.7","","56","","32","","11","","16.1","","102.57","","","","-9","","NA"
"2013-12-08 11:00","2013","12","08","11:00","-3.9","","-12.4","","52","","32","","4","","16.1","","102.56","","","","-6","","NA"
"2013-12-08 12:00","2013","12","08","12:00","-3.4","","-11.9","","52","","8","","11","","16.1","","102.40","","","","-8","","NA"
"2013-12-08 13:00","2013","12","08","13:00","-3.2","","-11.1","","55","","7","","8","","16.1","","102.34","","","","-6","","NA"
"2013-12-08 14:00","2013","12","08","14:00","-2.9","","-9.8","","59","","9","","9","","16.1","","102.30","","","","-6","","NA"
"2013-12-08 15:00","2013","12","08","15:00","-2.7","","-8.2","","66","","8","","11","","16.1","","102.19","","","","-7","","NA"
"2013-12-08 16:00","2013","12","08","16:00","-2.6","","-7.6","","69","","7","","21","","16.1","","102.15","","","","-9","","NA"
"2013-12-08 17:00","2013","12","08","17:00","-2.1","","-7.8","","65","","9","","17","","16.1","","102.07","","","","-7","","NA"
"2013-12-08 18:00","2013","12","08","18:00","-1.4","","-8.1","","60","","8","","24","","16.1","","101.93","","","","-8","","NA"
"2013-12-08 19:00","2013","12","08","19:00","-0.8","","-8.9","","55","","9","","28","","16.1","","101.82","","","","-7","","NA"
"2013-12-08 20:00","2013","12","08","20:00","-0.2","","-9.4","","50","","10","","26","","16.1","","101.75","","","","-6","","NA"
"2013-12-08 21:00","2013","12","08","21:00","-0.4","","-8.8","","53","","11","","26","","16.1","","101.64","","","","-7","","NA"
"2013-12-08 22:00","2013","12","08","22:00","-0.8","","-7.6","","60","","9","","26","","16.1","","101.44","","","","-7","","NA"
"2013-12-08 23:00","2013","12","08","23:00","-1.0","","-5.9","","69","","10","","24","","16.1","","101.37","","","","-7","","NA"
"2013-12-09 00:00","2013","12","09","00:00","-0.8","","-5.2","","72","","11","","22","","16.1","","101.24","","","","-7","","NA"
"2013-12-09 01:00","2013","12","09","01:00","-0.9","","-4.6","","76","","11","","21","","16.1","","101.02","","","","-7","","NA"
"2013-12-09 02:00","2013","12","09","02:00","-1.6","","-2.9","","91","","10","","18","","2.8","","100.88","","","","-7","","NA"
"2013-12-09 03:00","2013","12","09","03:00","-1.2","","-2.6","","90","","10","","22","","6.4","","100.67","","","","-7","","NA"
"2013-12-09 04:00","2013","12","09","04:00","-0.8","","-2.4","","89","","10","","17","","16.1","","100.50","","","","-6","","NA"
"2013-12-09 05:00","2013","12","09","05:00","-0.5","","-1.6","","92","","11","","17","","16.1","","100.38","","","","-5","","NA"
"2013-12-09 06:00","2013","12","09","06:00","-0.2","","-1.3","","92","","13","","11","","11.3","","100.27","","","","-4","","NA"
"2013-12-09 07:00","2013","12","09","07:00","0.0","","-0.9","","94","","14","","9","","9.7","","100.16","","","","-3","","NA"
"2013-12-09 08:00","2013","12","09","08:00","0.7","","0.1","","96","","19","","9","","8.1","","100.13","","","","","","NA"
"2013-12-09 09:00","2013","12","09","09:00","1.8","","0.9","","94","","21","","22","","14.5","","100.10","","","","","","NA"
"2013-12-09 10:00","2013","12","09","10:00","2.1","","1.2","","94","","23","","32","","16.1","","100.10","","","","","","NA"
"2013-12-09 11:00","2013","12","09","11:00","2.4","","-0.4","","82","","24","","42","","16.1","","100.12","","","","","","NA"
"2013-12-09 12:00","2013","12","09","12:00","1.5","","-1.1","","83","","25","","48","","16.1","","100.15","","","","","","NA"
"2013-12-09 13:00","2013","12","09","13:00","1.1","","-2.6","","77","","25","","35","","16.1","","100.20","","","","","","NA"
"2013-12-09 14:00","2013","12","09","14:00","1.2","","-2.6","","76","","24","","46","","16.1","","100.18","","","","","","NA"
"2013-12-09 15:00","2013","12","09","15:00","1.1","","-3.0","","74","","25","","37","","16.1","","100.18","","","","","","NA"
"2013-12-09 16:00","2013","12","09","16:00","0.9","","-3.5","","72","","25","","37","","16.1","","100.32","","","","","","NA"
"2013-12-09 17:00","2013","12","09","17:00","0.5","","-3.0","","77","","23","","35","","16.1","","100.38","","","","","","NA"
"2013-12-09 18:00","2013","12","09","18:00","0.7","","-4.5","","68","","24","","58","","16.1","","100.43","","","","","","NA"
"2013-12-09 19:00","2013","12","09","19:00","0.3","","-4.3","","71","","25","","41","","16.1","","100.50","","","","","","NA"
"2013-12-09 20:00","2013","12","09","20:00","0.0","","-6.1","","63","","24","","50","","16.1","","100.50","","","","-8","","NA"
"2013-12-09 21:00","2013","12","09","21:00","-0.4","","-6.3","","64","","24","","45","","16.1","","100.51","","","","-8","","NA"
"2013-12-09 22:00","2013","12","09","22:00","-0.8","","-7.0","","63","","24","","46","","16.1","","100.56","","","","-9","","NA"
"2013-12-09 23:00","2013","12","09","23:00","-1.2","","-6.9","","65","","25","","46","","16.1","","100.58","","","","-9","","NA"
"2013-12-10 00:00","2013","12","10","00:00","-2.0","","-8.3","","62","","25","","35","","16.1","","100.58","","","","-10","","NA"
"2013-12-10 01:00","2013","12","10","01:00","-2.5","","-9.0","","61","","25","","42","","16.1","","100.57","","","","-11","","NA"
"2013-12-10 02:00","2013","12","10","02:00","-3.0","","-9.4","","61","","25","","41","","16.1","","100.62","","","","-11","","NA"
"2013-12-10 03:00","2013","12","10","03:00","-3.7","","-9.0","","67","","26","","32","","16.1","","100.68","","","","-12","","NA"
"2013-12-10 04:00","2013","12","10","04:00","-4.4","","-12.0","","56","","28","","45","","16.1","","100.74","","","","-14","","NA"
"2013-12-10 05:00","2013","12","10","05:00","-5.0","","-12.2","","57","","27","","35","","16.1","","100.73","","","","-14","","NA"
"2013-12-10 06:00","2013","12","10","06:00","-6.0","","-13.6","","55","","27","","32","","16.1","","100.75","","","","-15","","NA"
"2013-12-10 07:00","2013","12","10","07:00","-6.8","","-13.8","","58","","27","","28","","16.1","","100.77","","","","-15","","NA"
"2013-12-10 08:00","2013","12","10","08:00","-7.4","","-13.5","","62","","28","","26","","16.1","","100.73","","","","-16","","NA"
"2013-12-10 09:00","2013","12","10","09:00","-7.4","","-13.0","","65","","25","","32","","16.1","","100.76","","","","-16","","NA"
"2013-12-10 10:00","2013","12","10","10:00","-6.8","","-13.8","","58","","28","","24","","16.1","","100.75","","","","-14","","NA"
"2013-12-10 11:00","2013","12","10","11:00","-6.9","","-14.5","","55","","28","","26","","16.1","","100.69","","","","-15","","NA"
"2013-12-10 12:00","2013","12","10","12:00","-5.7","","-13.7","","54","","26","","26","","16.1","","100.60","","","","-13","","NA"
"2013-12-10 13:00","2013","12","10","13:00","-5.6","","-14.3","","51","","27","","30","","16.1","","100.55","","","","-14","","NA"
"2013-12-10 14:00","2013","12","10","14:00","-5.7","","-13.8","","53","","24","","30","","16.1","","100.48","","","","-14","","NA"
"2013-12-10 15:00","2013","12","10","15:00","-5.0","","-14.6","","47","","26","","28","","16.1","","100.43","","","","-13","","NA"
"2013-12-10 16:00","2013","12","10","16:00","-5.3","","-13.5","","53","","26","","24","","16.1","","100.41","","","","-13","","NA"
"2013-12-10 17:00","2013","12","10","17:00","-5.2","","-10.6","","66","","26","","30","","16.1","","100.46","","","","-13","","NA"
"2013-12-10 18:00","2013","12","10","18:00","-5.7","","-11.2","","66","","26","","30","","16.1","","100.50","","","","-14","","NA"
"2013-12-10 19:00","2013","12","10","19:00","-5.6","","-11.4","","64","","25","","39","","16.1","","100.54","","","","-15","","NA"
"2013-12-10 20:00","2013","12","10","20:00","-5.5","","-13.3","","55","","25","","42","","16.1","","100.57","","","","-15","","NA"
"2013-12-10 21:00","2013","12","10","21:00","-5.6","","-11.8","","62","","25","","39","","16.1","","100.61","","","","-15","","NA"
"2013-12-10 22:00","2013","12","10","22:00","-5.6","","-9.5","","74","","24","","37","","16.1","","100.68","","","","-15","","NA"
"2013-12-10 23:00","2013","12","10","23:00","-5.2","","-7.5","","84","","24","","32","","11.3","","100.76","","","","-13","","NA"
"2013-12-11 00:00","2013","12","11","00:00","-4.6","","-10.1","","66","","26","","37","","16.1","","100.81","","","","-13","","NA"
"2013-12-11 01:00","2013","12","11","01:00","-4.6","","-9.6","","68","","25","","42","","16.1","","100.89","","","","-14","","NA"
"2013-12-11 02:00","2013","12","11","02:00","-5.0","","-11.5","","61","","26","","42","","16.1","","100.95","","","","-14","","NA"
"2013-12-11 03:00","2013","12","11","03:00","-5.4","","-10.4","","68","","26","","41","","16.1","","101.06","","","","-15","","NA"
"2013-12-11 04:00","2013","12","11","04:00","-5.3","","-11.2","","64","","26","","39","","16.1","","101.09","","","","-14","","NA"
"2013-12-11 05:00","2013","12","11","05:00","-5.2","","-11.6","","61","","25","","33","","16.1","","101.13","","","","-14","","NA"
"2013-12-11 06:00","2013","12","11","06:00","-5.3","","-11.2","","64","","26","","33","","16.1","","101.16","","","","-14","","NA"
"2013-12-11 07:00","2013","12","11","07:00","-5.3","","-11.1","","64","","25","","35","","16.1","","101.25","","","","-14","","NA"
"2013-12-11 08:00","2013","12","11","08:00","-5.5","","-10.1","","70","","25","","32","","16.1","","101.26","","","","-14","","NA"
"2013-12-11 09:00","2013","12","11","09:00","-5.4","","-9.3","","74","","24","","35","","16.1","","101.29","","","","-14","","NA"
"2013-12-11 10:00","2013","12","11","10:00","-5.0","","-8.6","","76","","25","","30","","14.5","","101.35","","","","-13","","NA"
"2013-12-11 11:00","2013","12","11","11:00","-4.2","","-8.7","","71","","26","","28","","16.1","","101.31","","","","-12","","NA"
"2013-12-11 12:00","2013","12","11","12:00","-3.9","","-9.9","","63","","27","","37","","16.1","","101.26","","","","-12","","NA"
"2013-12-11 13:00","2013","12","11","13:00","-3.7","","-10.5","","60","","27","","37","","16.1","","101.24","","","","-12","","NA"
"2013-12-11 14:00","2013","12","11","14:00","-3.9","","-11.6","","56","","26","","35","","16.1","","101.22","","","","-12","","NA"
"2013-12-11 15:00","2013","12","11","15:00","-3.8","","-14.9","","42","","28","","35","","16.1","","101.22","","","","-12","","NA"
"2013-12-11 16:00","2013","12","11","16:00","-4.8","","-12.7","","54","","26","","37","","16.1","","101.29","","","","-14","","NA"
"2013-12-11 17:00","2013","12","11","17:00","-5.8","","-15.2","","48","","28","","28","","16.1","","101.36","","","","-14","","NA"
"2013-12-11 18:00","2013","12","11","18:00","-6.6","","-14.1","","56","","28","","28","","16.1","","101.44","","","","-15","","NA"
"2013-12-11 19:00","2013","12","11","19:00","-7.3","","-13.2","","63","","26","","30","","16.1","","101.51","","","","-16","","NA"
"2013-12-11 20:00","2013","12","11","20:00","-7.6","","-12.8","","67","","27","","33","","16.1","","101.53","","","","-17","","NA"
"2013-12-11 21:00","2013","12","11","21:00","-7.9","","-12.3","","71","","27","","35","","16.1","","101.56","","","","-17","","NA"
"2013-12-11 22:00","2013","12","11","22:00","-7.9","","-11.4","","76","","27","","30","","16.1","","101.59","","","","-17","","NA"
"2013-12-11 23:00","2013","12","11","23:00","-8.5","","-12.2","","75","","28","","21","","16.1","","101.63","","","","-16","","NA"
"2013-12-12 00:00","2013","12","12","00:00","-8.7","","-12.2","","76","","29","","17","","16.1","","101.69","","","","-16","","NA"
"2013-12-12 01:00","2013","12","12","01:00","-9.2","","-12.3","","79","","29","","13","","16.1","","101.70","","","","-15","","NA"
"2013-12-12 02:00","2013","12","12","02:00","-9.2","","-12.3","","79","","29","","13","","16.1","","101.72","","","","-15","","NA"
"2013-12-12 03:00","2013","12","12","03:00","-8.9","","-12.3","","77","","28","","18","","16.1","","101.76","","","","-16","","NA"
"2013-12-12 04:00","2013","12","12","04:00","-9.2","","-12.3","","78","","29","","22","","16.1","","101.71","","","","-17","","NA"
"2013-12-12 05:00","2013","12","12","05:00","-9.7","","-13.0","","77","","27","","15","","16.1","","101.71","","","","-16","","NA"
"2013-12-12 06:00","2013","12","12","06:00","-9.3","","-13.0","","75","","28","","30","","16.1","","101.71","","","","-19","","NA"
"2013-12-12 07:00","2013","12","12","07:00","-9.4","","-13.5","","72","","27","","28","","16.1","","101.71","","","","-18","","NA"
"2013-12-12 08:00","2013","12","12","08:00","-9.5","","-14.4","","68","","27","","28","","16.1","","101.71","","","","-19","","NA"
"2013-12-12 09:00","2013","12","12","09:00","-9.6","","-14.1","","70","","24","","32","","16.1","","101.73","","","","-19","","NA"
"2013-12-12 10:00","2013","12","12","10:00","-9.2","","-14.1","","68","","25","","32","","16.1","","101.73","","","","-19","","NA"
"2013-12-12 11:00","2013","12","12","11:00","-8.1","","-14.6","","60","","24","","32","","16.1","","101.66","","","","-17","","NA"
"2013-12-12 12:00","2013","12","12","12:00","-8.2","","-15.0","","58","","27","","39","","16.1","","101.52","","","","-18","","NA"
"2013-12-12 13:00","2013","12","12","13:00","-7.5","","-14.3","","59","","26","","37","","16.1","","101.39","","","","-17","","NA"
"2013-12-12 14:00","2013","12","12","14:00","-7.1","","-14.5","","56","","24","","42","","16.1","","101.32","","","","-17","","NA"
"2013-12-12 15:00","2013","12","12","15:00","-6.7","","-14.8","","53","","24","","42","","16.1","","101.26","","","","-17","","NA"
"2013-12-12 16:00","2013","12","12","16:00","-7.2","","-13.2","","63","","24","","37","","16.1","","101.20","","","","-17","","NA"
"2013-12-12 17:00","2013","12","12","17:00","-7.6","","-12.8","","67","","24","","35","","16.1","","101.13","","","","-17","","NA"
"2013-12-12 18:00","2013","12","12","18:00","-7.8","","-12.0","","72","","25","","33","","16.1","","101.08","","","","-17","","NA"
"2013-12-12 19:00","2013","12","12","19:00","-7.7","","-12.0","","71","","24","","42","","16.1","","100.98","","","","-18","","NA"
"2013-12-12 20:00","2013","12","12","20:00","-7.2","","-12.2","","68","","24","","42","","16.1","","100.95","","","","-17","","NA"
"2013-12-12 21:00","2013","12","12","21:00","-7.1","","-11.5","","71","","24","","46","","16.1","","100.88","","","","-17","","NA"
"2013-12-12 22:00","2013","12","12","22:00","-7.1","","-11.3","","72","","24","","45","","16.1","","100.85","","","","-17","","NA"
"2013-12-12 23:00","2013","12","12","23:00","-6.8","","-10.7","","74","","24","","45","","16.1","","100.82","","","","-17","","NA"
"2013-12-13 00:00","2013","12","13","00:00","-6.5","","-10.0","","77","","24","","45","","16.1","","100.79","","","","-17","","NA"
"2013-12-13 01:00","2013","12","13","01:00","-6.1","","-9.3","","79","","24","","48","","16.1","","100.78","","","","-16","","NA"
"2013-12-13 02:00","2013","12","13","02:00","-5.7","","-9.1","","77","","24","","46","","16.1","","100.77","","","","-16","","NA"
"2013-12-13 03:00","2013","12","13","03:00","-5.5","","-8.9","","77","","24","","45","","16.1","","100.75","","","","-15","","NA"
"2013-12-13 04:00","2013","12","13","04:00","-5.3","","-8.7","","77","","24","","46","","16.1","","100.74","","","","-15","","NA"
"2013-12-13 05:00","2013","12","13","05:00","-4.8","","-8.3","","77","","24","","48","","16.1","","100.71","","","","-15","","NA"
"2013-12-13 06:00","2013","12","13","06:00","-4.5","","-6.9","","83","","25","","37","","12.9","","100.78","","","","-13","","NA"
"2013-12-13 07:00","2013","12","13","07:00","-4.5","","-6.9","","83","","25","","35","","9.7","","100.82","","","","-13","","NA"
"2013-12-13 08:00","2013","12","13","08:00","-3.9","","-7.3","","77","","25","","30","","16.1","","100.90","","","","-12","","NA"
"2013-12-13 09:00","2013","12","13","09:00","-4.5","","-8.3","","75","","35","","28","","6.4","","101.04","","","","-12","","NA"
"2013-12-13 10:00","2013","12","13","10:00","-7.5","","-12.0","","71","","36","","21","","16.1","","101.22","","","","-15","","NA"
"2013-12-13 11:00","2013","12","13","11:00","-7.8","","-14.5","","59","","35","","18","","16.1","","101.28","","","","-15","","NA"
"2013-12-13 12:00","2013","12","13","12:00","-7.7","","-15.4","","54","","33","","15","","16.1","","101.32","","","","-14","","NA"
"2013-12-13 13:00","2013","12","13","13:00","-7.6","","-16.6","","49","","31","","13","","16.1","","101.36","","","","-13","","NA"
"2013-12-13 14:00","2013","12","13","14:00","-7.7","","-17.4","","46","","34","","13","","16.1","","101.43","","","","-13","","NA"
"2013-12-13 15:00","2013","12","13","15:00","-7.6","","-16.9","","48","","33","","17","","16.1","","101.51","","","","-14","","NA"
"2013-12-13 16:00","2013","12","13","16:00","-8.2","","-17.2","","49","","34","","13","","16.1","","101.60","","","","-14","","NA"
"2013-12-13 17:00","2013","12","13","17:00","-8.9","","-17.7","","49","","34","","18","","16.1","","101.69","","","","-16","","NA"
"2013-12-13 18:00","2013","12","13","18:00","-9.4","","-17.9","","50","","36","","21","","16.1","","101.79","","","","-17","","NA"
"2013-12-13 19:00","2013","12","13","19:00","-9.1","","-17.8","","50","","35","","18","","16.1","","101.81","","","","-16","","NA"
"2013-12-13 20:00","2013","12","13","20:00","-9.7","","-18.0","","51","","1","","15","","16.1","","101.91","","","","-16","","NA"
"2013-12-13 21:00","2013","12","13","21:00","-10.2","","-17.6","","55","","33","","11","","16.1","","101.98","","","","-16","","NA"
"2013-12-13 22:00","2013","12","13","22:00","-10.3","","-18.0","","54","","33","","11","","16.1","","102.01","","","","-16","","NA"
"2013-12-13 23:00","2013","12","13","23:00","-10.8","","-18.3","","55","","5","","13","","16.1","","102.11","","","","-17","","NA"
"2013-12-14 00:00","2013","12","14","00:00","-11.5","","-17.7","","61","","7","","21","","16.1","","102.15","","","","-20","","NA"
"2013-12-14 01:00","2013","12","14","01:00","-11.7","","-19.9","","51","","7","","17","","16.1","","102.17","","","","-19","","NA"
"2013-12-14 02:00","2013","12","14","02:00","-12.4","","-19.6","","55","","1","","18","","16.1","","102.18","","","","-20","","NA"
"2013-12-14 03:00","2013","12","14","03:00","-11.8","","-17.4","","64","","2","","13","","16.1","","102.21","","","","-18","","NA"
"2013-12-14 04:00","2013","12","14","04:00","-11.7","","-16.1","","70","","4","","18","","16.1","","102.14","","","","-20","","NA"
"2013-12-14 05:00","2013","12","14","05:00","-12.3","","-16.9","","69","","4","","28","","12.9","","102.06","","","","-22","","NA"
"2013-12-14 06:00","2013","12","14","06:00","-12.8","","-16.7","","73","","5","","35","","3.2","","102.04","","","","-24","","NA"
"2013-12-14 07:00","2013","12","14","07:00","-13.0","","-15.9","","79","","5","","30","","2.4","","102.08","","","","-23","","NA"
"2013-12-14 08:00","2013","12","14","08:00","-12.9","","-15.6","","80","","5","","28","","1.6","","102.10","","","","-23","","NA"
"2013-12-14 09:00","2013","12","14","09:00","-13.0","","-16.0","","79","","5","","32","","2.8","","102.05","","","","-24","","NA"
"2013-12-14 10:00","2013","12","14","10:00","-12.6","","-14.9","","83","","5","","33","","2.4","","101.97","","","","-23","","NA"
"2013-12-14 11:00","2013","12","14","11:00","-12.2","","-14.2","","85","","4","","35","","1.2","","101.89","","","","-23","","NA"
"2013-12-14 12:00","2013","12","14","12:00","-10.3","","-11.8","","89","","5","","35","","0.6","","101.69","","","","-21","","NA"
"2013-12-14 13:00","2013","12","14","13:00","-10.1","","-11.6","","89","","4","","41","","0.2","","101.46","","","","-21","","NA"
"2013-12-14 14:00","2013","12","14","14:00","-10.0","","-11.4","","90","","5","","41","","0.4","","101.30","","","","-21","","NA"
"2013-12-14 15:00","2013","12","14","15:00","-9.8","","-11.3","","89","","5","","50","","0.4","","101.10","","","","-21","","NA"
"2013-12-14 16:00","2013","12","14","16:00","-10.3","","-12.0","","87","","4","","46","","0.4","","101.03","","","","-22","","NA"
"2013-12-14 17:00","2013","12","14","17:00","-10.2","","-11.8","","89","","5","","45","","0.8","","100.90","","","","-22","","NA"
"2013-12-14 18:00","2013","12","14","18:00","-10.0","","-11.4","","90","","5","","41","","1.2","","100.76","","","","-21","","NA"
"2013-12-14 19:00","2013","12","14","19:00","-8.4","","-9.6","","91","","5","","42","","0.8","","100.62","","","","-19","","NA"
"2013-12-14 20:00","2013","12","14","20:00","-8.6","","-9.9","","90","","5","","42","","0.8","","100.45","","","","-19","","NA"
"2013-12-14 21:00","2013","12","14","21:00","-8.5","","-10.1","","89","","5","","45","","2.0","","100.30","","","","-19","","NA"
"2013-12-14 22:00","2013","12","14","22:00","-8.4","","-9.7","","90","","5","","41","","1.2","","100.17","","","","-19","","NA"
"2013-12-14 23:00","2013","12","14","23:00","-8.6","","-10.1","","89","","4","","33","","1.2","","100.04","","","","-18","","NA"
"2013-12-15 00:00","2013","12","15","00:00","-9.1","","-10.9","","87","","2","","15","","1.6","","99.97","","","","-16","","NA"
"2013-12-15 01:00","2013","12","15","01:00","-9.5","","-11.5","","86","","36","","15","","1.6","","99.82","","","","-16","","NA"
"2013-12-15 02:00","2013","12","15","02:00","-9.5","","-11.6","","85","","35","","17","","2.4","","99.74","","","","-17","","NA"
"2013-12-15 03:00","2013","12","15","03:00","-9.5","","-11.6","","85","","35","","17","","2.8","","99.74","","","","-17","","NA"
"2013-12-15 04:00","2013","12","15","04:00","-10.5","","-12.7","","84","","33","","15","","4.0","","99.70","","","","-17","","NA"
"2013-12-15 05:00","2013","12","15","05:00","-11.3","","-14.1","","80","","33","","17","","16.1","","99.73","","","","-19","","NA"
"2013-12-15 06:00","2013","12","15","06:00","-11.3","","-14.7","","76","","34","","17","","16.1","","99.77","","","","-19","","NA"
"2013-12-15 07:00","2013","12","15","07:00","-10.9","","-14.2","","77","","30","","15","","16.1","","99.85","","","","-18","","NA"
"2013-12-15 08:00","2013","12","15","08:00","-10.8","","-14.0","","77","","30","","18","","12.9","","99.86","","","","-18","","NA"
"2013-12-15 09:00","2013","12","15","09:00","-11.1","","-14.1","","79","","30","","17","","12.9","","99.92","","","","-19","","NA"
"2013-12-15 10:00","2013","12","15","10:00","-10.6","","-14.2","","75","","31","","13","","16.1","","99.93","","","","-17","","NA"
"2013-12-15 11:00","2013","12","15","11:00","-9.6","","-12.5","","80","","27","","11","","4.8","","99.87","","","","-15","","NA"
"2013-12-15 12:00","2013","12","15","12:00","-8.2","","-10.9","","81","","26","","9","","16.1","","99.78","","","","-13","","NA"
"2013-12-15 13:00","2013","12","15","13:00","-6.6","","-10.7","","73","","24","","18","","16.1","","99.76","","","","-13","","NA"
"2013-12-15 14:00","2013","12","15","14:00","-5.3","","-9.2","","74","","25","","18","","16.1","","99.69","","","","-12","","NA"
"2013-12-15 15:00","2013","12","15","15:00","-4.5","","-8.3","","75","","24","","21","","16.1","","99.68","","","","-11","","NA"
"2013-12-15 16:00","2013","12","15","16:00","-4.3","","-7.4","","79","","26","","22","","16.1","","99.69","","","","-11","","NA"
"2013-12-15 17:00","2013","12","15","17:00","-3.5","","-5.4","","87","","24","","37","","6.4","","99.68","","","","-12","","NA"
"2013-12-15 18:00","2013","12","15","18:00","-3.5","","-7.9","","72","","26","","50","","14.5","","99.69","","","","-13","","NA"
"2013-12-15 19:00","2013","12","15","19:00","-4.3","","-8.2","","74","","27","","37","","12.9","","99.78","","","","-13","","NA"
"2013-12-15 20:00","2013","12","15","20:00","-4.8","","-8.5","","76","","26","","41","","12.9","","99.83","","","","-14","","NA"
"2013-12-15 21:00","2013","12","15","21:00","-5.2","","-8.6","","77","","26","","50","","4.8","","99.90","","","","-15","","NA"
"2013-12-15 22:00","2013","12","15","22:00","-5.7","","-10.1","","71","","27","","32","","16.1","","100.03","","","","-14","","NA"
"2013-12-15 23:00","2013","12","15","23:00","-6.3","","-8.5","","85","","28","","26","","4.8","","100.15","","","","-14","","NA"
"2013-12-16 00:00","2013","12","16","00:00","-7.5","","-9.8","","84","","32","","15","","3.6","","100.25","","","","-14","","NA"
"2013-12-16 01:00","2013","12","16","01:00","-9.1","","-11.5","","83","","33","","15","","6.4","","100.32","","","","-16","","NA"
"2013-12-16 02:00","2013","12","16","02:00","-10.2","","-13.5","","77","","34","","15","","16.1","","100.38","","","","-17","","NA"
"2013-12-16 03:00","2013","12","16","03:00","-11.2","","-15.2","","73","","33","","15","","16.1","","100.50","","","","-18","","NA"
"2013-12-16 04:00","2013","12","16","04:00","-12.3","","-16.4","","72","","30","","13","","16.1","","100.57","","","","-19","","NA"
"2013-12-16 05:00","2013","12","16","05:00","-13.1","","-16.8","","74","","28","","8","","16.1","","100.62","","","","-18","","NA"
"2013-12-16 06:00","2013","12","16","06:00","-14.2","","-17.4","","77","","28","","13","","16.1","","100.70","","","","-21","","NA"
"2013-12-16 07:00","2013","12","16","07:00","-13.3","","-16.2","","79","","","M","4","","16.1","","100.74","","","","-16","","NA"
"2013-12-16 08:00","2013","12","16","08:00","-14.3","","-16.5","","83","","","","0","","16.1","","100.81","","","","","","NA"
"2013-12-16 09:00","2013","12","16","09:00","-12.3","","-15.2","","79","","","","0","","16.1","","100.92","","","","","","NA"
"2013-12-16 10:00","2013","12","16","10:00","-10.2","","-14.8","","69","","29","","13","","16.1","","101.01","","","","-16","","NA"
"2013-12-16 11:00","2013","12","16","11:00","-9.5","","-15.9","","60","","32","","18","","16.1","","101.05","","","","-17","","NA"
"2013-12-16 12:00","2013","12","16","12:00","-9.0","","-16.7","","54","","32","","15","","16.1","","101.06","","","","-16","","NA"
"2013-12-16 13:00","2013","12","16","13:00","-8.0","","-16.3","","52","","30","","13","","16.1","","101.06","","","","-14","","NA"
"2013-12-16 14:00","2013","12","16","14:00","-6.9","","-15.2","","52","","28","","21","","16.1","","101.05","","","","-14","","NA"
"2013-12-16 15:00","2013","12","16","15:00","-6.9","","-15.3","","52","","26","","17","","16.1","","101.04","","","","-13","","NA"
"2013-12-16 16:00","2013","12","16","16:00","-7.3","","-15.4","","53","","29","","18","","16.1","","101.13","","","","-14","","NA"
"2013-12-16 17:00","2013","12","16","17:00","-8.0","","-15.5","","55","","28","","13","","16.1","","101.20","","","","-14","","NA"
"2013-12-16 18:00","2013","12","16","18:00","-8.6","","-15.3","","59","","31","","11","","16.1","","101.23","","","","-14","","NA"
"2013-12-16 19:00","2013","12","16","19:00","-9.2","","-15.0","","63","","29","","8","","16.1","","101.25","","","","-14","","NA"
"2013-12-16 20:00","2013","12","16","20:00","-8.9","","-14.9","","62","","34","","5","","16.1","","101.27","","","","-12","","NA"
"2013-12-16 21:00","2013","12","16","21:00","-11.1","","-14.9","","74","","","M","4","","16.1","","101.27","","","","-14","","NA"
"2013-12-16 22:00","2013","12","16","22:00","-10.9","","-14.6","","75","","7","","13","","16.1","","101.20","","","","-17","","NA"
"2013-12-16 23:00","2013","12","16","23:00","-9.3","","-12.9","","75","","5","","13","","16.1","","101.19","","","","-15","","NA"
"2013-12-17 00:00","2013","12","17","00:00","-9.0","","-11.9","","80","","6","","13","","16.1","","101.12","","","","-15","","NA"
"2013-12-17 01:00","2013","12","17","01:00","-8.8","","-10.7","","86","","6","","21","","6.4","","101.00","","","","-17","","NA"
"2013-12-17 02:00","2013","12","17","02:00","-8.0","","-9.5","","89","","6","","21","","6.4","","100.90","","","","-16","","NA"
"2013-12-17 03:00","2013","12","17","03:00","-6.8","","-9.4","","82","","5","","21","","16.1","","100.78","","","","-14","","NA"
"2013-12-17 04:00","2013","12","17","04:00","-7.8","","-9.9","","85","","4","","24","","16.1","","100.71","","","","-16","","NA"
"2013-12-17 05:00","2013","12","17","05:00","-8.4","","-9.9","","89","","5","","24","","2.0","","100.64","","","","-17","","NA"
"2013-12-17 06:00","2013","12","17","06:00","-7.6","","-8.6","","93","","7","","18","","1.6","","100.56","","","","-14","","NA"
"2013-12-17 07:00","2013","12","17","07:00","-5.4","","-8.1","","81","","10","","18","","11.3","","100.49","","","","-12","","NA"
"2013-12-17 08:00","2013","12","17","08:00","-4.9","","-6.9","","86","","8","","17","","4.8","","100.45","","","","-11","","NA"
"2013-12-17 09:00","2013","12","17","09:00","-6.3","","-8.0","","88","","5","","8","","4.8","","100.46","","","","-10","","NA"
"2013-12-17 10:00","2013","12","17","10:00","-6.2","","-8.0","","87","","34","","11","","2.4","","100.51","","","","-11","","NA"
"2013-12-17 11:00","2013","12","17","11:00","-5.6","","-7.9","","84","","","M","4","","4.8","","100.47","","","","-7","","NA"
"2013-12-17 12:00","2013","12","17","12:00","-5.7","","-7.9","","84","","27","","8","","12.9","","100.47","","","","-9","","NA"
"2013-12-17 13:00","2013","12","17","13:00","-5.4","","-7.9","","83","","25","","8","","16.1","","100.42","","","","-9","","NA"
"2013-12-17 14:00","2013","12","17","14:00","-5.5","","-8.1","","82","","25","","9","","16.1","","100.37","","","","-10","","NA"
"2013-12-17 15:00","2013","12","17","15:00","-4.2","","-7.0","","81","","25","","5","","16.1","","100.37","","","","-6","","NA"
"2013-12-17 16:00","2013","12","17","16:00","-3.4","","-7.2","","75","","23","","21","","16.1","","100.37","","","","-10","","NA"
"2013-12-17 17:00","2013","12","17","17:00","-3.4","","-6.6","","79","","25","","21","","16.1","","100.38","","","","-10","","NA"
"2013-12-17 18:00","2013","12","17","18:00","-3.6","","-6.2","","82","","29","","9","","14.5","","100.39","","","","-7","","NA"
"2013-12-17 19:00","2013","12","17","19:00","-3.5","","-6.1","","82","","","","0","","16.1","","100.39","","","","","","NA"
"2013-12-17 20:00","2013","12","17","20:00","-3.8","","-5.5","","88","","","","0","","2.8","","100.42","","","","","","NA"
"2013-12-17 21:00","2013","12","17","21:00","-3.8","","-4.9","","92","","","","0","","8.1","","100.43","","","","","","NA"
"2013-12-17 22:00","2013","12","17","22:00","-3.6","","-5.0","","90","","","M","4","","6.4","","100.44","","","","-5","","NA"
"2013-12-17 23:00","2013","12","17","23:00","-3.0","","-5.2","","85","","25","","8","","14.5","","100.44","","","","-6","","NA"
"2013-12-18 00:00","2013","12","18","00:00","-2.8","","-5.3","","83","","28","","8","","11.3","","100.44","","","","-6","","NA"
"2013-12-18 01:00","2013","12","18","01:00","-3.1","","-5.1","","86","","26","","9","","8.1","","100.42","","","","-7","","NA"
"2013-12-18 02:00","2013","12","18","02:00","-3.0","","-5.3","","84","","25","","15","","9.7","","100.42","","","","-8","","NA"
"2013-12-18 03:00","2013","12","18","03:00","-3.0","","-5.2","","85","","27","","9","","8.1","","100.45","","","","-7","","NA"
"2013-12-18 04:00","2013","12","18","04:00","-2.6","","-4.8","","85","","27","","13","","6.4","","100.46","","","","-7","","NA"
"2013-12-18 05:00","2013","12","18","05:00","-2.2","","-4.8","","82","","27","","24","","8.1","","100.48","","","","-9","","NA"
"2013-12-18 06:00","2013","12","18","06:00","-2.1","","-4.2","","86","","24","","28","","9.7","","100.55","","","","-9","","NA"
"2013-12-18 07:00","2013","12","18","07:00","-3.1","","-5.6","","83","","25","","26","","9.7","","100.62","","","","-10","","NA"
"2013-12-18 08:00","2013","12","18","08:00","-3.2","","-5.8","","82","","25","","21","","11.3","","100.63","","","","-9","","NA"
"2013-12-18 09:00","2013","12","18","09:00","-2.7","","-5.6","","81","","25","","24","","12.9","","100.66","","","","-9","","NA"
"2013-12-18 10:00","2013","12","18","10:00","-2.1","","-5.3","","79","","25","","22","","16.1","","100.67","","","","-8","","NA"
"2013-12-18 11:00","2013","12","18","11:00","-1.3","","-4.3","","80","","26","","30","","16.1","","100.65","","","","-8","","NA"
"2013-12-18 12:00","2013","12","18","12:00","-0.8","","-4.3","","77","","26","","32","","16.1","","100.64","","","","-8","","NA"
"2013-12-18 13:00","2013","12","18","13:00","0.0","","-4.1","","74","","26","","32","","16.1","","100.59","","","","-7","","NA"
"2013-12-18 14:00","2013","12","18","14:00","0.2","","-4.9","","69","","26","","41","","16.1","","100.61","","","","","","NA"
"2013-12-18 15:00","2013","12","18","15:00","-0.2","","-5.0","","70","","27","","26","","16.1","","100.69","","","","-6","","NA"
"2013-12-18 16:00","2013","12","18","16:00","-0.5","","-6.3","","65","","26","","35","","16.1","","100.72","","","","-8","","NA"
"2013-12-18 17:00","2013","12","18","17:00","-0.7","","-6.0","","68","","27","","24","","16.1","","100.77","","","","-7","","NA"
"2013-12-18 18:00","2013","12","18","18:00","-0.6","","-5.6","","69","","26","","30","","16.1","","100.78","","","","-7","","NA"
"2013-12-18 19:00","2013","12","18","19:00","-0.7","","-4.3","","77","","24","","24","","16.1","","100.80","","","","-7","","NA"
"2013-12-18 20:00","2013","12","18","20:00","-0.6","","-4.2","","77","","22","","30","","16.1","","100.73","","","","-7","","NA"
"2013-12-18 21:00","2013","12","18","21:00","-1.0","","-5.0","","74","","24","","30","","16.1","","100.73","","","","-8","","NA"
"2013-12-18 22:00","2013","12","18","22:00","-1.1","","-4.8","","76","","24","","21","","16.1","","100.69","","","","-7","","NA"
"2013-12-18 23:00","2013","12","18","23:00","-0.4","","-4.1","","76","","23","","24","","16.1","","100.68","","","","-6","","NA"
"2013-12-19 00:00","2013","12","19","00:00","-0.4","","-3.8","","78","","22","","35","","16.1","","100.62","","","","-7","","NA"
"2013-12-19 01:00","2013","12","19","01:00","-0.4","","-4.8","","72","","21","","37","","16.1","","100.44","","","","-8","","NA"
"2013-12-19 02:00","2013","12","19","02:00","-0.3","","-4.6","","73","","21","","30","","16.1","","100.37","","","","-7","","NA"
"2013-12-19 03:00","2013","12","19","03:00","-0.1","","-4.9","","70","","23","","30","","16.1","","100.34","","","","-7","","NA"
"2013-12-19 04:00","2013","12","19","04:00","0.0","","-3.9","","75","","22","","26","","16.1","","100.24","","","","-6","","NA"
"2013-12-19 05:00","2013","12","19","05:00","0.1","","-3.0","","80","","24","","26","","16.1","","100.19","","","","","","NA"
"2013-12-19 06:00","2013","12","19","06:00","-0.2","","-3.3","","80","","25","","24","","16.1","","100.19","","","","-6","","NA"
"2013-12-19 07:00","2013","12","19","07:00","-0.4","","-3.6","","79","","25","","22","","16.1","","100.21","","","","-6","","NA"
"2013-12-19 08:00","2013","12","19","08:00","-0.4","","-4.1","","76","","24","","28","","16.1","","100.22","","","","-7","","NA"
"2013-12-19 09:00","2013","12","19","09:00","-0.2","","-3.7","","78","","26","","21","","16.1","","100.29","","","","-6","","NA"
"2013-12-19 10:00","2013","12","19","10:00","0.5","","-3.7","","74","","26","","21","","16.1","","100.41","","","","","","NA"
"2013-12-19 11:00","2013","12","19","11:00","1.0","","-4.2","","68","","26","","17","","16.1","","100.46","","","","","","NA"
"2013-12-19 12:00","2013","12","19","12:00","1.8","","-2.9","","71","","24","","15","","16.1","","100.47","","","","","","NA"
"2013-12-19 13:00","2013","12","19","13:00","2.0","","-1.5","","78","","23","","9","","16.1","","100.48","","","","","","NA"
"2013-12-19 14:00","2013","12","19","14:00","3.1","","-2.2","","68","","27","","11","","16.1","","100.49","","","","","","NA"
"2013-12-19 15:00","2013","12","19","15:00","3.3","","-1.9","","69","","29","","8","","16.1","","100.57","","","","","","NA"
"2013-12-19 16:00","2013","12","19","16:00","3.1","","-1.5","","72","","27","","11","","16.1","","100.61","","","","","","NA"
"2013-12-19 17:00","2013","12","19","17:00","2.2","","-0.2","","84","","26","","15","","16.1","","100.65","","","","","","NA"
"2013-12-19 18:00","2013","12","19","18:00","1.8","","-0.1","","87","","25","","9","","16.1","","100.75","","","","","","NA"
"2013-12-19 19:00","2013","12","19","19:00","2.1","","-0.3","","84","","26","","9","","14.5","","100.76","","","","","","NA"
"2013-12-19 20:00","2013","12","19","20:00","2.5","","-1.0","","78","","27","","8","","14.5","","100.74","","","","","","NA"
"2013-12-19 21:00","2013","12","19","21:00","1.7","","-0.5","","86","","","M","4","","11.3","","100.74","","","","","","NA"
"2013-12-19 22:00","2013","12","19","22:00","1.1","","-1.1","","85","","","","0","","12.9","","100.73","","","","","","NA"
"2013-12-19 23:00","2013","12","19","23:00","1.7","","-0.7","","84","","6","","4","","11.3","","100.67","","","","","","NA"
"2013-12-20 00:00","2013","12","20","00:00","1.3","","-0.3","","89","","6","","9","","4.8","","100.65","","","","","","NA"
"2013-12-20 01:00","2013","12","20","01:00","0.7","","0.0","","95","","6","","13","","2.4","","100.59","","","","","","NA"
"2013-12-20 02:00","2013","12","20","02:00","0.7","","0.1","","96","","6","","13","","2.4","","100.51","","","","","","NA"
"2013-12-20 03:00","2013","12","20","03:00","0.7","","0.4","","98","","6","","17","","2.4","","100.47","","","","","","NA"
"2013-12-20 04:00","2013","12","20","04:00","1.0","","0.9","","99","","6","","13","","1.6","","100.39","","","","","","NA"
"2013-12-20 05:00","2013","12","20","05:00","1.2","","1.1","","99","","6","","18","","1.2","","100.31","","","","","","NA"
"2013-12-20 06:00","2013","12","20","06:00","1.2","","0.9","","98","","6","","17","","2.0","","100.21","","","","","","NA"
"2013-12-20 07:00","2013","12","20","07:00","1.5","","1.2","","98","","6","","11","","2.0","","100.19","","","","","","NA"
"2013-12-20 08:00","2013","12","20","08:00","1.5","","1.1","","97","","7","","17","","3.6","","100.14","","","","","","NA"
"2013-12-20 09:00","2013","12","20","09:00","1.3","","1.0","","98","","","","0","","3.2","","100.19","","","","","","NA"
"2013-12-20 10:00","2013","12","20","10:00","1.3","","1.0","","98","","","","0","","1.6","","100.21","","","","","","NA"
"2013-12-20 11:00","2013","12","20","11:00","2.0","","1.1","","94","","1","","11","","4.8","","100.22","","","","","","NA"
"2013-12-20 12:00","2013","12","20","12:00","1.9","","0.7","","92","","34","","11","","8.1","","100.15","","","","","","NA"
"2013-12-20 13:00","2013","12","20","13:00","1.9","","0.7","","92","","","M","4","","11.3","","100.10","","","","","","NA"
"2013-12-20 14:00","2013","12","20","14:00","1.6","","0.6","","93","","5","","9","","8.1","","100.11","","","","","","NA"
"2013-12-20 15:00","2013","12","20","15:00","1.3","","0.4","","94","","5","","15","","8.1","","100.09","","","","","","NA"
"2013-12-20 16:00","2013","12","20","16:00","0.8","","0.4","","97","","5","","21","","4.8","","100.12","","","","","","NA"
"2013-12-20 17:00","2013","12","20","17:00","0.6","","0.2","","97","","7","","18","","4.8","","100.12","","","","","","NA"
"2013-12-20 18:00","2013","12","20","18:00","0.4","","0.1","","98","","5","","22","","3.2","","100.14","","","","","","NA"
"2013-12-20 19:00","2013","12","20","19:00","0.2","","-0.2","","97","","6","","22","","9.7","","100.16","","","","","","NA"
"2013-12-20 20:00","2013","12","20","20:00","0.1","","-0.3","","97","","6","","24","","8.1","","100.14","","","","","","NA"
"2013-12-20 21:00","2013","12","20","21:00","0.2","","-0.2","","97","","6","","32","","2.8","","100.03","","","","","","NA"
"2013-12-20 22:00","2013","12","20","22:00","0.4","","0.0","","97","","6","","28","","9.7","","100.03","","","","","","NA"
"2013-12-20 23:00","2013","12","20","23:00","0.3","","-0.3","","96","","6","","30","","6.4","","99.99","","","","","","NA"
"2013-12-21 00:00","2013","12","21","00:00","0.3","","0.0","","98","","7","","28","","4.8","","99.92","","","","","","NA"
"2013-12-21 01:00","2013","12","21","01:00","0.4","","0.1","","98","","6","","28","","2.4","","99.87","","","","","","NA"
"2013-12-21 02:00","2013","12","21","02:00","0.5","","0.2","","98","","7","","30","","12.9","","99.82","","","","","","NA"
"2013-12-21 03:00","2013","12","21","03:00","0.4","","0.1","","98","","6","","30","","4.0","","99.81","","","","","","NA"
"2013-12-21 04:00","2013","12","21","04:00","0.1","","-0.3","","97","","4","","17","","4.8","","99.82","","","","","","NA"
"2013-12-21 05:00","2013","12","21","05:00","0.3","","-0.4","","95","","7","","5","","16.1","","99.81","","","","","","NA"
"2013-12-21 06:00","2013","12","21","06:00","0.2","","-0.2","","97","","7","","5","","4.8","","99.88","","","","","","NA"
"2013-12-21 07:00","2013","12","21","07:00","0.1","","0.0","","99","","8","","4","","4.8","","99.93","","","","","","NA"
"2013-12-21 08:00","2013","12","21","08:00","0.3","","0.0","","98","","16","","5","","8.1","","99.94","","","","","","NA"
"2013-12-21 09:00","2013","12","21","09:00","0.6","","0.2","","97","","","M","4","","11.3","","100.02","","","","","","NA"
"2013-12-21 10:00","2013","12","21","10:00","0.9","","0.0","","94","","","","0","","11.3","","100.12","","","","","","NA"
"2013-12-21 11:00","2013","12","21","11:00","1.1","","0.6","","97","","30","","9","","4.8","","100.21","","","","","","NA"
"2013-12-21 12:00","2013","12","21","12:00","1.3","","0.4","","94","","31","","8","","4.8","","100.11","","","","","","NA"
"2013-12-21 13:00","2013","12","21","13:00","1.1","","0.4","","95","","","M","4","","4.8","","100.12","","","","","","NA"
"2013-12-21 14:00","2013","12","21","14:00","1.1","","-0.8","","87","","2","","13","","16.1","","100.09","","","","","","NA"
"2013-12-21 15:00","2013","12","21","15:00","0.7","","-0.9","","89","","34","","8","","9.7","","100.17","","","","","","NA"
"2013-12-21 16:00","2013","12","21","16:00","0.6","","-0.8","","91","","34","","17","","4.8","","100.26","","","","","","NA"
"2013-12-21 17:00","2013","12","21","17:00","0.7","","-0.8","","90","","1","","8","","11.3","","100.29","","","","","","NA"
"2013-12-21 18:00","2013","12","21","18:00","0.4","","-1.0","","90","","2","","8","","9.7","","100.31","","","","","","NA"
"2013-12-21 19:00","2013","12","21","19:00","0.4","","-0.8","","92","","5","","13","","9.7","","100.32","","","","","","NA"
"2013-12-21 20:00","2013","12","21","20:00","0.6","","-0.6","","92","","3","","18","","8.1","","100.28","","","","","","NA"
"2013-12-21 21:00","2013","12","21","21:00","0.7","","-1.0","","89","","4","","13","","6.4","","100.37","","","","","","NA"
"2013-12-21 22:00","2013","12","21","22:00","0.3","","-1.0","","91","","5","","21","","11.3","","100.32","","","","","","NA"
"2013-12-21 23:00","2013","12","21","23:00","-0.3","","-1.5","","92","","5","","26","","8.1","","100.18","","","","-6","","NA"
"2013-12-22 00:00","2013","12","22","00:00","-0.4","","-1.3","","94","","5","","26","","9.7","","100.16","","","","-7","","NA"
"2013-12-22 01:00","2013","12","22","01:00","-0.4","","-1.4","","93","","6","","35","","16.1","","99.88","","","","-7","","NA"
"2013-12-22 02:00","2013","12","22","02:00","-0.8","","-1.9","","92","","6","","39","","3.2","","99.77","","","","-8","","NA"
"2013-12-22 03:00","2013","12","22","03:00","-0.4","","-1.5","","92","","5","","30","","9.7","","99.78","","","","-7","","NA"
"2013-12-22 04:00","2013","12","22","04:00","-0.4","","-1.2","","94","","7","","35","","16.1","","99.50","","","","-7","","NA"
"2013-12-22 05:00","2013","12","22","05:00","0.3","","-0.8","","92","","7","","30","","16.1","","99.71","","","","","","NA"
"2013-12-22 06:00","2013","12","22","06:00","0.4","","-0.6","","93","","5","","26","","16.1","","99.72","","","","","","NA"
"2013-12-22 07:00","2013","12","22","07:00","-0.1","","-1.1","","93","","5","","28","","6.4","","99.75","","","","-6","","NA"
"2013-12-22 08:00","2013","12","22","08:00","-1.0","","-1.7","","95","","6","","39","","16.1","","99.60","","","","-9","","NA"
"2013-12-22 09:00","2013","12","22","09:00","-1.3","","-1.9","","96","","6","","37","","9.7","","99.62","","","","-9","","NA"
"2013-12-22 10:00","2013","12","22","10:00","-1.3","","-2.0","","95","","6","","41","","16.1","","99.66","","","","-9","","NA"
"2013-12-22 11:00","2013","12","22","11:00","-1.3","","-2.1","","94","","7","","37","","16.1","","99.67","","","","-9","","NA"
"2013-12-22 12:00","2013","12","22","12:00","-2.0","","-2.8","","94","","5","","22","","16.1","","99.60","","","","-8","","NA"
"2013-12-22 13:00","2013","12","22","13:00","-2.0","","-2.7","","95","","6","","32","","16.1","","99.54","","","","-9","","NA"
"2013-12-22 14:00","2013","12","22","14:00","-1.7","","-2.3","","96","","7","","18","","16.1","","99.66","","","","-7","","NA"
"2013-12-22 15:00","2013","12","22","15:00","-0.6","","-1.0","","97","","6","","21","","16.1","","99.75","","","","-6","","NA"
"2013-12-22 16:00","2013","12","22","16:00","-0.3","","-0.7","","97","","7","","13","","16.1","","99.89","","","","-4","","NA"
"2013-12-22 17:00","2013","12","22","17:00","-0.1","","-0.4","","98","","8","","13","","16.1","","100.00","","","","-4","","NA"
"2013-12-22 18:00","2013","12","22","18:00","1.1","","0.7","","97","","","","0","","16.1","","100.17","","","","","","NA"
"2013-12-22 19:00","2013","12","22","19:00","1.5","","1.1","","97","","25","","8","","16.1","","100.21","","","","","","NA"
"2013-12-22 20:00","2013","12","22","20:00","1.7","","1.0","","95","","24","","9","","16.1","","100.25","","","","","","NA"
"2013-12-22 21:00","2013","12","22","21:00","1.9","","1.0","","94","","23","","17","","16.1","","100.38","","","","","","NA"
"2013-12-22 22:00","2013","12","22","22:00","1.5","","0.8","","95","","25","","13","","16.1","","100.41","","","","","","NA"
"2013-12-22 23:00","2013","12","22","23:00","1.5","","0.7","","94","","23","","11","","16.1","","100.42","","","","","","NA"
"2013-12-23 00:00","2013","12","23","00:00","1.3","","0.6","","95","","27","","9","","16.1","","100.42","","","","","","NA"
"2013-12-23 01:00","2013","12","23","01:00","1.7","","0.7","","93","","23","","13","","16.1","","100.48","","","","","","NA"
"2013-12-23 02:00","2013","12","23","02:00","1.2","","0.6","","95","","28","","8","","16.1","","100.56","","","","","","NA"
"2013-12-23 03:00","2013","12","23","03:00","1.3","","0.3","","93","","26","","9","","16.1","","100.61","","","","","","NA"
"2013-12-23 04:00","2013","12","23","04:00","1.1","","0.4","","95","","27","","5","","16.1","","100.60","","","","","","NA"
"2013-12-23 05:00","2013","12","23","05:00","1.6","","-0.2","","88","","28","","9","","16.1","","100.59","","","","","","NA"
"2013-12-23 06:00","2013","12","23","06:00","0.4","","-0.9","","91","","32","","13","","16.1","","100.69","","","","","","NA"
"2013-12-23 07:00","2013","12","23","07:00","-1.0","","-3.0","","87","","35","","17","","16.1","","100.73","","","","-6","","NA"
"2013-12-23 08:00","2013","12","23","08:00","-1.6","","-3.8","","85","","33","","11","","16.1","","100.80","","","","-5","","NA"
"2013-12-23 09:00","2013","12","23","09:00","-2.1","","-4.7","","83","","33","","17","","16.1","","100.90","","","","-7","","NA"
"2013-12-23 10:00","2013","12","23","10:00","-2.8","","-5.1","","84","","34","","17","","16.1","","101.04","","","","-8","","NA"
"2013-12-23 11:00","2013","12","23","11:00","-2.6","","-5.1","","83","","33","","18","","16.1","","101.07","","","","-8","","NA"
"2013-12-23 12:00","2013","12","23","12:00","-2.6","","-5.7","","79","","32","","18","","16.1","","101.08","","","","-8","","NA"
"2013-12-23 13:00","2013","12","23","13:00","-2.7","","-6.0","","78","","33","","15","","16.1","","101.08","","","","-8","","NA"
"2013-12-23 14:00","2013","12","23","14:00","-2.4","","-5.5","","79","","32","","11","","16.1","","101.17","","","","-6","","NA"
"2013-12-23 15:00","2013","12","23","15:00","-2.1","","-4.6","","83","","29","","21","","16.1","","101.26","","","","-8","","NA"
"2013-12-23 16:00","2013","12","23","16:00","-2.3","","-5.1","","81","","30","","9","","16.1","","101.36","","","","-6","","NA"
"2013-12-23 17:00","2013","12","23","17:00","-2.6","","-6.9","","73","","28","","22","","16.1","","101.45","","","","-9","","NA"
"2013-12-23 18:00","2013","12","23","18:00","-3.3","","-7.5","","73","","30","","13","","16.1","","101.49","","","","-8","","NA"
"2013-12-23 19:00","2013","12","23","19:00","-3.4","","-7.4","","74","","29","","13","","16.1","","101.55","","","","-8","","NA"
"2013-12-23 20:00","2013","12","23","20:00","-3.3","","-6.9","","76","","28","","15","","16.1","","101.59","","","","-8","","NA"
"2013-12-23 21:00","2013","12","23","21:00","-3.7","","-7.3","","76","","28","","22","","16.1","","101.61","","","","-10","","NA"
"2013-12-23 22:00","2013","12","23","22:00","-3.9","","-7.1","","79","","31","","11","","16.1","","101.60","","","","-8","","NA"
"2013-12-23 23:00","2013","12","23","23:00","-4.4","","-8.0","","76","","29","","9","","16.1","","101.54","","","","-8","","NA"
"2013-12-24 00:00","2013","12","24","00:00","-5.0","","-7.9","","80","","34","","8","","16.1","","101.54","","","","-9","","NA"
"2013-12-24 01:00","2013","12","24","01:00","-5.8","","-9.3","","76","","34","","8","","16.1","","101.55","","","","-10","","NA"
"2013-12-24 02:00","2013","12","24","02:00","-6.8","","-8.9","","85","","8","","11","","16.1","","101.56","","","","-12","","NA"
"2013-12-24 03:00","2013","12","24","03:00","-6.9","","-9.1","","84","","8","","15","","16.1","","101.58","","","","-13","","NA"
"2013-12-24 04:00","2013","12","24","04:00","-7.0","","-9.4","","83","","7","","15","","16.1","","101.53","","","","-13","","NA"
"2013-12-24 05:00","2013","12","24","05:00","-7.8","","-10.2","","83","","6","","15","","16.1","","101.53","","","","-14","","NA"
"2013-12-24 06:00","2013","12","24","06:00","-8.7","","-11.3","","82","","34","","15","","4.8","","101.56","","","","-15","","NA"
"2013-12-24 07:00","2013","12","24","07:00","-9.7","","-12.1","","83","","35","","17","","2.8","","101.59","","","","-17","","NA"
"2013-12-24 08:00","2013","12","24","08:00","-9.5","","-12.2","","81","","34","","15","","4.8","","101.62","","","","-16","","NA"
"2013-12-24 09:00","2013","12","24","09:00","-9.9","","-13.2","","77","","32","","17","","9.7","","101.68","","","","-17","","NA"
"2013-12-24 10:00","2013","12","24","10:00","-9.9","","-13.8","","74","","34","","15","","16.1","","101.73","","","","-17","","NA"
"2013-12-24 11:00","2013","12","24","11:00","-9.9","","-14.5","","70","","33","","17","","16.1","","101.74","","","","-17","","NA"
"2013-12-24 12:00","2013","12","24","12:00","-9.2","","-14.4","","66","","32","","26","","16.1","","101.68","","","","-18","","NA"
"2013-12-24 13:00","2013","12","24","13:00","-9.1","","-14.0","","68","","34","","22","","16.1","","101.73","","","","-17","","NA"
"2013-12-24 14:00","2013","12","24","14:00","-9.8","","-15.6","","63","","32","","26","","16.1","","101.82","","","","-19","","NA"
"2013-12-24 15:00","2013","12","24","15:00","-9.6","","-14.8","","66","","32","","15","","16.1","","101.86","","","","-16","","NA"
"2013-12-24 16:00","2013","12","24","16:00","-9.5","","-13.8","","71","","32","","15","","16.1","","101.96","","","","-16","","NA"
"2013-12-24 17:00","2013","12","24","17:00","-9.8","","-14.2","","71","","31","","15","","16.1","","102.07","","","","-16","","NA"
"2013-12-24 18:00","2013","12","24","18:00","-10.0","","-15.2","","66","","29","","22","","16.1","","102.15","","","","-18","","NA"
"2013-12-24 19:00","2013","12","24","19:00","-10.5","","-15.8","","65","","30","","18","","16.1","","102.23","","","","-18","","NA"
"2013-12-24 20:00","2013","12","24","20:00","-11.0","","-15.8","","68","","31","","18","","16.1","","102.31","","","","-19","","NA"
"2013-12-24 21:00","2013","12","24","21:00","-11.8","","-15.6","","74","","33","","15","","16.1","","102.38","","","","-19","","NA"
"2013-12-24 22:00","2013","12","24","22:00","-12.3","","-15.8","","75","","32","","11","","16.1","","102.43","","","","-18","","NA"
"2013-12-24 23:00","2013","12","24","23:00","-12.6","","-16.3","","74","","33","","9","","16.1","","102.48","","","","-18","","NA"
"2013-12-25 00:00","2013","12","25","00:00","-12.8","","-16.6","","74","","34","","8","","16.1","","102.46","","","","-18","","NA"
"2013-12-25 01:00","2013","12","25","01:00","-13.6","","-16.5","","79","","","M","4","","16.1","","102.42","","","","-16","","NA"
"2013-12-25 02:00","2013","12","25","02:00","-13.8","","-17.3","","75","","7","","15","","16.1","","102.43","","","","-21","","NA"
"2013-12-25 03:00","2013","12","25","03:00","-14.6","","-18.0","","76","","12","","11","","16.1","","102.48","","","","-21","","NA"
"2013-12-25 04:00","2013","12","25","04:00","-14.7","","-18.1","","75","","13","","4","","16.1","","102.50","","","","-18","","NA"
"2013-12-25 05:00","2013","12","25","05:00","-14.7","","-18.4","","74","","6","","9","","16.1","","102.45","","","","-20","","NA"
"2013-12-25 06:00","2013","12","25","06:00","-13.6","","-17.2","","75","","","","0","","6.4","","102.47","","","","","","NA"
"2013-12-25 07:00","2013","12","25","07:00","-13.1","","-16.3","","77","","33","","5","","16.1","","102.45","","","","-16","","NA"
"2013-12-25 08:00","2013","12","25","08:00","-12.2","","-14.8","","81","","31","","5","","16.1","","102.38","","","","-15","","NA"
"2013-12-25 09:00","2013","12","25","09:00","-10.9","","-12.1","","91","","5","","15","","3.6","","102.31","","","","-18","","NA"
"2013-12-25 10:00","2013","12","25","10:00","-10.6","","-11.9","","90","","7","","17","","4.8","","102.32","","","","-18","","NA"
"2013-12-25 11:00","2013","12","25","11:00","-9.1","","-10.6","","89","","7","","9","","6.4","","102.22","","","","-14","","NA"
"2013-12-25 12:00","2013","12","25","12:00","-7.7","","-10.2","","83","","15","","8","","14.5","","102.13","","","","-12","","NA"
"2013-12-25 13:00","2013","12","25","13:00","-6.9","","-11.1","","72","","13","","13","","16.1","","102.01","","","","-12","","NA"
"2013-12-25 14:00","2013","12","25","14:00","-5.9","","-9.5","","76","","15","","15","","16.1","","101.89","","","","-12","","NA"
"2013-12-25 15:00","2013","12","25","15:00","-5.8","","-7.3","","89","","14","","15","","2.0","","101.82","","","","-12","","NA"
"2013-12-25 16:00","2013","12","25","16:00","-5.3","","-7.0","","88","","14","","17","","4.0","","101.73","","","","-11","","NA"
"2013-12-25 17:00","2013","12","25","17:00","-5.0","","-7.8","","81","","15","","18","","8.1","","101.69","","","","-11","","NA"
"2013-12-25 18:00","2013","12","25","18:00","-4.8","","-8.0","","79","","15","","17","","8.1","","101.62","","","","-11","","NA"
"2013-12-25 19:00","2013","12","25","19:00","-4.4","","-8.4","","74","","16","","18","","16.1","","101.56","","","","-10","","NA"
"2013-12-25 20:00","2013","12","25","20:00","-4.2","","-8.3","","73","","15","","13","","16.1","","101.50","","","","-9","","NA"
"2013-12-25 21:00","2013","12","25","21:00","-3.4","","-7.4","","74","","17","","18","","16.1","","101.42","","","","-9","","NA"
"2013-12-25 22:00","2013","12","25","22:00","-2.4","","-5.8","","77","","21","","26","","16.1","","101.32","","","","-9","","NA"
"2013-12-25 23:00","2013","12","25","23:00","-1.9","","-6.1","","73","","22","","28","","16.1","","101.27","","","","-9","","NA"
"2013-12-26 00:00","2013","12","26","00:00","-1.6","","-6.2","","71","","22","","30","","16.1","","101.19","","","","-9","","NA"
"2013-12-26 01:00","2013","12","26","01:00","-1.4","","-4.9","","77","","23","","28","","16.1","","101.13","","","","-8","","NA"
"2013-12-26 02:00","2013","12","26","02:00","-2.4","","-5.1","","82","","26","","17","","16.1","","101.09","","","","-8","","NA"
"2013-12-26 03:00","2013","12","26","03:00","-2.7","","-3.8","","92","","26","","17","","4.8","","101.06","","","","-8","","NA"
"2013-12-26 04:00","2013","12","26","04:00","-3.0","","-3.7","","95","","28","","9","","2.8","","100.96","","","","-7","","NA"
"2013-12-26 05:00","2013","12","26","05:00","-2.7","","-3.5","","94","","27","","13","","2.8","","100.90","","","","-7","","NA"
"2013-12-26 06:00","2013","12","26","06:00","-2.9","","-3.7","","94","","26","","11","","2.4","","100.85","","","","-7","","NA"
"2013-12-26 07:00","2013","12","26","07:00","-3.0","","-3.8","","94","","28","","13","","2.0","","100.84","","","","-8","","NA"
"2013-12-26 08:00","2013","12","26","08:00","-2.9","","-3.7","","94","","26","","13","","2.4","","100.85","","","","-8","","NA"
"2013-12-26 09:00","2013","12","26","09:00","-2.6","","-4.0","","90","","26","","13","","4.8","","100.88","","","","-7","","NA"
"2013-12-26 10:00","2013","12","26","10:00","-2.3","","-4.2","","87","","25","","18","","16.1","","100.90","","","","-8","","NA"
"2013-12-26 11:00","2013","12","26","11:00","-2.1","","-4.4","","84","","25","","21","","16.1","","100.91","","","","-8","","NA"
"2013-12-26 12:00","2013","12","26","12:00","-1.3","","-4.5","","79","","26","","21","","16.1","","100.90","","","","-7","","NA"
"2013-12-26 13:00","2013","12","26","13:00","-0.6","","-4.6","","75","","26","","24","","16.1","","100.94","","","","-7","","NA"
"2013-12-26 14:00","2013","12","26","14:00","-0.2","","-3.9","","76","","26","","22","","16.1","","100.95","","","","-6","","NA"
"2013-12-26 15:00","2013","12","26","15:00","-0.2","","-3.4","","79","","25","","26","","16.1","","101.01","","","","-6","","NA"
"2013-12-26 16:00","2013","12","26","16:00","-1.2","","-5.3","","74","","26","","33","","16.1","","101.12","","","","-8","","NA"
"2013-12-26 17:00","2013","12","26","17:00","-1.9","","-5.7","","76","","26","","30","","16.1","","101.23","","","","-9","","NA"
"2013-12-26 18:00","2013","12","26","18:00","-2.7","","-6.0","","78","","26","","26","","16.1","","101.33","","","","-10","","NA"
"2013-12-26 19:00","2013","12","26","19:00","-3.0","","-6.0","","80","","27","","24","","16.1","","101.43","","","","-10","","NA"
"2013-12-26 20:00","2013","12","26","20:00","-3.2","","-6.3","","79","","26","","26","","16.1","","101.46","","","","-10","","NA"
"2013-12-26 21:00","2013","12","26","21:00","-3.5","","-7.0","","77","","26","","33","","16.1","","101.48","","","","-11","","NA"
"2013-12-26 22:00","2013","12","26","22:00","-4.1","","-7.8","","76","","25","","33","","16.1","","101.50","","","","-12","","NA"
"2013-12-26 23:00","2013","12","26","23:00","-4.5","","-7.7","","79","","24","","28","","16.1","","101.52","","","","-12","","NA"
"2013-12-27 00:00","2013","12","27","00:00","-4.5","","-7.9","","77","","28","","21","","16.1","","101.54","","","","-11","","NA"
"2013-12-27 01:00","2013","12","27","01:00","-4.2","","-8.1","","74","","29","","21","","16.1","","101.51","","","","-11","","NA"
"2013-12-27 02:00","2013","12","27","02:00","-3.7","","-7.2","","77","","26","","28","","16.1","","101.52","","","","-11","","NA"
"2013-12-27 03:00","2013","12","27","03:00","-3.8","","-6.6","","81","","25","","22","","16.1","","101.52","","","","-10","","NA"
"2013-12-27 04:00","2013","12","27","04:00","-3.3","","-5.6","","84","","25","","21","","16.1","","101.44","","","","-10","","NA"
"2013-12-27 05:00","2013","12","27","05:00","-3.4","","-5.3","","87","","25","","22","","8.1","","101.39","","","","-10","","NA"
"2013-12-27 06:00","2013","12","27","06:00","-3.3","","-4.8","","89","","25","","18","","11.3","","101.40","","","","-9","","NA"
"2013-12-27 07:00","2013","12","27","07:00","-3.0","","-4.9","","87","","25","","24","","16.1","","101.39","","","","-10","","NA"
"2013-12-27 08:00","2013","12","27","08:00","-2.6","","-4.5","","87","","26","","18","","14.5","","101.44","","","","-8","","NA"
"2013-12-27 09:00","2013","12","27","09:00","-2.3","","-4.5","","85","","28","","15","","12.9","","101.48","","","","-7","","NA"
"2013-12-27 10:00","2013","12","27","10:00","-2.0","","-3.9","","87","","25","","22","","9.7","","101.52","","","","-8","","NA"
"2013-12-27 11:00","2013","12","27","11:00","-1.2","","-3.7","","83","","25","","21","","9.7","","101.53","","","","-7","","NA"
"2013-12-27 12:00","2013","12","27","12:00","-0.5","","-4.2","","76","","28","","15","","12.9","","101.48","","","","-5","","NA"
"2013-12-27 13:00","2013","12","27","13:00","-0.4","","-6.0","","66","","29","","21","","16.1","","101.45","","","","-6","","NA"
"2013-12-27 14:00","2013","12","27","14:00","-0.1","","-6.2","","64","","28","","22","","16.1","","101.41","","","","-6","","NA"
"2013-12-27 15:00","2013","12","27","15:00","-0.5","","-6.2","","66","","27","","28","","16.1","","101.43","","","","-7","","NA"
"2013-12-27 16:00","2013","12","27","16:00","-1.0","","-5.8","","70","","27","","18","","16.1","","101.49","","","","-6","","NA"
"2013-12-27 17:00","2013","12","27","17:00","-1.2","","-5.2","","75","","27","","13","","16.1","","101.44","","","","-5","","NA"
"2013-12-27 18:00","2013","12","27","18:00","-0.9","","-5.1","","73","","24","","32","","16.1","","101.45","","","","-8","","NA"
"2013-12-27 19:00","2013","12","27","19:00","-0.5","","-3.9","","78","","23","","22","","16.1","","101.39","","","","-6","","NA"
"2013-12-27 20:00","2013","12","27","20:00","-0.4","","-3.2","","82","","23","","24","","16.1","","101.30","","","","-6","","NA"
"2013-12-27 21:00","2013","12","27","21:00","0.3","","-1.9","","86","","22","","22","","16.1","","101.16","","","","","","NA"
"2013-12-27 22:00","2013","12","27","22:00","0.9","","-1.1","","86","","21","","30","","16.1","","101.00","","","","","","NA"
"2013-12-27 23:00","2013","12","27","23:00","1.4","","-0.6","","87","","20","","22","","16.1","","100.87","","","","","","NA"
"2013-12-28 00:00","2013","12","28","00:00","2.3","","-0.4","","82","","22","","28","","16.1","","100.76","","","","","","NA"
"2013-12-28 01:00","2013","12","28","01:00","2.1","","-0.4","","84","","24","","15","","16.1","","100.63","","","","","","NA"
"2013-12-28 02:00","2013","12","28","02:00","3.1","","0.3","","82","","24","","24","","16.1","","100.58","","","","","","NA"
"2013-12-28 03:00","2013","12","28","03:00","3.0","","0.4","","83","","25","","30","","16.1","","100.57","","","","","","NA"
"2013-12-28 04:00","2013","12","28","04:00","3.1","","0.5","","83","","24","","28","","16.1","","100.52","","","","","","NA"
"2013-12-28 05:00","2013","12","28","05:00","3.1","","0.5","","83","","24","","24","","16.1","","100.54","","","","","","NA"
"2013-12-28 06:00","2013","12","28","06:00","2.8","","0.2","","83","","24","","26","","16.1","","100.57","","","","","","NA"
"2013-12-28 07:00","2013","12","28","07:00","2.5","","0.4","","86","","24","","18","","16.1","","100.64","","","","","","NA"
"2013-12-28 08:00","2013","12","28","08:00","2.4","","0.6","","88","","23","","21","","14.5","","100.74","","","","","","NA"
"2013-12-28 09:00","2013","12","28","09:00","2.5","","0.6","","87","","22","","21","","12.9","","100.83","","","","","","NA"
"2013-12-28 10:00","2013","12","28","10:00","2.6","","0.7","","87","","22","","24","","11.3","","100.86","","","","","","NA"
"2013-12-28 11:00","2013","12","28","11:00","2.6","","0.6","","87","","23","","22","","11.3","","100.90","","","","","","NA"
"2013-12-28 12:00","2013","12","28","12:00","2.6","","0.5","","86","","23","","22","","11.3","","100.85","","","","","","NA"
"2013-12-28 13:00","2013","12","28","13:00","2.6","","0.6","","87","","23","","24","","9.7","","100.75","","","","","","NA"
"2013-12-28 14:00","2013","12","28","14:00","2.7","","0.3","","84","","24","","17","","11.3","","100.70","","","","","","NA"
"2013-12-28 15:00","2013","12","28","15:00","2.7","","0.1","","83","","25","","17","","9.7","","100.71","","","","","","NA"
"2013-12-28 16:00","2013","12","28","16:00","2.8","","0.4","","84","","25","","15","","9.7","","100.68","","","","","","NA"
"2013-12-28 17:00","2013","12","28","17:00","1.7","","0.3","","90","","22","","4","","9.7","","100.62","","","","","","NA"
"2013-12-28 18:00","2013","12","28","18:00","2.3","","1.1","","92","","21","","5","","6.4","","100.72","","","","","","NA"
"2013-12-28 19:00","2013","12","28","19:00","2.6","","1.1","","90","","19","","5","","12.9","","100.63","","","","","","NA"
"2013-12-28 20:00","2013","12","28","20:00","3.0","","0.4","","83","","26","","8","","16.1","","100.56","","","","","","NA"
"2013-12-28 21:00","2013","12","28","21:00","1.5","","0.3","","92","","14","","8","","12.9","","100.54","","","","","","NA"
"2013-12-28 22:00","2013","12","28","22:00","1.6","","0.5","","93","","17","","4","","16.1","","100.50","","","","","","NA"
"2013-12-28 23:00","2013","12","28","23:00","2.0","","0.3","","89","","19","","5","","16.1","","100.42","","","","","","NA"
"2013-12-29 00:00","2013","12","29","00:00","1.5","","0.4","","92","","13","","4","","14.5","","100.35","","","","","","NA"
"2013-12-29 01:00","2013","12","29","01:00","1.9","","0.3","","89","","","","0","","16.1","","100.27","","","","","","NA"
"2013-12-29 02:00","2013","12","29","02:00","-0.1","","-0.5","","97","","","","0","","12.9","","100.25","","","","","","NA"
"2013-12-29 03:00","2013","12","29","03:00","1.7","","0.1","","89","","18","","8","","16.1","","100.28","","","","","","NA"
"2013-12-29 04:00","2013","12","29","04:00","2.5","","1.1","","91","","20","","8","","16.1","","100.19","","","","","","NA"
"2013-12-29 05:00","2013","12","29","05:00","2.2","","0.7","","90","","23","","8","","16.1","","100.09","","","","","","NA"
"2013-12-29 06:00","2013","12","29","06:00","2.4","","0.8","","89","","22","","8","","16.1","","100.05","","","","","","NA"
"2013-12-29 07:00","2013","12","29","07:00","2.5","","0.8","","89","","22","","15","","16.1","","100.05","","","","","","NA"
"2013-12-29 08:00","2013","12","29","08:00","2.7","","1.1","","89","","","M","4","","16.1","","99.95","","","","","","NA"
"2013-12-29 09:00","2013","12","29","09:00","3.0","","0.8","","85","","","M","4","","16.1","","99.91","","","","","","NA"
"2013-12-29 10:00","2013","12","29","10:00","3.1","","0.8","","85","","21","","8","","16.1","","99.87","","","","","","NA"
"2013-12-29 11:00","2013","12","29","11:00","3.3","","0.7","","83","","22","","5","","16.1","","99.78","","","","","","NA"
"2013-12-29 12:00","2013","12","29","12:00","3.1","","0.5","","83","","23","","9","","16.1","","99.64","","","","","","NA"
"2013-12-29 13:00","2013","12","29","13:00","2.8","","0.7","","86","","23","","9","","16.1","","99.53","","","","","","NA"
"2013-12-29 14:00","2013","12","29","14:00","3.1","","0.5","","83","","27","","5","","16.1","","99.49","","","","","","NA"
"2013-12-29 15:00","2013","12","29","15:00","2.7","","0.7","","86","","21","","11","","16.1","","99.42","","","","","","NA"
"2013-12-29 16:00","2013","12","29","16:00","2.7","","0.5","","86","","26","","11","","16.1","","99.39","","","","","","NA"
"2013-12-29 17:00","2013","12","29","17:00","3.0","","-0.4","","78","","27","","17","","16.1","","99.39","","","","","","NA"
"2013-12-29 18:00","2013","12","29","18:00","3.7","","-0.7","","73","","27","","17","","16.1","","99.44","","","","","","NA"
"2013-12-29 19:00","2013","12","29","19:00","2.7","","0.2","","84","","26","","15","","16.1","","99.47","","","","","","NA"
"2013-12-29 20:00","2013","12","29","20:00","-1.3","","-3.5","","85","","33","","26","","16.1","","99.65","","","","-8","","NA"
"2013-12-29 21:00","2013","12","29","21:00","-2.6","","-5.5","","80","","33","","21","","16.1","","99.80","","","","-9","","NA"
"2013-12-29 22:00","2013","12","29","22:00","-3.1","","-6.6","","77","","30","","24","","12.9","","99.89","","","","-10","","NA"
"2013-12-29 23:00","2013","12","29","23:00","-4.6","","-9.9","","67","","29","","33","","16.1","","100.00","","","","-13","","NA"
"2013-12-30 00:00","2013","12","30","00:00","-5.2","","-10.5","","67","","30","","33","","16.1","","100.09","","","","-14","","NA"
"2013-12-30 01:00","2013","12","30","01:00","-6.4","","-11.8","","66","","30","","32","","16.1","","100.18","","","","-15","","NA"
"2013-12-30 02:00","2013","12","30","02:00","-7.9","","-13.5","","65","","31","","24","","16.1","","100.32","","","","-16","","NA"
"2013-12-30 03:00","2013","12","30","03:00","-8.6","","-14.1","","65","","31","","30","","16.1","","100.47","","","","-18","","NA"
"2013-12-30 04:00","2013","12","30","04:00","-8.9","","-14.4","","65","","29","","22","","16.1","","100.61","","","","-17","","NA"
"2013-12-30 05:00","2013","12","30","05:00","-9.2","","-14.8","","64","","29","","18","","16.1","","100.76","","","","-16","","NA"
"2013-12-30 06:00","2013","12","30","06:00","-9.3","","-14.2","","68","","28","","13","","16.1","","100.92","","","","-15","","NA"
"2013-12-30 07:00","2013","12","30","07:00","-9.2","","-14.4","","66","","28","","18","","16.1","","101.08","","","","-16","","NA"
"2013-12-30 08:00","2013","12","30","08:00","-9.2","","-15.0","","63","","29","","18","","16.1","","101.17","","","","-16","","NA"
"2013-12-30 09:00","2013","12","30","09:00","-9.2","","-15.2","","62","","30","","21","","16.1","","101.25","","","","-17","","NA"
"2013-12-30 10:00","2013","12","30","10:00","-8.9","","-15.6","","59","","31","","15","","16.1","","101.38","","","","-15","","NA"
"2013-12-30 11:00","2013","12","30","11:00","-8.9","","-15.9","","58","","29","","24","","16.1","","101.48","","","","-17","","NA"
"2013-12-30 12:00","2013","12","30","12:00","-8.2","","-15.6","","56","","28","","24","","16.1","","101.45","","","","-16","","NA"
"2013-12-30 13:00","2013","12","30","13:00","-8.6","","-17.6","","49","","27","","21","","16.1","","101.42","","","","-16","","NA"
"2013-12-30 14:00","2013","12","30","14:00","-8.1","","-19.7","","39","","29","","17","","16.1","","101.39","","","","-15","","NA"
"2013-12-30 15:00","2013","12","30","15:00","-8.0","","-20.2","","38","","34","","8","","16.1","","101.40","","","","-12","","NA"
"2013-12-30 16:00","2013","12","30","16:00","-8.0","","-21.3","","34","","28","","18","","16.1","","101.43","","","","-15","","NA"
"2013-12-30 17:00","2013","12","30","17:00","-8.4","","-20.7","","37","","33","","5","","16.1","","101.42","","","","-11","","NA"
"2013-12-30 18:00","2013","12","30","18:00","-8.4","","-19.6","","40","","","M","4","","16.1","","101.46","","","","-11","","NA"
"2013-12-30 19:00","2013","12","30","19:00","-8.8","","-15.5","","59","","10","","13","","16.1","","101.44","","","","-15","","NA"
"2013-12-30 20:00","2013","12","30","20:00","-9.1","","-14.8","","64","","8","","11","","16.1","","101.42","","","","-15","","NA"
"2013-12-30 21:00","2013","12","30","21:00","-9.2","","-13.9","","69","","9","","11","","16.1","","101.39","","","","-15","","NA"
"2013-12-30 22:00","2013","12","30","22:00","-9.1","","-12.6","","76","","6","","18","","16.1","","101.34","","","","-16","","NA"
"2013-12-30 23:00","2013","12","30","23:00","-8.8","","-10.9","","85","","7","","13","","9.7","","101.30","","","","-15","","NA"
"2013-12-31 00:00","2013","12","31","00:00","-8.4","","-10.1","","88","","6","","11","","2.4","","101.24","","","","-14","","NA"
"2013-12-31 01:00","2013","12","31","01:00","-8.5","","-9.7","","91","","6","","8","","16.1","","101.12","","","","-13","","NA"
"2013-12-31 02:00","2013","12","31","02:00","-8.0","","-10.6","","82","","33","","9","","16.1","","101.05","","","","-13","","NA"
"2013-12-31 03:00","2013","12","31","03:00","-7.3","","-12.0","","69","","26","","13","","16.1","","101.01","","","","-13","","NA"
"2013-12-31 04:00","2013","12","31","04:00","-7.0","","-11.8","","69","","29","","9","","16.1","","100.89","","","","-11","","NA"
"2013-12-31 05:00","2013","12","31","05:00","-6.8","","-12.0","","67","","29","","9","","16.1","","100.77","","","","-11","","NA"
"2013-12-31 06:00","2013","12","31","06:00","-6.5","","-10.7","","72","","23","","15","","4.8","","100.71","","","","-12","","NA"
"2013-12-31 07:00","2013","12","31","07:00","-6.3","","-7.9","","88","","23","","9","","2.0","","100.66","","","","-11","","NA"
"2013-12-31 08:00","2013","12","31","08:00","-6.2","","-7.7","","89","","25","","11","","1.6","","100.61","","","","-11","","NA"
"2013-12-31 09:00","2013","12","31","09:00","-5.8","","-7.6","","87","","24","","24","","2.8","","100.61","","","","-13","","NA"
"2013-12-31 10:00","2013","12","31","10:00","-6.0","","-9.5","","77","","27","","26","","16.1","","100.66","","","","-14","","NA"
"2013-12-31 11:00","2013","12","31","11:00","-6.1","","-11.7","","65","","28","","39","","12.9","","100.70","","","","-15","","NA"
"2013-12-31 12:00","2013","12","31","12:00","-6.6","","-12.4","","64","","27","","45","","16.1","","100.75","","","","-17","","NA"
"2013-12-31 13:00","2013","12","31","13:00","-6.4","","-12.3","","63","","26","","55","","16.1","","100.80","","","","-17","","NA"
"2013-12-31 14:00","2013","12","31","14:00","-6.7","","-13.5","","59","","25","","55","","16.1","","100.88","","","","-18","","NA"
"2013-12-31 15:00","2013","12","31","15:00","-7.0","","-14.2","","57","","28","","46","","16.1","","101.00","","","","-17","","NA"
"2013-12-31 16:00","2013","12","31","16:00","-7.6","","-14.3","","59","","27","","54","","16.1","","101.14","","","","-19","","NA"
"2013-12-31 17:00","2013","12","31","17:00","-8.1","","-11.6","","76","","24","","50","","16.1","","101.27","","","","-19","","NA"
"2013-12-31 18:00","2013","12","31","18:00","-8.6","","-14.2","","64","","26","","39","","16.1","","101.34","","","","-19","","NA"
"2013-12-31 19:00","2013","12","31","19:00","-8.9","","-13.3","","71","","26","","30","","16.1","","101.37","","","","-18","","NA"
"2013-12-31 20:00","2013","12","31","20:00","-8.8","","-13.1","","72","","26","","32","","16.1","","101.40","","","","-18","","NA"
"2013-12-31 21:00","2013","12","31","21:00","-8.6","","-12.2","","76","","24","","28","","16.1","","101.42","","","","-17","","NA"
"2013-12-31 22:00","2013","12","31","22:00","-8.5","","-11.2","","81","","25","","22","","16.1","","101.43","","","","-16","","NA"
"2013-12-31 23:00","2013","12","31","23:00","-8.1","","-11.1","","79","","24","","28","","16.1","","101.44","","","","-17","","NA"
