"Station Name","TORONTO CITY CENTRE"
"Province","ONTARIO"
"Latitude","43.63"
"Longitude","-79.40"
"Elevation","76.80"
"Climate Identifier","6158359"
"WMO Identifier","71265"
"TC Identifier","YTZ"
"All times are specified in Local Standard Time (LST). Add 1 hour to adjust for Daylight Saving Time where and when it is observed."

"Legend"
"E","Estimated"
"M","Missing"
"NA","Not Available"

"Date/Time","Year","Month","Day","Time","Temp (°C)","Temp Flag","Dew Point Temp (°C)","Dew Point Temp Flag","Rel Hum (%)","Rel Hum Flag","Wind Dir (10s deg)","Wind Dir Flag","Wind Spd (km/h)","Wind Spd Flag","Visibility (km)","Visibility Flag","Stn Press (kPa)","Stn Press Flag","Hmdx","Hmdx Flag","Wind Chill","Wind Chill Flag","Weather"
"2014-02-01 00:00","2014","02","01","00:00","-2.7","","-5.6","","81","","","","0","","14.5","","101.19","","","","","","NA"
"2014-02-01 01:00","2014","02","01","01:00","-2.6","","-4.8","","85","","27","","4","","16.1","","101.23","","","","-4","","NA"
"2014-02-01 02:00","2014","02","01","02:00","-1.3","","-4.0","","82","","28","","5","","14.5","","101.21","","","","-3","","NA"
"2014-02-01 03:00","2014","02","01","03:00","-1.0","","-3.1","","86","","27","","4","","9.7","","101.26","","","","-2","","NA"
"2014-02-01 04:00","2014","02","01","04:00","-1.8","","-3.4","","89","","15","","4","","8.1","","101.22","","","","-3","","NA"
"2014-02-01 05:00","2014","02","01","05:00","-1.7","","-3.0","","91","","5","","4","","8.1","","101.27","","","","-3","","NA"
"2014-02-01 06:00","2014","02","01","06:00","-1.4","","-2.7","","91","","8","","5","","4.8","","101.26","","","","-3","","NA"
"2014-02-01 07:00","2014","02","01","07:00","-0.7","","-2.0","","91","","7","","8","","6.4","","101.20","","","","-4","","NA"
"2014-02-01 08:00","2014","02","01","08:00","-0.1","","-1.2","","92","","17","","13","","4.0","","101.20","","","","-4","","NA"
"2014-02-01 09:00","2014","02","01","09:00","0.1","","-1.2","","91","","17","","9","","6.4","","101.18","","","","","","NA"
"2014-02-01 10:00","2014","02","01","10:00","0.1","","-1.5","","89","","16","","11","","6.4","","101.13","","","","","","NA"
"2014-02-01 11:00","2014","02","01","11:00","0.2","","-0.8","","93","","13","","13","","4.8","","101.01","","","","","","NA"
"2014-02-01 12:00","2014","02","01","12:00","0.1","","-0.5","","96","","11","","8","","1.6","","100.92","","","","","","NA"
"2014-02-01 13:00","2014","02","01","13:00","0.0","","-0.3","","98","","7","","13","","1.0","","100.72","","","","-4","","NA"
"2014-02-01 14:00","2014","02","01","14:00","0.2","","0.1","","99","","10","","9","","0.8","","100.57","","","","","","NA"
"2014-02-01 15:00","2014","02","01","15:00","0.4","","0.1","","98","","11","","17","","4.0","","100.38","","","","","","NA"
"2014-02-01 16:00","2014","02","01","16:00","0.5","","0.2","","98","","10","","15","","2.0","","100.24","","","","","","NA"
"2014-02-01 17:00","2014","02","01","17:00","0.3","","0.2","","99","","8","","13","","0.8","","100.24","","","","","","NA"
"2014-02-01 18:00","2014","02","01","18:00","0.2","","0.2","","100","","6","","15","","1.6","","100.12","","","","","","NA"
"2014-02-01 19:00","2014","02","01","19:00","0.2","","0.2","","100","","7","","11","","1.6","","100.11","","","","","","NA"
"2014-02-01 20:00","2014","02","01","20:00","0.3","","0.3","","100","","7","","9","","2.0","","100.04","","","","","","NA"
"2014-02-01 21:00","2014","02","01","21:00","1.1","","1.0","","99","","24","","9","","6.4","","100.07","","","","","","NA"
"2014-02-01 22:00","2014","02","01","22:00","0.9","","0.8","","99","","27","","9","","4.0","","100.07","","","","","","NA"
"2014-02-01 23:00","2014","02","01","23:00","0.7","","0.6","","99","","25","","9","","2.8","","100.11","","","","","","NA"
"2014-02-02 00:00","2014","02","02","00:00","0.6","","0.5","","99","","24","","13","","2.8","","100.12","","","","","","NA"
"2014-02-02 01:00","2014","02","02","01:00","0.4","","0.3","","99","","26","","15","","2.4","","100.18","","","","","","NA"
"2014-02-02 02:00","2014","02","02","02:00","0.9","","-0.7","","89","","30","","13","","12.9","","100.29","","","","","","NA"
"2014-02-02 03:00","2014","02","02","03:00","0.4","","-1.8","","85","","31","","21","","16.1","","100.36","","","","","","NA"
"2014-02-02 04:00","2014","02","02","04:00","-0.3","","-2.4","","86","","30","","21","","16.1","","100.44","","","","-6","","NA"
"2014-02-02 05:00","2014","02","02","05:00","-0.9","","-3.3","","84","","32","","18","","16.1","","100.50","","","","-6","","NA"
"2014-02-02 06:00","2014","02","02","06:00","-1.0","","-3.1","","86","","32","","11","","16.1","","100.60","","","","-5","","NA"
"2014-02-02 07:00","2014","02","02","07:00","-1.6","","-4.0","","84","","32","","18","","16.1","","100.66","","","","-7","","NA"
"2014-02-02 08:00","2014","02","02","08:00","-1.8","","-4.3","","83","","33","","15","","16.1","","100.68","","","","-7","","NA"
"2014-02-02 09:00","2014","02","02","09:00","-2.0","","-4.6","","83","","34","","8","","16.1","","100.82","","","","-5","","NA"
"2014-02-02 10:00","2014","02","02","10:00","-2.2","","-5.6","","78","","32","","18","","16.1","","100.89","","","","-8","","NA"
"2014-02-02 11:00","2014","02","02","11:00","-2.2","","-5.5","","78","","31","","15","","16.1","","100.88","","","","-7","","NA"
"2014-02-02 12:00","2014","02","02","12:00","-1.9","","-5.2","","78","","32","","11","","16.1","","100.92","","","","-6","","NA"
"2014-02-02 13:00","2014","02","02","13:00","-1.7","","-4.6","","81","","29","","13","","16.1","","100.90","","","","-6","","NA"
"2014-02-02 14:00","2014","02","02","14:00","-1.6","","-5.2","","77","","29","","21","","16.1","","100.94","","","","-7","","NA"
"2014-02-02 15:00","2014","02","02","15:00","-1.5","","-5.5","","74","","28","","18","","16.1","","100.94","","","","-7","","NA"
"2014-02-02 16:00","2014","02","02","16:00","-1.7","","-6.5","","70","","28","","24","","16.1","","100.99","","","","-8","","NA"
"2014-02-02 17:00","2014","02","02","17:00","-2.5","","-6.8","","72","","26","","18","","16.1","","101.14","","","","-8","","NA"
"2014-02-02 18:00","2014","02","02","18:00","-2.8","","-7.8","","69","","27","","22","","16.1","","101.21","","","","-9","","NA"
"2014-02-02 19:00","2014","02","02","19:00","-3.7","","-8.5","","70","","28","","18","","16.1","","101.31","","","","-10","","NA"
"2014-02-02 20:00","2014","02","02","20:00","-4.6","","-8.6","","74","","29","","13","","16.1","","101.33","","","","-10","","NA"
"2014-02-02 21:00","2014","02","02","21:00","-4.9","","-8.7","","75","","31","","21","","16.1","","101.40","","","","-12","","NA"
"2014-02-02 22:00","2014","02","02","22:00","-5.1","","-9.2","","73","","31","","21","","16.1","","101.47","","","","-12","","NA"
"2014-02-02 23:00","2014","02","02","23:00","-5.5","","-9.0","","77","","30","","18","","16.1","","101.46","","","","-12","","NA"
"2014-02-03 00:00","2014","02","03","00:00","-5.7","","-9.3","","76","","32","","17","","16.1","","101.47","","","","-12","","NA"
"2014-02-03 01:00","2014","02","03","01:00","-6.0","","-9.1","","79","","32","","11","","16.1","","101.50","","","","-11","","NA"
"2014-02-03 02:00","2014","02","03","02:00","-5.8","","-9.7","","74","","33","","9","","16.1","","101.46","","","","-10","","NA"
"2014-02-03 03:00","2014","02","03","03:00","-6.3","","-10.0","","75","","31","","8","","16.1","","101.52","","","","-10","","NA"
"2014-02-03 04:00","2014","02","03","04:00","-6.4","","-10.2","","75","","30","","9","","16.1","","101.55","","","","-11","","NA"
"2014-02-03 05:00","2014","02","03","05:00","-6.6","","-9.8","","78","","32","","13","","16.1","","101.51","","","","-12","","NA"
"2014-02-03 06:00","2014","02","03","06:00","-7.2","","-9.8","","82","","","M","5","","16.1","","101.58","","","","-10","","NA"
"2014-02-03 07:00","2014","02","03","07:00","-7.4","","-11.1","","75","","5","","8","","16.1","","101.54","","","","-11","","NA"
"2014-02-03 08:00","2014","02","03","08:00","-8.0","","-11.6","","76","","","","0","","16.1","","101.64","","","","","","NA"
"2014-02-03 09:00","2014","02","03","09:00","-7.2","","-12.3","","67","","","M","4","","16.1","","101.72","","","","-9","","NA"
"2014-02-03 10:00","2014","02","03","10:00","-6.2","","-11.9","","64","","12","","5","","16.1","","101.75","","","","-9","","NA"
"2014-02-03 11:00","2014","02","03","11:00","-5.4","","-11.6","","62","","","M","4","","16.1","","101.75","","","","-7","","NA"
"2014-02-03 12:00","2014","02","03","12:00","-5.0","","-10.4","","66","","21","","8","","16.1","","101.74","","","","-9","","NA"
"2014-02-03 13:00","2014","02","03","13:00","-4.3","","-10.3","","63","","24","","15","","16.1","","101.71","","","","-10","","NA"
"2014-02-03 14:00","2014","02","03","14:00","-4.0","","-10.6","","60","","25","","13","","16.1","","101.65","","","","-9","","NA"
"2014-02-03 15:00","2014","02","03","15:00","-3.9","","-9.9","","63","","22","","11","","16.1","","101.63","","","","-8","","NA"
"2014-02-03 16:00","2014","02","03","16:00","-3.6","","-11.7","","54","","28","","11","","16.1","","101.70","","","","-8","","NA"
"2014-02-03 17:00","2014","02","03","17:00","-3.9","","-12.5","","52","","28","","15","","16.1","","101.73","","","","-9","","NA"
"2014-02-03 18:00","2014","02","03","18:00","-4.9","","-11.8","","59","","28","","15","","16.1","","101.81","","","","-10","","NA"
"2014-02-03 19:00","2014","02","03","19:00","-5.8","","-12.1","","61","","28","","18","","16.1","","101.89","","","","-12","","NA"
"2014-02-03 20:00","2014","02","03","20:00","-6.6","","-12.3","","64","","27","","11","","16.1","","101.90","","","","-12","","NA"
"2014-02-03 21:00","2014","02","03","21:00","-7.3","","-12.4","","67","","30","","8","","16.1","","101.88","","","","-11","","NA"
"2014-02-03 22:00","2014","02","03","22:00","-7.9","","-12.4","","70","","29","","11","","16.1","","101.90","","","","-13","","NA"
"2014-02-03 23:00","2014","02","03","23:00","-8.5","","-12.5","","73","","29","","17","","16.1","","101.97","","","","-15","","NA"
"2014-02-04 00:00","2014","02","04","00:00","-8.8","","-12.3","","76","","29","","8","","16.1","","101.99","","","","-13","","NA"
"2014-02-04 01:00","2014","02","04","01:00","-9.6","","-13.0","","76","","29","","11","","16.1","","102.02","","","","-15","","NA"
"2014-02-04 02:00","2014","02","04","02:00","-9.5","","-13.0","","76","","30","","13","","16.1","","102.05","","","","-16","","NA"
"2014-02-04 03:00","2014","02","04","03:00","-9.4","","-13.1","","75","","31","","17","","16.1","","102.10","","","","-16","","NA"
"2014-02-04 04:00","2014","02","04","04:00","-9.7","","-13.0","","77","","33","","13","","16.1","","102.12","","","","-16","","NA"
"2014-02-04 05:00","2014","02","04","05:00","-10.2","","-13.2","","79","","34","","15","","16.1","","102.11","","","","-17","","NA"
"2014-02-04 06:00","2014","02","04","06:00","-9.3","","-12.3","","79","","33","","9","","16.1","","102.15","","","","-14","","NA"
"2014-02-04 07:00","2014","02","04","07:00","-10.2","","-12.9","","81","","26","","8","","16.1","","102.17","","","","-15","","NA"
"2014-02-04 08:00","2014","02","04","08:00","-10.0","","-12.5","","82","","27","","9","","16.1","","102.29","","","","-15","","NA"
"2014-02-04 09:00","2014","02","04","09:00","-8.9","","-12.2","","78","","26","","9","","16.1","","102.30","","","","-14","","NA"
"2014-02-04 10:00","2014","02","04","10:00","-7.6","","-10.6","","79","","25","","8","","16.1","","102.28","","","","-12","","NA"
"2014-02-04 11:00","2014","02","04","11:00","-6.7","","-10.3","","76","","23","","11","","16.1","","102.34","","","","-12","","NA"
"2014-02-04 12:00","2014","02","04","12:00","-6.4","","-11.1","","69","","23","","8","","16.1","","102.25","","","","-10","","NA"
"2014-02-04 13:00","2014","02","04","13:00","-5.8","","-10.8","","68","","21","","9","","16.1","","102.16","","","","-10","","NA"
"2014-02-04 14:00","2014","02","04","14:00","-5.4","","-10.8","","66","","21","","9","","16.1","","102.03","","","","-9","","NA"
"2014-02-04 15:00","2014","02","04","15:00","-5.1","","-10.0","","69","","21","","5","","16.1","","102.02","","","","-7","","NA"
"2014-02-04 16:00","2014","02","04","16:00","-4.9","","-10.1","","67","","14","","5","","16.1","","101.98","","","","-7","","NA"
"2014-02-04 17:00","2014","02","04","17:00","-5.1","","-9.4","","72","","","M","4","","16.1","","102.00","","","","-7","","NA"
"2014-02-04 18:00","2014","02","04","18:00","-5.2","","-9.6","","72","","","M","4","","16.1","","101.99","","","","-7","","NA"
"2014-02-04 19:00","2014","02","04","19:00","-5.1","","-8.6","","76","","7","","5","","16.1","","101.97","","","","-7","","NA"
"2014-02-04 20:00","2014","02","04","20:00","-4.7","","-8.8","","73","","5","","8","","16.1","","101.95","","","","-8","","NA"
"2014-02-04 21:00","2014","02","04","21:00","-4.5","","-7.9","","77","","7","","9","","16.1","","101.88","","","","-8","","NA"
"2014-02-04 22:00","2014","02","04","22:00","-4.3","","-7.1","","81","","6","","13","","16.1","","101.64","","","","-9","","NA"
"2014-02-04 23:00","2014","02","04","23:00","-3.7","","-7.2","","77","","5","","11","","16.1","","101.66","","","","-8","","NA"
"2014-02-05 00:00","2014","02","05","00:00","-4.5","","-6.2","","88","","3","","13","","2.0","","101.59","","","","-10","","NA"
"2014-02-05 01:00","2014","02","05","01:00","-5.0","","-6.5","","89","","4","","17","","2.0","","101.44","","","","-11","","NA"
"2014-02-05 02:00","2014","02","05","02:00","-5.2","","-6.7","","89","","4","","18","","4.0","","101.22","","","","-11","","NA"
"2014-02-05 03:00","2014","02","05","03:00","-5.1","","-6.6","","89","","3","","18","","2.8","","101.22","","","","-11","","NA"
"2014-02-05 04:00","2014","02","05","04:00","-5.2","","-6.7","","89","","4","","18","","2.4","","101.08","","","","-11","","NA"
"2014-02-05 05:00","2014","02","05","05:00","-5.4","","-7.2","","87","","3","","22","","4.0","","101.09","","","","-12","","NA"
"2014-02-05 06:00","2014","02","05","06:00","-6.1","","-7.8","","88","","3","","24","","3.2","","100.94","","","","-14","","NA"
"2014-02-05 07:00","2014","02","05","07:00","-6.0","","-7.8","","87","","5","","26","","4.8","","100.74","","","","-14","","NA"
"2014-02-05 08:00","2014","02","05","08:00","-6.0","","-7.8","","87","","5","","35","","3.6","","100.60","","","","-15","","NA"
"2014-02-05 09:00","2014","02","05","09:00","-6.0","","-7.6","","89","","5","","33","","1.6","","100.41","","","","-15","","NA"
"2014-02-05 10:00","2014","02","05","10:00","-6.3","","-7.7","","90","","3","","30","","0.8","","100.39","","","","-15","","NA"
"2014-02-05 11:00","2014","02","05","11:00","-6.1","","-7.8","","88","","3","","28","","1.2","","100.39","","","","-14","","NA"
"2014-02-05 12:00","2014","02","05","12:00","-6.1","","-7.6","","89","","3","","21","","0.6","","100.27","","","","-13","","NA"
"2014-02-05 13:00","2014","02","05","13:00","-6.0","","-8.5","","83","","2","","28","","2.0","","100.22","","","","-14","","NA"
"2014-02-05 14:00","2014","02","05","14:00","-6.1","","-7.9","","87","","34","","24","","1.2","","100.36","","","","-14","","NA"
"2014-02-05 15:00","2014","02","05","15:00","-6.7","","-8.9","","84","","35","","18","","1.0","","100.47","","","","-13","","NA"
"2014-02-05 16:00","2014","02","05","16:00","-6.7","","-9.4","","81","","36","","26","","3.6","","100.54","","","","-15","","NA"
"2014-02-05 17:00","2014","02","05","17:00","-6.7","","-10.3","","76","","34","","24","","14.5","","100.73","","","","-14","","NA"
"2014-02-05 18:00","2014","02","05","18:00","-7.0","","-12.7","","64","","35","","30","","16.1","","100.94","","","","-16","","NA"
"2014-02-05 19:00","2014","02","05","19:00","-7.4","","-13.1","","64","","33","","21","","16.1","","101.06","","","","-15","","NA"
"2014-02-05 20:00","2014","02","05","20:00","-8.5","","-13.9","","65","","32","","24","","8.1","","101.20","","","","-17","","NA"
"2014-02-05 21:00","2014","02","05","21:00","-9.2","","-15.4","","61","","33","","17","","16.1","","101.37","","","","-16","","NA"
"2014-02-05 22:00","2014","02","05","22:00","-10.0","","-15.9","","63","","32","","13","","16.1","","101.49","","","","-16","","NA"
"2014-02-05 23:00","2014","02","05","23:00","-10.7","","-16.2","","65","","32","","13","","16.1","","101.56","","","","-17","","NA"
"2014-02-06 00:00","2014","02","06","00:00","-11.0","","-16.3","","65","","30","","9","","9.7","","101.63","","","","-16","","NA"
"2014-02-06 01:00","2014","02","06","01:00","-11.4","","-16.6","","66","","30","","11","","16.1","","101.66","","","","-17","","NA"
"2014-02-06 02:00","2014","02","06","02:00","-11.2","","-16.2","","67","","31","","11","","16.1","","101.66","","","","-17","","NA"
"2014-02-06 03:00","2014","02","06","03:00","-11.8","","-16.1","","71","","30","","13","","16.1","","101.68","","","","-18","","NA"
"2014-02-06 04:00","2014","02","06","04:00","-11.7","","-15.9","","72","","30","","8","","16.1","","101.74","","","","-16","","NA"
"2014-02-06 05:00","2014","02","06","05:00","-11.5","","-15.4","","73","","31","","5","","16.1","","101.76","","","","-15","","NA"
"2014-02-06 06:00","2014","02","06","06:00","-12.4","","-15.7","","77","","30","","4","","16.1","","101.73","","","","-15","","NA"
"2014-02-06 07:00","2014","02","06","07:00","-11.5","","-14.4","","80","","30","","9","","16.1","","101.75","","","","-17","","NA"
"2014-02-06 08:00","2014","02","06","08:00","-11.3","","-14.1","","80","","29","","15","","16.1","","101.80","","","","-18","","NA"
"2014-02-06 09:00","2014","02","06","09:00","-9.8","","-13.3","","76","","25","","24","","16.1","","101.82","","","","-18","","NA"
"2014-02-06 10:00","2014","02","06","10:00","-8.9","","-11.6","","81","","25","","18","","16.1","","101.75","","","","-16","","NA"
"2014-02-06 11:00","2014","02","06","11:00","-8.4","","-12.0","","75","","28","","17","","16.1","","101.76","","","","-15","","NA"
"2014-02-06 12:00","2014","02","06","12:00","-7.4","","-11.2","","74","","23","","26","","16.1","","101.70","","","","-16","","NA"
"2014-02-06 13:00","2014","02","06","13:00","-7.1","","-12.2","","67","","24","","35","","16.1","","101.56","","","","-16","","NA"
"2014-02-06 14:00","2014","02","06","14:00","-7.1","","-11.6","","71","","24","","37","","6.4","","101.48","","","","-17","","NA"
"2014-02-06 15:00","2014","02","06","15:00","-7.7","","-12.3","","70","","26","","35","","8.1","","101.48","","","","-17","","NA"
"2014-02-06 16:00","2014","02","06","16:00","-7.4","","-12.0","","70","","25","","39","","16.1","","101.46","","","","-17","","NA"
"2014-02-06 17:00","2014","02","06","17:00","-7.7","","-12.4","","69","","25","","26","","16.1","","101.43","","","","-16","","NA"
"2014-02-06 18:00","2014","02","06","18:00","-7.4","","-11.1","","75","","24","","33","","16.1","","101.44","","","","-17","","NA"
"2014-02-06 19:00","2014","02","06","19:00","-6.9","","-9.8","","80","","23","","32","","16.1","","101.37","","","","-16","","NA"
"2014-02-06 20:00","2014","02","06","20:00","-6.5","","-9.0","","83","","24","","37","","16.1","","101.29","","","","-16","","NA"
"2014-02-06 21:00","2014","02","06","21:00","-6.3","","-9.7","","77","","24","","39","","16.1","","101.27","","","","-16","","NA"
"2014-02-06 22:00","2014","02","06","22:00","-6.2","","-10.4","","72","","24","","42","","12.9","","101.24","","","","-16","","NA"
"2014-02-06 23:00","2014","02","06","23:00","-6.6","","-10.0","","77","","24","","42","","4.8","","101.24","","","","-16","","NA"
"2014-02-07 00:00","2014","02","07","00:00","-7.6","","-10.5","","80","","24","","42","","8.1","","101.29","","","","-18","","NA"
"2014-02-07 01:00","2014","02","07","01:00","-8.2","","-12.0","","75","","25","","33","","8.1","","101.33","","","","-18","","NA"
"2014-02-07 02:00","2014","02","07","02:00","-9.3","","-13.7","","71","","26","","41","","8.1","","101.32","","","","-20","","NA"
"2014-02-07 03:00","2014","02","07","03:00","-10.2","","-15.0","","69","","26","","39","","16.1","","101.40","","","","-21","","NA"
"2014-02-07 04:00","2014","02","07","04:00","-10.7","","-15.7","","67","","27","","33","","16.1","","101.43","","","","-21","","NA"
"2014-02-07 05:00","2014","02","07","05:00","-10.6","","-15.6","","67","","26","","32","","16.1","","101.46","","","","-21","","NA"
"2014-02-07 06:00","2014","02","07","06:00","-10.6","","-15.1","","70","","25","","33","","16.1","","101.48","","","","-21","","NA"
"2014-02-07 07:00","2014","02","07","07:00","-10.7","","-15.2","","70","","24","","32","","16.1","","101.48","","","","-21","","NA"
"2014-02-07 08:00","2014","02","07","08:00","-10.9","","-14.9","","72","","24","","33","","16.1","","101.50","","","","-21","","NA"
"2014-02-07 09:00","2014","02","07","09:00","-11.3","","-15.1","","74","","23","","42","","14.5","","101.56","","","","-23","","NA"
"2014-02-07 10:00","2014","02","07","10:00","-10.9","","-14.8","","73","","25","","37","","12.9","","101.56","","","","-22","","NA"
"2014-02-07 11:00","2014","02","07","11:00","-11.4","","-15.8","","70","","25","","37","","16.1","","101.58","","","","-22","","NA"
"2014-02-07 12:00","2014","02","07","12:00","-11.0","","-15.1","","72","","23","","42","","11.3","","101.50","","","","-22","","NA"
"2014-02-07 13:00","2014","02","07","13:00","-10.7","","-15.5","","68","","24","","37","","16.1","","101.44","","","","-21","","NA"
"2014-02-07 14:00","2014","02","07","14:00","-10.1","","-14.6","","70","","24","","35","","16.1","","101.40","","","","-20","","NA"
"2014-02-07 15:00","2014","02","07","15:00","-9.4","","-13.9","","70","","24","","41","","16.1","","101.40","","","","-20","","NA"
"2014-02-07 16:00","2014","02","07","16:00","-9.5","","-14.1","","70","","23","","42","","11.3","","101.41","","","","-20","","NA"
"2014-02-07 17:00","2014","02","07","17:00","-10.2","","-15.2","","67","","25","","42","","16.1","","101.46","","","","-21","","NA"
"2014-02-07 18:00","2014","02","07","18:00","-10.6","","-14.4","","74","","24","","42","","16.1","","101.50","","","","-22","","NA"
"2014-02-07 19:00","2014","02","07","19:00","-10.4","","-14.1","","75","","24","","45","","9.7","","101.56","","","","-22","","NA"
"2014-02-07 20:00","2014","02","07","20:00","-11.0","","-14.3","","77","","24","","45","","14.5","","101.54","","","","-23","","NA"
"2014-02-07 21:00","2014","02","07","21:00","-11.4","","-14.5","","78","","24","","42","","14.5","","101.55","","","","-23","","NA"
"2014-02-07 22:00","2014","02","07","22:00","-12.1","","-15.5","","76","","24","","41","","16.1","","101.58","","","","-24","","NA"
"2014-02-07 23:00","2014","02","07","23:00","-13.0","","-17.1","","72","","26","","32","","16.1","","101.60","","","","-24","","NA"
"2014-02-08 00:00","2014","02","08","00:00","-12.8","","-17.0","","71","","25","","30","","16.1","","101.55","","","","-23","","NA"
"2014-02-08 01:00","2014","02","08","01:00","-13.2","","-17.3","","72","","27","","22","","16.1","","101.58","","","","-22","","NA"
"2014-02-08 02:00","2014","02","08","02:00","-13.5","","-18.2","","68","","26","","22","","16.1","","101.63","","","","-23","","NA"
"2014-02-08 03:00","2014","02","08","03:00","-13.2","","-17.9","","68","","24","","18","","16.1","","101.64","","","","-21","","NA"
"2014-02-08 04:00","2014","02","08","04:00","-13.3","","-17.7","","70","","25","","17","","16.1","","101.65","","","","-21","","NA"
"2014-02-08 05:00","2014","02","08","05:00","-13.4","","-17.8","","70","","26","","18","","16.1","","101.67","","","","-22","","NA"
"2014-02-08 06:00","2014","02","08","06:00","-13.4","","-16.9","","75","","25","","17","","16.1","","101.70","","","","-21","","NA"
"2014-02-08 07:00","2014","02","08","07:00","-13.4","","-16.5","","78","","22","","13","","16.1","","101.69","","","","-20","","NA"
"2014-02-08 08:00","2014","02","08","08:00","-13.5","","-16.2","","80","","23","","18","","16.1","","101.73","","","","-22","","NA"
"2014-02-08 09:00","2014","02","08","09:00","-13.2","","-15.6","","82","","24","","18","","16.1","","101.73","","","","-21","","NA"
"2014-02-08 10:00","2014","02","08","10:00","-12.5","","-15.3","","80","","26","","21","","16.1","","101.75","","","","-21","","NA"
"2014-02-08 11:00","2014","02","08","11:00","-12.1","","-15.7","","75","","27","","13","","16.1","","101.71","","","","-19","","NA"
"2014-02-08 12:00","2014","02","08","12:00","-11.5","","-15.7","","71","","24","","13","","16.1","","101.65","","","","-18","","NA"
"2014-02-08 13:00","2014","02","08","13:00","-10.6","","-15.3","","69","","25","","15","","16.1","","101.56","","","","-17","","NA"
"2014-02-08 14:00","2014","02","08","14:00","-10.2","","-14.5","","71","","24","","17","","16.1","","101.48","","","","-17","","NA"
"2014-02-08 15:00","2014","02","08","15:00","-9.4","","-14.1","","69","","25","","15","","16.1","","101.47","","","","-16","","NA"
"2014-02-08 16:00","2014","02","08","16:00","-8.9","","-13.6","","69","","23","","18","","16.1","","101.48","","","","-16","","NA"
"2014-02-08 17:00","2014","02","08","17:00","-8.9","","-14.2","","66","","26","","15","","16.1","","101.44","","","","-15","","NA"
"2014-02-08 18:00","2014","02","08","18:00","-8.8","","-14.1","","66","","26","","17","","16.1","","101.43","","","","-16","","NA"
"2014-02-08 19:00","2014","02","08","19:00","-9.1","","-13.8","","69","","25","","15","","16.1","","101.41","","","","-16","","NA"
"2014-02-08 20:00","2014","02","08","20:00","-9.3","","-14.0","","69","","25","","21","","16.1","","101.41","","","","-17","","NA"
"2014-02-08 21:00","2014","02","08","21:00","-9.5","","-14.1","","69","","29","","17","","16.1","","101.39","","","","-17","","NA"
"2014-02-08 22:00","2014","02","08","22:00","-9.6","","-14.3","","69","","30","","13","","16.1","","101.42","","","","-16","","NA"
"2014-02-08 23:00","2014","02","08","23:00","-9.5","","-13.8","","71","","29","","8","","16.1","","101.41","","","","-14","","NA"
"2014-02-09 00:00","2014","02","09","00:00","-10.3","","-12.9","","81","","32","","11","","3.2","","101.42","","","","-16","","NA"
"2014-02-09 01:00","2014","02","09","01:00","-10.4","","-12.5","","85","","31","","4","","2.0","","101.39","","","","-13","","NA"
"2014-02-09 02:00","2014","02","09","02:00","-10.7","","-12.8","","85","","28","","5","","11.3","","101.33","","","","-14","","NA"
"2014-02-09 03:00","2014","02","09","03:00","-11.1","","-13.6","","82","","26","","8","","16.1","","101.28","","","","-16","","NA"
"2014-02-09 04:00","2014","02","09","04:00","-10.7","","-13.6","","80","","32","","8","","16.1","","101.25","","","","-15","","NA"
"2014-02-09 05:00","2014","02","09","05:00","-11.2","","-13.3","","85","","","","0","","16.1","","101.21","","","","","","NA"
"2014-02-09 06:00","2014","02","09","06:00","-12.3","","-14.0","","88","","30","","5","","16.1","","101.19","","","","-16","","NA"
"2014-02-09 07:00","2014","02","09","07:00","-10.7","","-12.8","","85","","30","","9","","12.9","","101.18","","","","-16","","NA"
"2014-02-09 08:00","2014","02","09","08:00","-10.4","","-13.1","","81","","31","","9","","16.1","","101.16","","","","-15","","NA"
"2014-02-09 09:00","2014","02","09","09:00","-9.9","","-12.3","","83","","32","","9","","6.4","","101.10","","","","-15","","NA"
"2014-02-09 10:00","2014","02","09","10:00","-9.2","","-11.6","","83","","30","","8","","2.8","","101.03","","","","-14","","NA"
"2014-02-09 11:00","2014","02","09","11:00","-9.1","","-10.6","","89","","9","","5","","2.0","","100.96","","","","-12","","NA"
"2014-02-09 12:00","2014","02","09","12:00","-8.3","","-9.8","","89","","9","","5","","1.2","","100.82","","","","-11","","NA"
"2014-02-09 13:00","2014","02","09","13:00","-7.9","","-9.4","","89","","10","","5","","1.2","","100.69","","","","-11","","NA"
"2014-02-09 14:00","2014","02","09","14:00","-7.6","","-9.4","","87","","33","","8","","1.2","","100.63","","","","-12","","NA"
"2014-02-09 15:00","2014","02","09","15:00","-7.6","","-10.1","","82","","32","","13","","1.2","","100.62","","","","-13","","NA"
"2014-02-09 16:00","2014","02","09","16:00","-7.4","","-10.0","","82","","34","","15","","4.0","","100.64","","","","-14","","NA"
"2014-02-09 17:00","2014","02","09","17:00","-7.3","","-9.6","","84","","32","","11","","4.8","","100.68","","","","-12","","NA"
"2014-02-09 18:00","2014","02","09","18:00","-7.7","","-10.1","","83","","31","","9","","4.0","","100.74","","","","-12","","NA"
"2014-02-09 19:00","2014","02","09","19:00","-8.1","","-10.2","","85","","30","","11","","16.1","","100.81","","","","-13","","NA"
"2014-02-09 20:00","2014","02","09","20:00","-9.0","","-11.1","","85","","30","","9","","16.1","","100.87","","","","-14","","NA"
"2014-02-09 21:00","2014","02","09","21:00","-9.4","","-12.3","","80","","28","","13","","16.1","","100.95","","","","-15","","NA"
"2014-02-09 22:00","2014","02","09","22:00","-9.9","","-12.7","","80","","28","","13","","16.1","","100.98","","","","-16","","NA"
"2014-02-09 23:00","2014","02","09","23:00","-9.9","","-12.9","","79","","31","","11","","16.1","","100.99","","","","-15","","NA"
"2014-02-10 00:00","2014","02","10","00:00","-11.0","","-13.6","","82","","29","","8","","16.1","","101.05","","","","-16","","NA"
"2014-02-10 01:00","2014","02","10","01:00","-10.8","","-13.7","","79","","30","","17","","16.1","","101.07","","","","-18","","NA"
"2014-02-10 02:00","2014","02","10","02:00","-10.7","","-13.5","","80","","31","","9","","16.1","","101.07","","","","-16","","NA"
"2014-02-10 03:00","2014","02","10","03:00","-11.4","","-14.2","","80","","31","","8","","16.1","","101.09","","","","-16","","NA"
"2014-02-10 04:00","2014","02","10","04:00","-11.1","","-13.8","","81","","31","","9","","16.1","","101.12","","","","-16","","NA"
"2014-02-10 05:00","2014","02","10","05:00","-10.3","","-13.1","","80","","33","","9","","16.1","","101.15","","","","-15","","NA"
"2014-02-10 06:00","2014","02","10","06:00","-10.1","","-12.9","","80","","30","","8","","16.1","","101.17","","","","-15","","NA"
"2014-02-10 07:00","2014","02","10","07:00","-10.0","","-12.8","","80","","30","","13","","16.1","","101.22","","","","-16","","NA"
"2014-02-10 08:00","2014","02","10","08:00","-10.0","","-13.2","","78","","33","","9","","16.1","","101.26","","","","-15","","NA"
"2014-02-10 09:00","2014","02","10","09:00","-9.1","","-12.8","","75","","29","","17","","16.1","","101.32","","","","-16","","NA"
"2014-02-10 10:00","2014","02","10","10:00","-7.8","","-13.8","","62","","30","","21","","16.1","","101.36","","","","-15","","NA"
"2014-02-10 11:00","2014","02","10","11:00","-7.6","","-14.1","","60","","29","","24","","16.1","","101.42","","","","-16","","NA"
"2014-02-10 12:00","2014","02","10","12:00","-7.5","","-14.6","","57","","28","","22","","16.1","","101.41","","","","-15","","NA"
"2014-02-10 13:00","2014","02","10","13:00","-6.3","","-13.9","","55","","28","","22","","16.1","","101.38","","","","-14","","NA"
"2014-02-10 14:00","2014","02","10","14:00","-6.8","","-15.5","","50","","29","","30","","16.1","","101.34","","","","-15","","NA"
"2014-02-10 15:00","2014","02","10","15:00","-7.1","","-15.9","","50","","31","","17","","16.1","","101.36","","","","-14","","NA"
"2014-02-10 16:00","2014","02","10","16:00","-7.3","","-14.2","","58","","26","","26","","16.1","","101.42","","","","-15","","NA"
"2014-02-10 17:00","2014","02","10","17:00","-7.6","","-15.8","","52","","29","","26","","16.1","","101.49","","","","-16","","NA"
"2014-02-10 18:00","2014","02","10","18:00","-8.7","","-16.0","","56","","29","","24","","16.1","","101.59","","","","-17","","NA"
"2014-02-10 19:00","2014","02","10","19:00","-9.2","","-15.8","","59","","29","","18","","16.1","","101.66","","","","-16","","NA"
"2014-02-10 20:00","2014","02","10","20:00","-9.8","","-16.5","","59","","28","","32","","16.1","","101.70","","","","-20","","NA"
"2014-02-10 21:00","2014","02","10","21:00","-10.0","","-17.3","","56","","27","","26","","16.1","","101.74","","","","-19","","NA"
"2014-02-10 22:00","2014","02","10","22:00","-10.0","","-17.2","","56","","28","","15","","16.1","","101.77","","","","-17","","NA"
"2014-02-10 23:00","2014","02","10","23:00","-10.1","","-16.4","","60","","27","","18","","16.1","","101.79","","","","-18","","NA"
"2014-02-11 00:00","2014","02","11","00:00","-10.4","","-15.8","","65","","27","","21","","16.1","","101.83","","","","-19","","NA"
"2014-02-11 01:00","2014","02","11","01:00","-10.7","","-15.7","","67","","28","","21","","16.1","","101.83","","","","-19","","NA"
"2014-02-11 02:00","2014","02","11","02:00","-10.8","","-15.3","","70","","28","","13","","16.1","","101.84","","","","-17","","NA"
"2014-02-11 03:00","2014","02","11","03:00","-10.8","","-15.3","","70","","28","","15","","16.1","","101.88","","","","-18","","NA"
"2014-02-11 04:00","2014","02","11","04:00","-11.0","","-15.4","","70","","28","","17","","16.1","","101.89","","","","-18","","NA"
"2014-02-11 05:00","2014","02","11","05:00","-11.0","","-15.4","","70","","29","","15","","16.1","","101.94","","","","-18","","NA"
"2014-02-11 06:00","2014","02","11","06:00","-10.8","","-15.3","","70","","28","","11","","16.1","","101.98","","","","-17","","NA"
"2014-02-11 07:00","2014","02","11","07:00","-10.8","","-15.8","","67","","31","","13","","16.1","","102.02","","","","-17","","NA"
"2014-02-11 08:00","2014","02","11","08:00","-10.9","","-17.0","","61","","30","","13","","16.1","","102.11","","","","-17","","NA"
"2014-02-11 09:00","2014","02","11","09:00","-10.8","","-16.4","","64","","30","","15","","16.1","","102.15","","","","-18","","NA"
"2014-02-11 10:00","2014","02","11","10:00","-10.4","","-16.8","","60","","30","","22","","16.1","","102.20","","","","-19","","NA"
"2014-02-11 11:00","2014","02","11","11:00","-10.8","","-18.3","","55","","31","","22","","16.1","","102.26","","","","-19","","NA"
"2014-02-11 12:00","2014","02","11","12:00","-10.5","","-17.9","","55","","29","","22","","16.1","","102.27","","","","-19","","NA"
"2014-02-11 13:00","2014","02","11","13:00","-10.1","","-18.0","","53","","32","","18","","16.1","","102.24","","","","-18","","NA"
"2014-02-11 14:00","2014","02","11","14:00","-9.6","","-17.5","","53","","31","","18","","16.1","","102.20","","","","-17","","NA"
"2014-02-11 15:00","2014","02","11","15:00","-9.0","","-17.0","","53","","28","","17","","16.1","","102.22","","","","-16","","NA"
"2014-02-11 16:00","2014","02","11","16:00","-9.2","","-17.4","","52","","30","","18","","16.1","","102.24","","","","-16","","NA"
"2014-02-11 17:00","2014","02","11","17:00","-9.3","","-17.0","","54","","28","","17","","16.1","","102.29","","","","-16","","NA"
"2014-02-11 18:00","2014","02","11","18:00","-10.1","","-17.1","","57","","29","","17","","16.1","","102.32","","","","-17","","NA"
"2014-02-11 19:00","2014","02","11","19:00","-10.3","","-17.3","","57","","29","","15","","16.1","","102.37","","","","-17","","NA"
"2014-02-11 20:00","2014","02","11","20:00","-10.7","","-17.0","","60","","30","","9","","16.1","","102.40","","","","-16","","NA"
"2014-02-11 21:00","2014","02","11","21:00","-11.5","","-16.6","","66","","29","","9","","16.1","","102.41","","","","-17","","NA"
"2014-02-11 22:00","2014","02","11","22:00","-11.3","","-16.8","","64","","31","","9","","16.1","","102.44","","","","-16","","NA"
"2014-02-11 23:00","2014","02","11","23:00","-11.7","","-16.7","","67","","31","","8","","16.1","","102.44","","","","-16","","NA"
"2014-02-12 00:00","2014","02","12","00:00","-12.5","","-17.3","","68","","30","","11","","16.1","","102.42","","","","-19","","NA"
"2014-02-12 01:00","2014","02","12","01:00","-14.5","","-17.4","","79","","29","","4","","16.1","","102.33","","","","-17","","NA"
"2014-02-12 02:00","2014","02","12","02:00","-12.8","","-16.9","","72","","31","","9","","16.1","","102.34","","","","-18","","NA"
"2014-02-12 03:00","2014","02","12","03:00","-12.9","","-16.5","","75","","31","","8","","16.1","","102.37","","","","-18","","NA"
"2014-02-12 04:00","2014","02","12","04:00","-13.0","","-16.6","","75","","29","","8","","16.1","","102.32","","","","-18","","NA"
"2014-02-12 05:00","2014","02","12","05:00","-13.1","","-17.0","","73","","30","","8","","16.1","","102.34","","","","-18","","NA"
"2014-02-12 06:00","2014","02","12","06:00","-13.1","","-16.3","","78","","33","","5","","16.1","","102.27","","","","-16","","NA"
"2014-02-12 07:00","2014","02","12","07:00","-12.7","","-15.3","","81","","30","","8","","16.1","","102.28","","","","-18","","NA"
"2014-02-12 08:00","2014","02","12","08:00","-12.8","","-15.5","","80","","32","","9","","16.1","","102.28","","","","-18","","NA"
"2014-02-12 09:00","2014","02","12","09:00","-12.4","","-15.0","","81","","","M","4","","16.1","","102.20","","","","-15","","NA"
"2014-02-12 10:00","2014","02","12","10:00","-8.1","","-13.2","","67","","","M","15","","16.1","","102.09","","","","-14","","NA"
"2014-02-12 11:00","2014","02","12","11:00","-7.8","","-13.3","","65","","18","","15","","16.1","","102.13","","","","-14","","NA"
"2014-02-12 12:00","2014","02","12","12:00","-7.5","","-10.7","","78","","22","","13","","16.1","","102.05","","","","-13","","NA"
"2014-02-12 13:00","2014","02","12","13:00","-6.2","","-13.0","","59","","15","","9","","16.1","","101.86","","","","-10","","NA"
"2014-02-12 14:00","2014","02","12","14:00","-6.4","","-13.2","","59","","14","","9","","16.1","","101.72","","","","-11","","NA"
"2014-02-12 15:00","2014","02","12","15:00","-6.1","","-12.9","","59","","13","","11","","16.1","","101.58","","","","-11","","NA"
"2014-02-12 16:00","2014","02","12","16:00","-6.3","","-13.8","","56","","11","","13","","16.1","","101.51","","","","-12","","NA"
"2014-02-12 17:00","2014","02","12","17:00","-6.9","","-12.9","","62","","8","","8","","16.1","","101.41","","","","-11","","NA"
"2014-02-12 18:00","2014","02","12","18:00","-8.4","","-13.0","","70","","6","","8","","16.1","","101.37","","","","-13","","NA"
"2014-02-12 19:00","2014","02","12","19:00","-9.1","","-13.5","","71","","6","","8","","16.1","","101.36","","","","-13","","NA"
"2014-02-12 20:00","2014","02","12","20:00","-9.0","","-13.0","","73","","6","","5","","16.1","","101.30","","","","-12","","NA"
"2014-02-12 21:00","2014","02","12","21:00","-8.6","","-12.5","","74","","","","0","","16.1","","101.32","","","","","","NA"
"2014-02-12 22:00","2014","02","12","22:00","-7.1","","-11.7","","70","","32","","9","","16.1","","101.27","","","","-11","","NA"
"2014-02-12 23:00","2014","02","12","23:00","-7.8","","-12.0","","72","","30","","4","","16.1","","101.21","","","","-10","","NA"
"2014-02-13 00:00","2014","02","13","00:00","-8.2","","-11.9","","75","","31","","5","","16.1","","101.21","","","","-11","","NA"
"2014-02-13 01:00","2014","02","13","01:00","-7.9","","-12.0","","73","","33","","5","","16.1","","101.14","","","","-11","","NA"
"2014-02-13 02:00","2014","02","13","02:00","-8.4","","-12.7","","72","","","","0","","16.1","","101.07","","","","","","NA"
"2014-02-13 03:00","2014","02","13","03:00","-9.4","","-11.9","","82","","31","","5","","16.1","","101.03","","","","-12","","NA"
"2014-02-13 04:00","2014","02","13","04:00","-10.3","","-12.5","","84","","33","","4","","16.1","","101.09","","","","-13","","NA"
"2014-02-13 05:00","2014","02","13","05:00","-11.1","","-13.0","","86","","","M","4","","14.5","","101.04","","","","-14","","NA"
"2014-02-13 06:00","2014","02","13","06:00","-11.0","","-13.1","","85","","2","","5","","16.1","","100.97","","","","-14","","NA"
"2014-02-13 07:00","2014","02","13","07:00","-8.1","","-11.3","","78","","33","","9","","16.1","","100.88","","","","-13","","NA"
"2014-02-13 08:00","2014","02","13","08:00","-11.2","","-13.8","","81","","9","","5","","16.1","","100.86","","","","-14","","NA"
"2014-02-13 09:00","2014","02","13","09:00","-8.0","","-10.7","","81","","6","","11","","16.1","","100.78","","","","-13","","NA"
"2014-02-13 10:00","2014","02","13","10:00","-5.3","","-9.2","","74","","6","","13","","16.1","","100.69","","","","-10","","NA"
"2014-02-13 11:00","2014","02","13","11:00","-3.8","","-8.5","","70","","7","","17","","16.1","","100.65","","","","-10","","NA"
"2014-02-13 12:00","2014","02","13","12:00","-3.3","","-6.9","","76","","6","","28","","16.1","","100.50","","","","-11","","NA"
"2014-02-13 13:00","2014","02","13","13:00","-2.9","","-6.5","","76","","6","","24","","16.1","","100.36","","","","-10","","NA"
"2014-02-13 14:00","2014","02","13","14:00","-2.9","","-6.6","","76","","7","","28","","16.1","","100.22","","","","-10","","NA"
"2014-02-13 15:00","2014","02","13","15:00","-3.0","","-7.3","","72","","7","","26","","16.1","","100.09","","","","-10","","NA"
"2014-02-13 16:00","2014","02","13","16:00","-3.4","","-7.1","","76","","7","","24","","16.1","","99.97","","","","-10","","NA"
"2014-02-13 17:00","2014","02","13","17:00","-3.3","","-8.6","","67","","4","","18","","16.1","","99.87","","","","-9","","NA"
"2014-02-13 18:00","2014","02","13","18:00","-4.4","","-10.0","","65","","6","","17","","16.1","","99.79","","","","-10","","NA"
"2014-02-13 19:00","2014","02","13","19:00","-5.1","","-10.2","","68","","6","","13","","16.1","","99.71","","","","-10","","NA"
"2014-02-13 20:00","2014","02","13","20:00","-3.8","","-11.4","","56","","5","","8","","16.1","","99.64","","","","-7","","NA"
"2014-02-13 21:00","2014","02","13","21:00","-5.3","","-10.7","","66","","5","","11","","16.1","","99.51","","","","-10","","NA"
"2014-02-13 22:00","2014","02","13","22:00","-4.5","","-9.4","","69","","4","","8","","16.1","","99.42","","","","-8","","NA"
"2014-02-13 23:00","2014","02","13","23:00","-3.4","","-9.3","","64","","6","","13","","16.1","","99.28","","","","-8","","NA"
"2014-02-14 00:00","2014","02","14","00:00","-3.1","","-9.4","","62","","7","","8","","16.1","","99.21","","","","-6","","NA"
"2014-02-14 01:00","2014","02","14","01:00","-3.6","","-7.9","","72","","6","","11","","16.1","","99.12","","","","-8","","NA"
"2014-02-14 02:00","2014","02","14","02:00","-3.3","","-8.1","","70","","30","","9","","16.1","","99.02","","","","-7","","NA"
"2014-02-14 03:00","2014","02","14","03:00","-3.7","","-9.5","","64","","31","","8","","16.1","","98.95","","","","-7","","NA"
"2014-02-14 04:00","2014","02","14","04:00","-3.8","","-10.2","","61","","33","","11","","16.1","","98.89","","","","-8","","NA"
"2014-02-14 05:00","2014","02","14","05:00","-3.5","","-9.8","","62","","32","","9","","16.1","","98.87","","","","-7","","NA"
"2014-02-14 06:00","2014","02","14","06:00","-3.4","","-9.6","","62","","31","","8","","16.1","","98.85","","","","-7","","NA"
"2014-02-14 07:00","2014","02","14","07:00","-3.8","","-8.0","","73","","30","","11","","11.3","","98.87","","","","-8","","NA"
"2014-02-14 08:00","2014","02","14","08:00","-4.2","","-7.5","","78","","31","","17","","16.1","","98.88","","","","-10","","NA"
"2014-02-14 09:00","2014","02","14","09:00","-4.3","","-6.9","","82","","32","","13","","4.0","","98.92","","","","-9","","NA"
"2014-02-14 10:00","2014","02","14","10:00","-3.7","","-6.6","","80","","31","","13","","16.1","","98.97","","","","-9","","NA"
"2014-02-14 11:00","2014","02","14","11:00","-2.9","","-6.1","","79","","31","","15","","16.1","","98.99","","","","-8","","NA"
"2014-02-14 12:00","2014","02","14","12:00","-1.5","","-6.3","","70","","28","","18","","16.1","","99.04","","","","-7","","NA"
"2014-02-14 13:00","2014","02","14","13:00","-1.0","","-5.9","","70","","26","","15","","16.1","","99.07","","","","-6","","NA"
"2014-02-14 14:00","2014","02","14","14:00","-0.4","","-5.5","","69","","25","","21","","16.1","","99.12","","","","-6","","NA"
"2014-02-14 15:00","2014","02","14","15:00","0.0","","-5.8","","65","","25","","30","","16.1","","99.14","","","","-6","","NA"
"2014-02-14 16:00","2014","02","14","16:00","-0.4","","-6.0","","66","","26","","30","","16.1","","99.25","","","","-7","","NA"
"2014-02-14 17:00","2014","02","14","17:00","-1.6","","-6.9","","68","","27","","24","","16.1","","99.36","","","","-8","","NA"
"2014-02-14 18:00","2014","02","14","18:00","-1.8","","-7.2","","67","","29","","30","","16.1","","99.49","","","","-9","","NA"
"2014-02-14 19:00","2014","02","14","19:00","-2.5","","-7.0","","71","","27","","24","","16.1","","99.59","","","","-9","","NA"
"2014-02-14 20:00","2014","02","14","20:00","-2.4","","-6.8","","72","","28","","15","","16.1","","99.59","","","","-7","","NA"
"2014-02-14 21:00","2014","02","14","21:00","-2.5","","-6.6","","74","","27","","17","","16.1","","99.61","","","","-8","","NA"
"2014-02-14 22:00","2014","02","14","22:00","-2.6","","-6.5","","74","","28","","15","","16.1","","99.68","","","","-8","","NA"
"2014-02-14 23:00","2014","02","14","23:00","-3.0","","-6.9","","75","","28","","21","","16.1","","99.70","","","","-9","","NA"
"2014-02-15 00:00","2014","02","15","00:00","-3.3","","-6.9","","76","","28","","13","","16.1","","99.74","","","","-8","","NA"
"2014-02-15 01:00","2014","02","15","01:00","-3.0","","-6.5","","77","","27","","11","","14.5","","99.80","","","","-7","","NA"
"2014-02-15 02:00","2014","02","15","02:00","-3.1","","-6.6","","77","","27","","9","","14.5","","99.81","","","","-7","","NA"
"2014-02-15 03:00","2014","02","15","03:00","-3.2","","-6.9","","76","","27","","9","","16.1","","99.80","","","","-7","","NA"
"2014-02-15 04:00","2014","02","15","04:00","-3.6","","-8.9","","67","","30","","9","","16.1","","99.84","","","","-7","","NA"
"2014-02-15 05:00","2014","02","15","05:00","-4.0","","-8.3","","72","","29","","18","","16.1","","99.90","","","","-10","","NA"
"2014-02-15 06:00","2014","02","15","06:00","-4.6","","-9.1","","71","","31","","18","","16.1","","99.96","","","","-11","","NA"
"2014-02-15 07:00","2014","02","15","07:00","-5.5","","-9.3","","75","","30","","11","","16.1","","100.01","","","","-10","","NA"
"2014-02-15 08:00","2014","02","15","08:00","-6.5","","-9.6","","79","","29","","17","","16.1","","100.13","","","","-13","","NA"
"2014-02-15 09:00","2014","02","15","09:00","-6.3","","-9.6","","78","","30","","18","","16.1","","100.21","","","","-13","","NA"
"2014-02-15 10:00","2014","02","15","10:00","-4.8","","-9.5","","70","","30","","15","","16.1","","100.23","","","","-10","","NA"
"2014-02-15 11:00","2014","02","15","11:00","-3.8","","-9.5","","65","","29","","17","","16.1","","100.26","","","","-10","","NA"
"2014-02-15 12:00","2014","02","15","12:00","-3.3","","-9.4","","63","","30","","13","","16.1","","100.29","","","","-8","","NA"
"2014-02-15 13:00","2014","02","15","13:00","-3.5","","-10.2","","60","","32","","15","","16.1","","100.28","","","","-9","","NA"
"2014-02-15 14:00","2014","02","15","14:00","-3.8","","-10.6","","60","","33","","15","","16.1","","100.29","","","","-9","","NA"
"2014-02-15 15:00","2014","02","15","15:00","-3.6","","-11.0","","57","","34","","15","","16.1","","100.33","","","","-9","","NA"
"2014-02-15 16:00","2014","02","15","16:00","-4.4","","-11.0","","60","","34","","15","","16.1","","100.41","","","","-10","","NA"
"2014-02-15 17:00","2014","02","15","17:00","-5.3","","-11.5","","62","","34","","13","","16.1","","100.47","","","","-10","","NA"
"2014-02-15 18:00","2014","02","15","18:00","-6.3","","-12.3","","63","","33","","13","","16.1","","100.53","","","","-12","","NA"
"2014-02-15 19:00","2014","02","15","19:00","-7.2","","-12.7","","65","","32","","15","","16.1","","100.63","","","","-13","","NA"
"2014-02-15 20:00","2014","02","15","20:00","-8.8","","-13.2","","71","","32","","18","","16.1","","100.72","","","","-16","","NA"
"2014-02-15 21:00","2014","02","15","21:00","-10.0","","-13.8","","74","","32","","21","","16.1","","100.78","","","","-18","","NA"
"2014-02-15 22:00","2014","02","15","22:00","-10.6","","-14.8","","71","","32","","15","","16.1","","100.81","","","","-17","","NA"
"2014-02-15 23:00","2014","02","15","23:00","-11.1","","-15.2","","72","","31","","11","","16.1","","100.83","","","","-17","","NA"
"2014-02-16 00:00","2014","02","16","00:00","-11.4","","-15.4","","72","","29","","13","","16.1","","100.81","","","","-18","","NA"
"2014-02-16 01:00","2014","02","16","01:00","-11.5","","-15.7","","71","","29","","17","","16.1","","100.82","","","","-19","","NA"
"2014-02-16 02:00","2014","02","16","02:00","-11.6","","-15.7","","72","","31","","13","","16.1","","100.80","","","","-18","","NA"
"2014-02-16 03:00","2014","02","16","03:00","-12.0","","-15.7","","74","","30","","11","","16.1","","100.78","","","","-18","","NA"
"2014-02-16 04:00","2014","02","16","04:00","-12.1","","-15.8","","74","","31","","11","","16.1","","100.74","","","","-18","","NA"
"2014-02-16 05:00","2014","02","16","05:00","-12.2","","-16.1","","73","","31","","11","","16.1","","100.75","","","","-18","","NA"
"2014-02-16 06:00","2014","02","16","06:00","-11.8","","-15.9","","72","","32","","5","","16.1","","100.74","","","","-15","","NA"
"2014-02-16 07:00","2014","02","16","07:00","-11.5","","-15.6","","72","","31","","11","","16.1","","100.80","","","","-17","","NA"
"2014-02-16 08:00","2014","02","16","08:00","-11.3","","-14.3","","79","","32","","11","","4.8","","100.87","","","","-17","","NA"
"2014-02-16 09:00","2014","02","16","09:00","-11.0","","-13.3","","84","","31","","13","","4.0","","100.92","","","","-17","","NA"
"2014-02-16 10:00","2014","02","16","10:00","-10.4","","-13.3","","80","","31","","13","","4.8","","100.92","","","","-17","","NA"
"2014-02-16 11:00","2014","02","16","11:00","-9.2","","-12.9","","75","","31","","13","","16.1","","100.92","","","","-15","","NA"
"2014-02-16 12:00","2014","02","16","12:00","-8.4","","-12.7","","71","","29","","15","","16.1","","100.91","","","","-15","","NA"
"2014-02-16 13:00","2014","02","16","13:00","-8.0","","-13.2","","66","","33","","18","","16.1","","100.88","","","","-15","","NA"
"2014-02-16 14:00","2014","02","16","14:00","-7.4","","-13.8","","61","","36","","22","","16.1","","100.86","","","","-15","","NA"
"2014-02-16 15:00","2014","02","16","15:00","-7.3","","-13.9","","59","","33","","17","","16.1","","100.88","","","","-14","","NA"
"2014-02-16 16:00","2014","02","16","16:00","-7.5","","-13.9","","60","","32","","21","","16.1","","100.95","","","","-15","","NA"
"2014-02-16 17:00","2014","02","16","17:00","-8.3","","-15.1","","58","","33","","21","","16.1","","101.07","","","","-16","","NA"
"2014-02-16 18:00","2014","02","16","18:00","-9.2","","-17.4","","52","","32","","22","","16.1","","101.20","","","","-17","","NA"
"2014-02-16 19:00","2014","02","16","19:00","-10.2","","-20.6","","43","","31","","24","","16.1","","101.36","","","","-19","","NA"
"2014-02-16 20:00","2014","02","16","20:00","-11.4","","-19.6","","51","","32","","18","","16.1","","101.48","","","","-19","","NA"
"2014-02-16 21:00","2014","02","16","21:00","-11.7","","-19.3","","54","","32","","21","","16.1","","101.56","","","","-20","","NA"
"2014-02-16 22:00","2014","02","16","22:00","-12.0","","-19.5","","54","","32","","21","","16.1","","101.66","","","","-21","","NA"
"2014-02-16 23:00","2014","02","16","23:00","-11.6","","-19.6","","52","","33","","18","","16.1","","101.74","","","","-19","","NA"
"2014-02-17 00:00","2014","02","17","00:00","-11.4","","-19.6","","51","","32","","13","","16.1","","101.76","","","","-18","","NA"
"2014-02-17 01:00","2014","02","17","01:00","-11.3","","-20.0","","49","","31","","15","","16.1","","101.89","","","","-18","","NA"
"2014-02-17 02:00","2014","02","17","02:00","-12.0","","-19.4","","55","","29","","13","","16.1","","101.92","","","","-19","","NA"
"2014-02-17 03:00","2014","02","17","03:00","-12.8","","-18.8","","61","","30","","11","","16.1","","101.97","","","","-19","","NA"
"2014-02-17 04:00","2014","02","17","04:00","-13.3","","-19.1","","62","","30","","11","","16.1","","102.02","","","","-20","","NA"
"2014-02-17 05:00","2014","02","17","05:00","-13.3","","-19.1","","62","","32","","11","","16.1","","102.09","","","","-20","","NA"
"2014-02-17 06:00","2014","02","17","06:00","-13.2","","-19.5","","60","","32","","11","","16.1","","102.12","","","","-19","","NA"
"2014-02-17 07:00","2014","02","17","07:00","-14.1","","-20.0","","62","","","M","4","","16.1","","102.16","","","","-17","","NA"
"2014-02-17 08:00","2014","02","17","08:00","-13.4","","-18.9","","64","","32","","9","","16.1","","102.21","","","","-19","","NA"
"2014-02-17 09:00","2014","02","17","09:00","-11.4","","-19.4","","52","","","","0","","16.1","","102.25","","","","","","NA"
"2014-02-17 10:00","2014","02","17","10:00","-10.7","","-18.5","","53","","8","","8","","16.1","","102.24","","","","-15","","NA"
"2014-02-17 11:00","2014","02","17","11:00","-9.3","","-13.8","","70","","7","","13","","16.1","","102.16","","","","-15","","NA"
"2014-02-17 12:00","2014","02","17","12:00","-8.0","","-11.9","","74","","6","","15","","16.1","","102.11","","","","-14","","NA"
"2014-02-17 13:00","2014","02","17","13:00","-7.1","","-11.0","","74","","7","","22","","16.1","","101.96","","","","-15","","NA"
"2014-02-17 14:00","2014","02","17","14:00","-6.1","","-10.9","","69","","11","","15","","16.1","","101.85","","","","-12","","NA"
"2014-02-17 15:00","2014","02","17","15:00","-6.3","","-10.8","","71","","10","","18","","16.1","","101.77","","","","-13","","NA"
"2014-02-17 16:00","2014","02","17","16:00","-6.2","","-10.3","","73","","8","","21","","16.1","","101.64","","","","-13","","NA"
"2014-02-17 17:00","2014","02","17","17:00","-5.8","","-10.5","","69","","9","","30","","16.1","","101.50","","","","-14","","NA"
"2014-02-17 18:00","2014","02","17","18:00","-5.2","","-8.8","","76","","8","","35","","16.1","","101.29","","","","-14","","NA"
"2014-02-17 19:00","2014","02","17","19:00","-4.5","","-8.1","","76","","8","","41","","16.1","","101.09","","","","-14","","NA"
"2014-02-17 20:00","2014","02","17","20:00","-3.7","","-8.0","","73","","8","","33","","16.1","","100.92","","","","-12","","NA"
"2014-02-17 21:00","2014","02","17","21:00","-3.2","","-8.6","","66","","8","","41","","16.1","","100.78","","","","-12","","NA"
"2014-02-17 22:00","2014","02","17","22:00","-2.9","","-8.6","","65","","8","","46","","12.9","","100.45","","","","-12","","NA"
"2014-02-17 23:00","2014","02","17","23:00","-2.5","","-8.9","","62","","8","","39","","16.1","","100.26","","","","-11","","NA"
"2014-02-18 00:00","2014","02","18","00:00","-2.2","","-8.6","","62","","9","","32","","11.3","","100.14","","","","-10","","NA"
"2014-02-18 01:00","2014","02","18","01:00","-3.8","","-4.8","","93","","9","","22","","0.8","","99.99","","","","-10","","NA"
"2014-02-18 02:00","2014","02","18","02:00","-2.6","","-3.2","","96","","10","","18","","1.6","","99.92","","","","-8","","NA"
"2014-02-18 03:00","2014","02","18","03:00","-2.2","","-3.7","","89","","10","","18","","4.8","","99.78","","","","-8","","NA"
"2014-02-18 04:00","2014","02","18","04:00","-2.0","","-3.0","","93","","11","","21","","2.0","","99.71","","","","-8","","NA"
"2014-02-18 05:00","2014","02","18","05:00","-0.5","","-2.7","","85","","16","","26","","16.1","","99.64","","","","-7","","NA"
"2014-02-18 06:00","2014","02","18","06:00","0.0","","-1.8","","88","","17","","28","","16.1","","99.61","","","","-6","","NA"
"2014-02-18 07:00","2014","02","18","07:00","-0.2","","-1.7","","90","","21","","32","","6.4","","99.62","","","","-7","","NA"
"2014-02-18 08:00","2014","02","18","08:00","-0.7","","-2.5","","87","","22","","37","","6.4","","99.75","","","","-8","","NA"
"2014-02-18 09:00","2014","02","18","09:00","-1.3","","-3.3","","86","","23","","41","","6.4","","99.84","","","","-9","","NA"
"2014-02-18 10:00","2014","02","18","10:00","-1.8","","-4.1","","84","","23","","39","","12.9","","99.94","","","","-10","","NA"
"2014-02-18 11:00","2014","02","18","11:00","-1.4","","-4.5","","79","","25","","32","","16.1","","100.08","","","","-9","","NA"
"2014-02-18 12:00","2014","02","18","12:00","-2.0","","-4.7","","82","","23","","32","","8.1","","100.20","","","","-9","","NA"
"2014-02-18 13:00","2014","02","18","13:00","-1.2","","-4.5","","78","","24","","35","","11.3","","100.30","","","","-9","","NA"
"2014-02-18 14:00","2014","02","18","14:00","-0.8","","-4.7","","75","","25","","39","","16.1","","100.40","","","","-8","","NA"
"2014-02-18 15:00","2014","02","18","15:00","-1.4","","-6.1","","70","","26","","28","","16.1","","100.45","","","","-8","","NA"
"2014-02-18 16:00","2014","02","18","16:00","-2.1","","-6.9","","70","","25","","28","","16.1","","100.62","","","","-9","","NA"
"2014-02-18 17:00","2014","02","18","17:00","-2.2","","-7.5","","67","","25","","17","","16.1","","100.57","","","","-8","","NA"
"2014-02-18 18:00","2014","02","18","18:00","-2.3","","-7.6","","67","","24","","32","","16.1","","100.63","","","","-10","","NA"
"2014-02-18 19:00","2014","02","18","19:00","-2.3","","-7.5","","68","","23","","21","","16.1","","100.60","","","","-8","","NA"
"2014-02-18 20:00","2014","02","18","20:00","-2.0","","-5.7","","76","","22","","17","","16.1","","100.49","","","","-7","","NA"
"2014-02-18 21:00","2014","02","18","21:00","-1.1","","-4.3","","79","","18","","15","","16.1","","100.42","","","","-6","","NA"
"2014-02-18 22:00","2014","02","18","22:00","-1.1","","-4.1","","80","","18","","11","","16.1","","100.41","","","","-5","","NA"
"2014-02-18 23:00","2014","02","18","23:00","-1.2","","-3.9","","82","","14","","9","","16.1","","100.28","","","","-4","","NA"
"2014-02-19 00:00","2014","02","19","00:00","-1.3","","-3.7","","84","","11","","15","","16.1","","100.14","","","","-6","","NA"
"2014-02-19 01:00","2014","02","19","01:00","-1.0","","-3.1","","86","","9","","18","","16.1","","99.99","","","","-6","","NA"
"2014-02-19 02:00","2014","02","19","02:00","-1.1","","-3.2","","86","","8","","22","","16.1","","99.83","","","","-7","","NA"
"2014-02-19 03:00","2014","02","19","03:00","-1.4","","-3.1","","88","","8","","18","","11.3","","99.68","","","","-7","","NA"
"2014-02-19 04:00","2014","02","19","04:00","-0.1","","-2.3","","85","","6","","22","","12.9","","99.54","","","","-6","","NA"
"2014-02-19 05:00","2014","02","19","05:00","-0.2","","-2.3","","86","","7","","18","","14.5","","99.42","","","","-5","","NA"
"2014-02-19 06:00","2014","02","19","06:00","-0.1","","-2.3","","85","","7","","18","","16.1","","99.31","","","","-5","","NA"
"2014-02-19 07:00","2014","02","19","07:00","0.2","","-2.2","","84","","8","","13","","16.1","","99.35","","","","","","NA"
"2014-02-19 08:00","2014","02","19","08:00","-1.7","","-3.6","","87","","8","","5","","11.3","","99.35","","","","-4","","NA"
"2014-02-19 09:00","2014","02","19","09:00","-0.1","","-1.7","","89","","22","","4","","8.1","","99.37","","","","-1","","NA"
"2014-02-19 10:00","2014","02","19","10:00","1.3","","-1.4","","82","","26","","5","","9.7","","99.37","","","","","","NA"
"2014-02-19 11:00","2014","02","19","11:00","2.1","","-1.4","","78","","22","","11","","9.7","","99.39","","","","","","NA"
"2014-02-19 12:00","2014","02","19","12:00","2.5","","-0.4","","81","","23","","11","","9.7","","99.39","","","","","","NA"
"2014-02-19 13:00","2014","02","19","13:00","2.9","","0.0","","81","","21","","21","","9.7","","99.41","","","","","","NA"
"2014-02-19 14:00","2014","02","19","14:00","5.0","","-1.4","","63","","27","","24","","16.1","","99.47","","","","","","NA"
"2014-02-19 15:00","2014","02","19","15:00","2.7","","0.8","","87","","29","","17","","9.7","","99.62","","","","","","NA"
"2014-02-19 16:00","2014","02","19","16:00","2.4","","0.8","","89","","22","","17","","8.1","","99.78","","","","","","NA"
"2014-02-19 17:00","2014","02","19","17:00","4.6","","-2.3","","61","","28","","22","","16.1","","99.93","","","","","","NA"
"2014-02-19 18:00","2014","02","19","18:00","3.6","","-3.1","","62","","27","","24","","16.1","","100.18","","","","","","NA"
"2014-02-19 19:00","2014","02","19","19:00","2.4","","-3.1","","67","","27","","24","","16.1","","100.41","","","","","","NA"
"2014-02-19 20:00","2014","02","19","20:00","1.1","","-3.2","","73","","27","","21","","16.1","","100.55","","","","","","NA"
"2014-02-19 21:00","2014","02","19","21:00","0.5","","-2.1","","83","","23","","21","","12.9","","100.71","","","","","","NA"
"2014-02-19 22:00","2014","02","19","22:00","0.3","","-1.9","","85","","22","","18","","9.7","","100.79","","","","","","NA"
"2014-02-19 23:00","2014","02","19","23:00","0.0","","-2.2","","85","","24","","8","","8.1","","100.80","","","","-3","","NA"
"2014-02-20 00:00","2014","02","20","00:00","-3.4","","-4.3","","94","","16","","4","","4.0","","100.79","","","","-5","","NA"
"2014-02-20 01:00","2014","02","20","01:00","-2.1","","-2.4","","98","","20","","4","","4.0","","100.83","","","","-4","","NA"
"2014-02-20 02:00","2014","02","20","02:00","-1.3","","-1.9","","96","","","","0","","4.8","","100.84","","","","","","NA"
"2014-02-20 03:00","2014","02","20","03:00","-2.5","","-2.6","","99","","","","0","","2.8","","100.86","","","","","","NA"
"2014-02-20 04:00","2014","02","20","04:00","-1.7","","-2.5","","94","","24","","9","","4.8","","100.92","","","","-5","","NA"
"2014-02-20 05:00","2014","02","20","05:00","-0.3","","-2.4","","86","","25","","5","","6.4","","100.94","","","","-2","","NA"
"2014-02-20 06:00","2014","02","20","06:00","-0.4","","-2.2","","87","","20","","11","","6.4","","100.96","","","","-4","","NA"
"2014-02-20 07:00","2014","02","20","07:00","-0.1","","-1.9","","88","","22","","17","","6.4","","101.03","","","","-5","","NA"
"2014-02-20 08:00","2014","02","20","08:00","0.2","","-1.1","","91","","20","","17","","6.4","","101.06","","","","","","NA"
"2014-02-20 09:00","2014","02","20","09:00","0.1","","-1.2","","91","","22","","11","","6.4","","101.06","","","","","","NA"
"2014-02-20 10:00","2014","02","20","10:00","0.4","","-0.8","","92","","21","","9","","4.8","","101.05","","","","","","NA"
"2014-02-20 11:00","2014","02","20","11:00","0.4","","-0.6","","93","","","","0","","4.8","","100.97","","","","","","NA"
"2014-02-20 12:00","2014","02","20","12:00","0.5","","-0.7","","92","","6","","11","","4.8","","100.86","","","","","","NA"
"2014-02-20 13:00","2014","02","20","13:00","1.2","","-0.4","","89","","9","","13","","4.8","","100.80","","","","","","NA"
"2014-02-20 14:00","2014","02","20","14:00","0.8","","-0.4","","92","","7","","26","","4.8","","100.61","","","","","","NA"
"2014-02-20 15:00","2014","02","20","15:00","0.9","","-0.1","","93","","8","","26","","4.0","","100.61","","","","","","NA"
"2014-02-20 16:00","2014","02","20","16:00","1.1","","0.2","","94","","7","","26","","4.0","","100.58","","","","","","NA"
"2014-02-20 17:00","2014","02","20","17:00","1.3","","0.6","","95","","9","","22","","4.0","","100.57","","","","","","NA"
"2014-02-20 18:00","2014","02","20","18:00","0.6","","0.3","","98","","7","","33","","3.2","","100.38","","","","","","NA"
"2014-02-20 19:00","2014","02","20","19:00","0.9","","0.6","","98","","7","","35","","4.0","","100.30","","","","","","NA"
"2014-02-20 20:00","2014","02","20","20:00","1.2","","0.9","","98","","7","","42","","4.8","","100.10","","","","","","NA"
"2014-02-20 21:00","2014","02","20","21:00","1.5","","1.1","","97","","8","","41","","6.4","","99.99","","","","","","NA"
"2014-02-20 22:00","2014","02","20","22:00","1.4","","1.1","","98","","7","","42","","8.1","","99.92","","","","","","NA"
"2014-02-20 23:00","2014","02","20","23:00","1.4","","1.1","","98","","7","","46","","3.2","","99.74","","","","","","NA"
"2014-02-21 00:00","2014","02","21","00:00","1.5","","1.2","","98","","7","","46","","16.1","","99.64","","","","","","NA"
"2014-02-21 01:00","2014","02","21","01:00","1.5","","1.2","","98","","6","","46","","12.9","","99.50","","","","","","NA"
"2014-02-21 02:00","2014","02","21","02:00","1.6","","1.2","","97","","7","","45","","11.3","","99.43","","","","","","NA"
"2014-02-21 03:00","2014","02","21","03:00","1.7","","1.3","","97","","6","","46","","14.5","","99.21","","","","","","NA"
"2014-02-21 04:00","2014","02","21","04:00","1.8","","1.4","","97","","7","","39","","16.1","","99.14","","","","","","NA"
"2014-02-21 05:00","2014","02","21","05:00","1.8","","1.4","","97","","8","","35","","3.2","","99.06","","","","","","NA"
"2014-02-21 06:00","2014","02","21","06:00","1.9","","1.6","","98","","7","","37","","6.4","","99.00","","","","","","NA"
"2014-02-21 07:00","2014","02","21","07:00","2.0","","1.7","","98","","7","","26","","6.4","","98.98","","","","","","NA"
"2014-02-21 08:00","2014","02","21","08:00","2.3","","2.0","","98","","8","","9","","4.8","","99.00","","","","","","NA"
"2014-02-21 09:00","2014","02","21","09:00","2.9","","2.0","","94","","23","","37","","16.1","","99.18","","","","","","NA"
"2014-02-21 10:00","2014","02","21","10:00","2.4","","0.8","","89","","23","","28","","16.1","","99.31","","","","","","NA"
"2014-02-21 11:00","2014","02","21","11:00","2.4","","0.0","","84","","22","","32","","16.1","","99.19","","","","","","NA"
"2014-02-21 12:00","2014","02","21","12:00","2.7","","0.2","","84","","21","","33","","16.1","","99.21","","","","","","NA"
"2014-02-21 13:00","2014","02","21","13:00","3.4","","-0.6","","75","","22","","45","","16.1","","99.18","","","","","","NA"
"2014-02-21 14:00","2014","02","21","14:00","4.0","","-1.7","","67","","22","","50","","16.1","","99.14","","","","","","NA"
"2014-02-21 15:00","2014","02","21","15:00","3.4","","-0.9","","74","","22","","41","","16.1","","99.16","","","","","","NA"
"2014-02-21 16:00","2014","02","21","16:00","3.8","","-2.1","","65","","23","","54","","16.1","","99.20","","","","","","NA"
"2014-02-21 17:00","2014","02","21","17:00","3.4","","-2.8","","64","","23","","54","","16.1","","99.29","","","","","","NA"
"2014-02-21 18:00","2014","02","21","18:00","2.9","","-3.2","","64","","23","","52","","16.1","","99.35","","","","","","NA"
"2014-02-21 19:00","2014","02","21","19:00","2.6","","-3.3","","65","","23","","58","","16.1","","99.41","","","","","","NA"
"2014-02-21 20:00","2014","02","21","20:00","2.3","","-2.8","","69","","23","","48","","16.1","","99.48","","","","","","NA"
"2014-02-21 21:00","2014","02","21","21:00","2.4","","-3.3","","66","","23","","58","","16.1","","99.53","","","","","","NA"
"2014-02-21 22:00","2014","02","21","22:00","1.9","","-3.7","","67","","24","","58","","16.1","","99.58","","","","","","NA"
"2014-02-21 23:00","2014","02","21","23:00","1.6","","-4.5","","64","","23","","52","","16.1","","99.60","","","","","","NA"
"2014-02-22 00:00","2014","02","22","00:00","1.4","","-4.8","","63","","24","","45","","16.1","","99.66","","","","","","NA"
"2014-02-22 01:00","2014","02","22","01:00","1.1","","-6.7","","56","","24","","46","","16.1","","99.72","","","","","","NA"
"2014-02-22 02:00","2014","02","22","02:00","1.1","","-5.8","","60","","24","","45","","16.1","","99.73","","","","","","NA"
"2014-02-22 03:00","2014","02","22","03:00","1.4","","-5.1","","62","","23","","41","","16.1","","99.68","","","","","","NA"
"2014-02-22 04:00","2014","02","22","04:00","1.7","","-3.3","","70","","23","","39","","16.1","","99.65","","","","","","NA"
"2014-02-22 05:00","2014","02","22","05:00","2.1","","-2.2","","73","","22","","39","","16.1","","99.61","","","","","","NA"
"2014-02-22 06:00","2014","02","22","06:00","2.1","","-0.8","","81","","23","","42","","16.1","","99.62","","","","","","NA"
"2014-02-22 07:00","2014","02","22","07:00","2.2","","-1.6","","76","","22","","39","","16.1","","99.57","","","","","","NA"
"2014-02-22 08:00","2014","02","22","08:00","2.6","","-2.5","","69","","23","","37","","16.1","","99.65","","","","","","NA"
"2014-02-22 09:00","2014","02","22","09:00","3.0","","-2.9","","65","","24","","37","","16.1","","99.76","","","","","","NA"
"2014-02-22 10:00","2014","02","22","10:00","3.2","","-3.9","","60","","25","","32","","16.1","","99.86","","","","","","NA"
"2014-02-22 11:00","2014","02","22","11:00","2.9","","-9.0","","41","","25","","50","","16.1","","99.92","","","","","","NA"
"2014-02-22 12:00","2014","02","22","12:00","2.3","","-12.3","","33","","25","","54","","16.1","","100.00","","","","","","NA"
"2014-02-22 13:00","2014","02","22","13:00","2.3","","-10.6","","38","","26","","41","","16.1","","100.04","","","","","","NA"
"2014-02-22 14:00","2014","02","22","14:00","2.7","","-8.7","","43","","25","","30","","16.1","","100.09","","","","","","NA"
"2014-02-22 15:00","2014","02","22","15:00","2.8","","-9.6","","40","","26","","41","","16.1","","100.07","","","","","","NA"
"2014-02-22 16:00","2014","02","22","16:00","3.0","","-8.7","","42","","25","","39","","16.1","","100.09","","","","","","NA"
"2014-02-22 17:00","2014","02","22","17:00","2.7","","-6.3","","52","","24","","37","","16.1","","100.09","","","","","","NA"
"2014-02-22 18:00","2014","02","22","18:00","2.0","","-5.4","","58","","24","","39","","16.1","","100.13","","","","","","NA"
"2014-02-22 19:00","2014","02","22","19:00","1.6","","-5.0","","61","","24","","37","","16.1","","100.20","","","","","","NA"
"2014-02-22 20:00","2014","02","22","20:00","1.4","","-4.4","","65","","24","","33","","16.1","","100.22","","","","","","NA"
"2014-02-22 21:00","2014","02","22","21:00","1.3","","-4.6","","65","","24","","35","","16.1","","100.26","","","","","","NA"
"2014-02-22 22:00","2014","02","22","22:00","1.3","","-5.2","","62","","24","","39","","16.1","","100.31","","","","","","NA"
"2014-02-22 23:00","2014","02","22","23:00","0.9","","-5.6","","62","","25","","30","","16.1","","100.35","","","","","","NA"
"2014-02-23 00:00","2014","02","23","00:00","0.5","","-6.5","","59","","26","","22","","16.1","","100.36","","","","","","NA"
"2014-02-23 01:00","2014","02","23","01:00","0.3","","-9.1","","49","","26","","24","","16.1","","100.37","","","","","","NA"
"2014-02-23 02:00","2014","02","23","02:00","-0.2","","-8.4","","54","","26","","26","","16.1","","100.42","","","","-6","","NA"
"2014-02-23 03:00","2014","02","23","03:00","-1.0","","-8.6","","56","","25","","26","","16.1","","100.44","","","","-7","","NA"
"2014-02-23 04:00","2014","02","23","04:00","-1.4","","-8.8","","57","","26","","17","","16.1","","100.46","","","","-7","","NA"
"2014-02-23 05:00","2014","02","23","05:00","-1.7","","-8.5","","60","","24","","18","","16.1","","100.50","","","","-7","","NA"
"2014-02-23 06:00","2014","02","23","06:00","-2.1","","-8.4","","62","","24","","24","","16.1","","100.56","","","","-8","","NA"
"2014-02-23 07:00","2014","02","23","07:00","-2.3","","-8.0","","65","","24","","30","","16.1","","100.53","","","","-9","","NA"
"2014-02-23 08:00","2014","02","23","08:00","-2.5","","-7.9","","66","","25","","35","","16.1","","100.57","","","","-10","","NA"
"2014-02-23 09:00","2014","02","23","09:00","-2.3","","-7.9","","65","","25","","32","","16.1","","100.59","","","","-10","","NA"
"2014-02-23 10:00","2014","02","23","10:00","-1.7","","-7.9","","63","","25","","32","","16.1","","100.60","","","","-9","","NA"
"2014-02-23 11:00","2014","02","23","11:00","-1.4","","-8.2","","60","","26","","32","","16.1","","100.58","","","","-9","","NA"
"2014-02-23 12:00","2014","02","23","12:00","-0.8","","-8.1","","58","","24","","33","","16.1","","100.48","","","","-8","","NA"
"2014-02-23 13:00","2014","02","23","13:00","-0.2","","-8.6","","53","","25","","33","","16.1","","100.43","","","","-7","","NA"
"2014-02-23 14:00","2014","02","23","14:00","0.2","","-7.9","","55","","24","","35","","16.1","","100.36","","","","","","NA"
"2014-02-23 15:00","2014","02","23","15:00","0.1","","-8.2","","54","","25","","33","","16.1","","100.36","","","","","","NA"
"2014-02-23 16:00","2014","02","23","16:00","-0.7","","-9.2","","53","","28","","26","","16.1","","100.37","","","","-7","","NA"
"2014-02-23 17:00","2014","02","23","17:00","-1.8","","-10.2","","53","","28","","41","","16.1","","100.39","","","","-10","","NA"
"2014-02-23 18:00","2014","02","23","18:00","-2.5","","-10.1","","56","","28","","30","","16.1","","100.46","","","","-10","","NA"
"2014-02-23 19:00","2014","02","23","19:00","-3.0","","-9.3","","62","","28","","22","","16.1","","100.54","","","","-9","","NA"
"2014-02-23 20:00","2014","02","23","20:00","-3.5","","-10.0","","61","","28","","22","","16.1","","100.55","","","","-10","","NA"
"2014-02-23 21:00","2014","02","23","21:00","-3.8","","-9.5","","65","","28","","13","","16.1","","100.55","","","","-9","","NA"
"2014-02-23 22:00","2014","02","23","22:00","-4.0","","-9.4","","67","","27","","18","","16.1","","100.54","","","","-10","","NA"
"2014-02-23 23:00","2014","02","23","23:00","-4.1","","-9.4","","67","","26","","24","","16.1","","100.49","","","","-11","","NA"
"2014-02-24 00:00","2014","02","24","00:00","-4.0","","-10.4","","61","","27","","33","","16.1","","100.47","","","","-12","","NA"
"2014-02-24 01:00","2014","02","24","01:00","-4.4","","-9.8","","66","","26","","37","","16.1","","100.49","","","","-13","","NA"
"2014-02-24 02:00","2014","02","24","02:00","-4.9","","-11.4","","60","","28","","22","","16.1","","100.51","","","","-12","","NA"
"2014-02-24 03:00","2014","02","24","03:00","-5.3","","-11.2","","64","","26","","21","","16.1","","100.50","","","","-12","","NA"
"2014-02-24 04:00","2014","02","24","04:00","-5.7","","-11.2","","65","","25","","28","","16.1","","100.48","","","","-14","","NA"
"2014-02-24 05:00","2014","02","24","05:00","-5.5","","-10.8","","66","","26","","28","","16.1","","100.48","","","","-13","","NA"
"2014-02-24 06:00","2014","02","24","06:00","-5.2","","-8.8","","76","","25","","30","","16.1","","100.45","","","","-13","","NA"
"2014-02-24 07:00","2014","02","24","07:00","-5.7","","-8.7","","80","","28","","28","","16.1","","100.49","","","","-14","","NA"
"2014-02-24 08:00","2014","02","24","08:00","-6.6","","-13.0","","61","","28","","33","","16.1","","100.58","","","","-15","","NA"
"2014-02-24 09:00","2014","02","24","09:00","-6.6","","-14.0","","56","","29","","32","","16.1","","100.64","","","","-15","","NA"
"2014-02-24 10:00","2014","02","24","10:00","-6.3","","-13.2","","59","","27","","35","","16.1","","100.67","","","","-15","","NA"
"2014-02-24 11:00","2014","02","24","11:00","-5.9","","-14.2","","52","","28","","37","","16.1","","100.69","","","","-15","","NA"
"2014-02-24 12:00","2014","02","24","12:00","-5.6","","-13.9","","52","","27","","33","","16.1","","100.71","","","","-14","","NA"
"2014-02-24 13:00","2014","02","24","13:00","-6.0","","-13.6","","55","","28","","32","","16.1","","100.70","","","","-15","","NA"
"2014-02-24 14:00","2014","02","24","14:00","-5.5","","-12.7","","57","","26","","35","","16.1","","100.70","","","","-14","","NA"
"2014-02-24 15:00","2014","02","24","15:00","-5.8","","-14.0","","53","","27","","42","","16.1","","100.73","","","","-15","","NA"
"2014-02-24 16:00","2014","02","24","16:00","-6.2","","-14.3","","53","","27","","41","","16.1","","100.82","","","","-16","","NA"
"2014-02-24 17:00","2014","02","24","17:00","-6.2","","-15.9","","47","","28","","39","","16.1","","100.87","","","","-16","","NA"
"2014-02-24 18:00","2014","02","24","18:00","-6.6","","-14.3","","55","","28","","32","","16.1","","100.93","","","","-15","","NA"
"2014-02-24 19:00","2014","02","24","19:00","-7.0","","-12.9","","63","","29","","28","","16.1","","100.98","","","","-15","","NA"
"2014-02-24 20:00","2014","02","24","20:00","-7.3","","-12.8","","65","","27","","28","","16.1","","101.00","","","","-16","","NA"
"2014-02-24 21:00","2014","02","24","21:00","-7.5","","-12.1","","70","","27","","22","","16.1","","100.99","","","","-15","","NA"
"2014-02-24 22:00","2014","02","24","22:00","-7.6","","-11.5","","74","","27","","22","","16.1","","100.98","","","","-15","","NA"
"2014-02-24 23:00","2014","02","24","23:00","-7.2","","-10.9","","75","","26","","26","","16.1","","100.95","","","","-15","","NA"
"2014-02-25 00:00","2014","02","25","00:00","-7.8","","-11.4","","76","","28","","21","","16.1","","100.94","","","","-15","","NA"
"2014-02-25 01:00","2014","02","25","01:00","-8.4","","-12.2","","75","","33","","9","","16.1","","100.92","","","","-13","","NA"
"2014-02-25 02:00","2014","02","25","02:00","-8.5","","-13.6","","67","","31","","18","","16.1","","100.94","","","","-16","","NA"
"2014-02-25 03:00","2014","02","25","03:00","-8.7","","-13.8","","67","","30","","18","","16.1","","100.92","","","","-16","","NA"
"2014-02-25 04:00","2014","02","25","04:00","-8.6","","-12.8","","72","","28","","18","","16.1","","100.88","","","","-16","","NA"
"2014-02-25 05:00","2014","02","25","05:00","-9.1","","-13.8","","69","","27","","22","","16.1","","100.88","","","","-17","","NA"
"2014-02-25 06:00","2014","02","25","06:00","-9.2","","-13.9","","69","","29","","21","","16.1","","100.86","","","","-17","","NA"
"2014-02-25 07:00","2014","02","25","07:00","-9.5","","-13.8","","71","","30","","21","","16.1","","100.88","","","","-17","","NA"
"2014-02-25 08:00","2014","02","25","08:00","-9.8","","-15.0","","66","","29","","22","","16.1","","100.94","","","","-18","","NA"
"2014-02-25 09:00","2014","02","25","09:00","-9.5","","-14.0","","70","","28","","26","","16.1","","100.94","","","","-18","","NA"
"2014-02-25 10:00","2014","02","25","10:00","-9.0","","-14.2","","66","","30","","21","","16.1","","100.93","","","","-17","","NA"
"2014-02-25 11:00","2014","02","25","11:00","-7.9","","-12.6","","69","","26","","17","","16.1","","100.91","","","","-15","","NA"
"2014-02-25 12:00","2014","02","25","12:00","-6.8","","-13.2","","61","","27","","21","","16.1","","100.87","","","","-14","","NA"
"2014-02-25 13:00","2014","02","25","13:00","-6.3","","-13.1","","59","","26","","24","","16.1","","100.79","","","","-14","","NA"
"2014-02-25 14:00","2014","02","25","14:00","-6.0","","-12.6","","60","","26","","26","","16.1","","100.74","","","","-14","","NA"
"2014-02-25 15:00","2014","02","25","15:00","-6.6","","-12.9","","61","","25","","26","","16.1","","100.73","","","","-15","","NA"
"2014-02-25 16:00","2014","02","25","16:00","-6.1","","-12.7","","60","","25","","28","","16.1","","100.66","","","","-14","","NA"
"2014-02-25 17:00","2014","02","25","17:00","-6.3","","-12.6","","61","","26","","32","","16.1","","100.63","","","","-15","","NA"
"2014-02-25 18:00","2014","02","25","18:00","-6.6","","-12.8","","62","","25","","32","","16.1","","100.63","","","","-15","","NA"
"2014-02-25 19:00","2014","02","25","19:00","-6.5","","-12.0","","65","","25","","33","","16.1","","100.58","","","","-15","","NA"
"2014-02-25 20:00","2014","02","25","20:00","-6.2","","-10.7","","71","","24","","33","","16.1","","100.48","","","","-15","","NA"
"2014-02-25 21:00","2014","02","25","21:00","-5.7","","-9.8","","73","","22","","41","","16.1","","100.37","","","","-15","","NA"
"2014-02-25 22:00","2014","02","25","22:00","-5.3","","-8.5","","79","","23","","48","","16.1","","100.26","","","","-15","","NA"
"2014-02-25 23:00","2014","02","25","23:00","-6.7","","-11.0","","72","","28","","32","","14.5","","100.24","","","","-15","","NA"
"2014-02-26 00:00","2014","02","26","00:00","-8.2","","-12.8","","70","","31","","35","","12.9","","100.22","","","","-18","","NA"
"2014-02-26 01:00","2014","02","26","01:00","-9.6","","-15.9","","61","","31","","30","","16.1","","100.29","","","","-19","","NA"
"2014-02-26 02:00","2014","02","26","02:00","-10.5","","-18.1","","54","","29","","32","","16.1","","100.32","","","","-20","","NA"
"2014-02-26 03:00","2014","02","26","03:00","-11.6","","-17.7","","61","","29","","30","","16.1","","100.35","","","","-22","","NA"
"2014-02-26 04:00","2014","02","26","04:00","-12.2","","-17.6","","65","","29","","22","","16.1","","100.38","","","","-21","","NA"
"2014-02-26 05:00","2014","02","26","05:00","-12.7","","-19.4","","58","","28","","32","","16.1","","100.39","","","","-23","","NA"
"2014-02-26 06:00","2014","02","26","06:00","-13.4","","-19.3","","62","","28","","28","","16.1","","100.47","","","","-24","","NA"
"2014-02-26 07:00","2014","02","26","07:00","-13.5","","-19.3","","62","","28","","32","","16.1","","100.50","","","","-24","","NA"
"2014-02-26 08:00","2014","02","26","08:00","-13.3","","-19.0","","63","","26","","39","","16.1","","100.57","","","","-25","","NA"
"2014-02-26 09:00","2014","02","26","09:00","-12.6","","-18.7","","61","","28","","35","","16.1","","100.66","","","","-24","","NA"
"2014-02-26 10:00","2014","02","26","10:00","-12.2","","-18.6","","60","","28","","37","","16.1","","100.66","","","","-23","","NA"
"2014-02-26 11:00","2014","02","26","11:00","-11.7","","-19.6","","53","","28","","32","","16.1","","100.68","","","","-22","","NA"
"2014-02-26 12:00","2014","02","26","12:00","-11.4","","-19.1","","54","","26","","37","","16.1","","100.64","","","","-22","","NA"
"2014-02-26 13:00","2014","02","26","13:00","-11.7","","-19.6","","53","","27","","32","","16.1","","100.58","","","","-22","","NA"
"2014-02-26 14:00","2014","02","26","14:00","-11.0","","-19.3","","51","","27","","28","","16.1","","100.46","","","","-21","","NA"
"2014-02-26 15:00","2014","02","26","15:00","-10.8","","-17.8","","57","","24","","30","","16.1","","100.41","","","","-21","","NA"
"2014-02-26 16:00","2014","02","26","16:00","-10.5","","-19.1","","50","","25","","35","","16.1","","100.35","","","","-21","","NA"
"2014-02-26 17:00","2014","02","26","17:00","-10.8","","-17.9","","56","","24","","24","","16.1","","100.27","","","","-20","","NA"
"2014-02-26 18:00","2014","02","26","18:00","-10.8","","-17.8","","57","","25","","32","","16.1","","100.18","","","","-21","","NA"
"2014-02-26 19:00","2014","02","26","19:00","-10.3","","-16.9","","59","","23","","37","","16.1","","100.10","","","","-21","","NA"
"2014-02-26 20:00","2014","02","26","20:00","-9.6","","-14.5","","68","","23","","45","","16.1","","99.95","","","","-21","","NA"
"2014-02-26 21:00","2014","02","26","21:00","-9.0","","-13.3","","71","","23","","41","","16.1","","99.82","","","","-20","","NA"
"2014-02-26 22:00","2014","02","26","22:00","-8.4","","-13.3","","68","","23","","48","","16.1","","99.72","","","","-19","","NA"
"2014-02-26 23:00","2014","02","26","23:00","-7.8","","-12.5","","69","","23","","45","","16.1","","99.58","","","","-18","","NA"
"2014-02-27 00:00","2014","02","27","00:00","-7.7","","-12.7","","68","","23","","46","","16.1","","99.43","","","","-18","","NA"
"2014-02-27 01:00","2014","02","27","01:00","-7.5","","-11.9","","71","","23","","50","","16.1","","99.31","","","","-18","","NA"
"2014-02-27 02:00","2014","02","27","02:00","-8.4","","-13.1","","69","","24","","37","","14.5","","99.24","","","","-18","","NA"
"2014-02-27 03:00","2014","02","27","03:00","-8.8","","-14.3","","65","","24","","39","","16.1","","99.12","","","","-19","","NA"
"2014-02-27 04:00","2014","02","27","04:00","-9.4","","-15.3","","63","","24","","45","","16.1","","99.05","","","","-20","","NA"
"2014-02-27 05:00","2014","02","27","05:00","-9.6","","-15.1","","65","","24","","46","","16.1","","99.01","","","","-21","","NA"
"2014-02-27 06:00","2014","02","27","06:00","-9.7","","-14.3","","69","","24","","42","","16.1","","99.00","","","","-21","","NA"
"2014-02-27 07:00","2014","02","27","07:00","-10.1","","-14.4","","71","","25","","33","","16.1","","98.97","","","","-20","","NA"
"2014-02-27 08:00","2014","02","27","08:00","-10.2","","-14.8","","69","","27","","32","","16.1","","98.97","","","","-20","","NA"
"2014-02-27 09:00","2014","02","27","09:00","-9.3","","-14.7","","65","","29","","26","","16.1","","99.01","","","","-18","","NA"
"2014-02-27 10:00","2014","02","27","10:00","-8.7","","-15.0","","61","","29","","41","","16.1","","99.08","","","","-19","","NA"
"2014-02-27 11:00","2014","02","27","11:00","-11.9","","-16.7","","68","","32","","33","","6.4","","99.34","","","","-22","","NA"
"2014-02-27 12:00","2014","02","27","12:00","-11.5","","-20.0","","50","","30","","39","","16.1","","99.54","","","","-23","","NA"
"2014-02-27 13:00","2014","02","27","13:00","-11.2","","-23.1","","37","","28","","48","","16.1","","99.65","","","","-23","","NA"
"2014-02-27 14:00","2014","02","27","14:00","-11.9","","-22.9","","40","","29","","50","","16.1","","99.80","","","","-24","","NA"
"2014-02-27 15:00","2014","02","27","15:00","-12.1","","-18.7","","59","","27","","50","","16.1","","100.01","","","","-25","","NA"
"2014-02-27 16:00","2014","02","27","16:00","-11.9","","-18.9","","56","","29","","54","","16.1","","100.17","","","","-25","","NA"
"2014-02-27 17:00","2014","02","27","17:00","-12.1","","-19.3","","55","","27","","46","","16.1","","100.37","","","","-24","","NA"
"2014-02-27 18:00","2014","02","27","18:00","-13.2","","-20.7","","54","","28","","46","","16.1","","100.56","","","","-26","","NA"
"2014-02-27 19:00","2014","02","27","19:00","-13.6","","-20.9","","55","","28","","39","","16.1","","100.77","","","","-25","","NA"
"2014-02-27 20:00","2014","02","27","20:00","-13.9","","-20.5","","58","","27","","37","","16.1","","100.87","","","","-26","","NA"
"2014-02-27 21:00","2014","02","27","21:00","-14.2","","-20.3","","60","","28","","32","","16.1","","100.99","","","","-25","","NA"
"2014-02-27 22:00","2014","02","27","22:00","-14.6","","-20.9","","59","","28","","30","","16.1","","101.09","","","","-26","","NA"
"2014-02-27 23:00","2014","02","27","23:00","-15.0","","-21.0","","61","","29","","28","","16.1","","101.20","","","","-26","","NA"
"2014-02-28 00:00","2014","02","28","00:00","-15.2","","-21.3","","60","","30","","24","","16.1","","101.25","","","","-25","","NA"
"2014-02-28 01:00","2014","02","28","01:00","-15.6","","-21.6","","61","","31","","26","","16.1","","101.33","","","","-26","","NA"
"2014-02-28 02:00","2014","02","28","02:00","-15.9","","-21.3","","64","","30","","21","","16.1","","101.41","","","","-26","","NA"
"2014-02-28 03:00","2014","02","28","03:00","-16.2","","-21.7","","63","","31","","21","","16.1","","101.48","","","","-26","","NA"
"2014-02-28 04:00","2014","02","28","04:00","-16.6","","-21.9","","64","","31","","15","","16.1","","101.55","","","","-25","","NA"
"2014-02-28 05:00","2014","02","28","05:00","-16.9","","-22.0","","65","","33","","13","","16.1","","101.65","","","","-25","","NA"
"2014-02-28 06:00","2014","02","28","06:00","-17.1","","-22.1","","66","","31","","13","","16.1","","101.71","","","","-25","","NA"
"2014-02-28 07:00","2014","02","28","07:00","-17.1","","-21.7","","68","","29","","17","","16.1","","101.84","","","","-26","","NA"
"2014-02-28 08:00","2014","02","28","08:00","-16.6","","-21.4","","67","","30","","11","","16.1","","101.92","","","","-24","","NA"
"2014-02-28 09:00","2014","02","28","09:00","-15.8","","-21.9","","60","","30","","9","","16.1","","102.03","","","","-22","","NA"
"2014-02-28 10:00","2014","02","28","10:00","-15.0","","-21.5","","58","","28","","8","","16.1","","102.03","","","","-20","","NA"
"2014-02-28 11:00","2014","02","28","11:00","-13.8","","-21.7","","52","","24","","15","","16.1","","102.10","","","","-21","","NA"
"2014-02-28 12:00","2014","02","28","12:00","-13.0","","-22.1","","47","","23","","17","","16.1","","102.07","","","","-21","","NA"
"2014-02-28 13:00","2014","02","28","13:00","-12.5","","-21.0","","50","","22","","18","","16.1","","102.03","","","","-21","","NA"
"2014-02-28 14:00","2014","02","28","14:00","-11.7","","-19.4","","54","","21","","17","","16.1","","101.94","","","","-19","","NA"
"2014-02-28 15:00","2014","02","28","15:00","-11.2","","-18.8","","54","","18","","15","","16.1","","101.86","","","","-18","","NA"
"2014-02-28 16:00","2014","02","28","16:00","-10.8","","-18.9","","52","","21","","15","","16.1","","101.81","","","","-18","","NA"
"2014-02-28 17:00","2014","02","28","17:00","-10.5","","-17.4","","57","","19","","13","","16.1","","101.81","","","","-17","","NA"
"2014-02-28 18:00","2014","02","28","18:00","-10.8","","-18.1","","56","","","M","4","","16.1","","101.78","","","","-13","","NA"
"2014-02-28 19:00","2014","02","28","19:00","-10.3","","-18.2","","53","","13","","8","","16.1","","101.69","","","","-15","","NA"
"2014-02-28 20:00","2014","02","28","20:00","-9.5","","-17.7","","52","","21","","8","","16.1","","101.71","","","","-14","","NA"
"2014-02-28 21:00","2014","02","28","21:00","-8.7","","-18.1","","47","","17","","11","","16.1","","101.66","","","","-14","","NA"
"2014-02-28 22:00","2014","02","28","22:00","-8.2","","-18.0","","46","","14","","15","","16.1","","101.56","","","","-15","","NA"
"2014-02-28 23:00","2014","02","28","23:00","-7.9","","-16.3","","51","","14","","21","","16.1","","101.45","","","","-15","","NA"
